{"type":"FeatureCollection","features":[{"type":"Feature","id":"ds-south","properties":{"ko":"사해 남부 분지","note":"오늘날은 칼륨·브롬 증발지. 제방선을 지우고 하나의 수역으로 그린다."},"geometry":{"type":"MultiPolygon","coordinates":[[[[35.3678,30.9646],[35.369,30.96473],[35.3702,30.96487],[35.3714,30.96501],[35.3726,30.96515],[35.3738,30.96532],[35.375,30.96548],[35.3762,30.96565],[35.3774,30.96579],[35.3786,30.96593],[35.3798,30.96607],[35.381,30.9662],[35.3822,30.96633],[35.3834,30.96647],[35.3846,30.9666],[35.3858,30.96673],[35.387,30.96687],[35.3882,30.967],[35.3894,30.96713],[35.3906,30.96727],[35.3918,30.96741],[35.393,30.96755],[35.3942,30.96772],[35.3954,30.96788],[35.3966,30.96805],[35.3978,30.96819],[35.399,30.96833],[35.4002,30.96847],[35.4014,30.9686],[35.4026,30.96873],[35.4038,30.96887],[35.405,30.969],[35.4062,30.96913],[35.4074,30.96927],[35.4086,30.96941],[35.4098,30.96956],[35.41099,30.96973],[35.41214,30.96996],[35.41322,30.97029],[35.41413,30.97077],[35.41482,30.97147],[35.41529,30.97238],[35.41559,30.97346],[35.41578,30.97461],[35.41592,30.9758],[35.41601,30.977],[35.41603,30.9782],[35.41598,30.9794],[35.41583,30.9806],[35.41561,30.9818],[35.41532,30.983],[35.415,30.9842],[35.41467,30.9854],[35.41437,30.9866],[35.41411,30.9878],[35.41392,30.989],[35.41383,30.9902],[35.41386,30.9914],[35.414,30.9926],[35.4142,30.9938],[35.41442,30.995],[35.4146,30.9962],[35.41474,30.9974],[35.41485,30.9986],[35.41497,30.9998],[35.41511,31.001],[35.41526,31.0022],[35.41543,31.0034],[35.41563,31.0046],[35.41589,31.0058],[35.41618,31.007],[35.4165,31.0082],[35.41683,31.0094],[35.41716,31.0106],[35.41748,31.0118],[35.4178,31.013],[35.41811,31.0142],[35.41843,31.0154],[35.41874,31.0166],[35.41902,31.0178],[35.41927,31.019],[35.41949,31.0202],[35.4197,31.0214],[35.41991,31.0226],[35.42012,31.0238],[35.42034,31.025],[35.42055,31.0262],[35.42072,31.0274],[35.42085,31.0286],[35.42096,31.0298],[35.42111,31.031],[35.4213,31.0322],[35.42153,31.0334],[35.42176,31.0346],[35.42193,31.0358],[35.42202,31.037],[35.42204,31.0382],[35.42202,31.0394],[35.42203,31.0406],[35.42208,31.0418],[35.42217,31.043],[35.4223,31.0442],[35.4225,31.0454],[35.42283,31.0466],[35.42331,31.0478],[35.42392,31.049],[35.42461,31.0502],[35.42534,31.0514],[35.42608,31.0526],[35.42683,31.0538],[35.42763,31.055],[35.42847,31.0562],[35.42932,31.0574],[35.43015,31.0586],[35.43094,31.0598],[35.43172,31.061],[35.43251,31.0622],[35.43332,31.0634],[35.43416,31.0646],[35.435,31.0658],[35.43584,31.067],[35.43668,31.0682],[35.43749,31.0694],[35.43828,31.0706],[35.43904,31.0718],[35.43978,31.073],[35.4405,31.0742],[35.44118,31.0754],[35.44184,31.07659],[35.44255,31.07775],[35.44338,31.07883],[35.44435,31.07973],[35.44544,31.08033],[35.44658,31.08055],[35.4477,31.08034],[35.44871,31.07974],[35.44958,31.07888],[35.45035,31.07794],[35.45114,31.07709],[35.45204,31.07646],[35.45308,31.07607],[35.45422,31.07589],[35.4554,31.07582],[35.4566,31.0758],[35.4578,31.0758],[35.459,31.0758],[35.4602,31.0758],[35.4614,31.07581],[35.4626,31.07583],[35.4638,31.07588],[35.465,31.07596],[35.4662,31.07605],[35.4674,31.07615],[35.4686,31.07626],[35.4698,31.07638],[35.471,31.07653],[35.4722,31.07671],[35.4734,31.0769],[35.4746,31.07711],[35.4758,31.07733],[35.477,31.07759],[35.4782,31.07789],[35.4794,31.07823],[35.4806,31.07861],[35.4818,31.079],[35.483,31.07941],[35.4842,31.07983],[35.4854,31.08029],[35.4866,31.08079],[35.48779,31.08134],[35.48895,31.08195],[35.49004,31.08265],[35.49098,31.08346],[35.49173,31.0844],[35.49228,31.08547],[35.49268,31.08662],[35.49299,31.0878],[35.49328,31.089],[35.49358,31.0902],[35.49396,31.09139],[35.49446,31.09256],[35.49515,31.09368],[35.49603,31.09472],[35.49708,31.09565],[35.49822,31.09648],[35.4994,31.09723],[35.5006,31.09795],[35.5018,31.09865],[35.503,31.09935],[35.50418,31.10006],[35.50532,31.10079],[35.50638,31.10159],[35.50731,31.1025],[35.50812,31.10351],[35.50891,31.10457],[35.50976,31.10562],[35.51072,31.10658],[35.51171,31.10748],[35.51259,31.10836],[35.51315,31.10929],[35.51328,31.11032],[35.51297,31.11144],[35.51233,31.11261],[35.5115,31.1138],[35.5106,31.115],[35.5097,31.1162],[35.50884,31.1174],[35.50804,31.1186],[35.5073,31.1198],[35.50661,31.121],[35.50593,31.1222],[35.50525,31.1234],[35.50455,31.1246],[35.50386,31.1258],[35.50319,31.127],[35.50257,31.1282],[35.50202,31.1294],[35.50157,31.1306],[35.50119,31.1318],[35.50089,31.133],[35.50064,31.1342],[35.50047,31.1354],[35.50042,31.1366],[35.50058,31.13779],[35.50102,31.13895],[35.50175,31.14005],[35.50271,31.14101],[35.50383,31.14181],[35.505,31.14242],[35.50619,31.14289],[35.50736,31.14331],[35.50849,31.14378],[35.50957,31.14441],[35.5106,31.14522],[35.51163,31.14617],[35.51271,31.14715],[35.51384,31.14809],[35.51501,31.14896],[35.5162,31.14979],[35.5174,31.1506],[35.5186,31.15141],[35.5198,31.15224],[35.521,31.15311],[35.5222,31.15404],[35.52339,31.15504],[35.52456,31.15608],[35.52567,31.15716],[35.52666,31.15828],[35.52749,31.15943],[35.52813,31.16061],[35.52862,31.1618],[35.52901,31.163],[35.52934,31.1642],[35.52964,31.1654],[35.52991,31.1666],[35.53012,31.1678],[35.53025,31.169],[35.53026,31.1702],[35.53016,31.1714],[35.53002,31.1726],[35.5299,31.1738],[35.52981,31.175],[35.5297,31.1762],[35.52948,31.1774],[35.52907,31.1786],[35.52845,31.1798],[35.52765,31.181],[35.52677,31.1822],[35.52592,31.1834],[35.52514,31.1846],[35.52445,31.1858],[35.52384,31.187],[35.52327,31.1882],[35.52272,31.1894],[35.52214,31.1906],[35.5215,31.1918],[35.52078,31.193],[35.51996,31.1942],[35.51907,31.1954],[35.51811,31.1966],[35.5171,31.1978],[35.51606,31.199],[35.51501,31.2002],[35.51395,31.20139],[35.51291,31.20255],[35.51188,31.20364],[35.51082,31.20457],[35.50971,31.20529],[35.50857,31.20574],[35.50739,31.20595],[35.5062,31.20596],[35.505,31.20584],[35.5038,31.20564],[35.5026,31.2054],[35.5014,31.20515],[35.5002,31.20491],[35.499,31.20468],[35.4978,31.20443],[35.4966,31.20415],[35.4954,31.2039],[35.4942,31.20372],[35.49301,31.20371],[35.49184,31.20394],[35.49074,31.20446],[35.48971,31.20523],[35.48875,31.20616],[35.48781,31.20712],[35.48682,31.208],[35.48573,31.20878],[35.48458,31.20946],[35.4834,31.21009],[35.4822,31.2107],[35.481,31.21129],[35.4798,31.21185],[35.4786,31.21236],[35.4774,31.21275],[35.4762,31.21305],[35.47501,31.2133],[35.47383,31.21361],[35.47268,31.21409],[35.47155,31.21472],[35.47045,31.21545],[35.46932,31.21619],[35.46817,31.2169],[35.46699,31.2176],[35.4658,31.21836],[35.4646,31.21916],[35.4634,31.21996],[35.4622,31.22066],[35.461,31.22124],[35.45983,31.22174],[35.4587,31.2223],[35.45769,31.22303],[35.45682,31.22394],[35.45605,31.22497],[35.45526,31.22605],[35.45436,31.22713],[35.45332,31.2282],[35.45218,31.22927],[35.451,31.23036],[35.4498,31.23148],[35.44862,31.23263],[35.44747,31.23381],[35.44639,31.235],[35.44543,31.2362],[35.44456,31.2374],[35.44376,31.2386],[35.44298,31.2398],[35.44218,31.24099],[35.44136,31.24216],[35.44048,31.24328],[35.43953,31.24429],[35.43848,31.24517],[35.43736,31.24588],[35.43619,31.24644],[35.435,31.24687],[35.4338,31.2472],[35.4326,31.24745],[35.4314,31.24764],[35.4302,31.24779],[35.429,31.24792],[35.4278,31.24804],[35.4266,31.24812],[35.4254,31.24816],[35.4242,31.24816],[35.423,31.24812],[35.4218,31.24805],[35.4206,31.24795],[35.4194,31.24788],[35.4182,31.24783],[35.417,31.2478],[35.4158,31.24778],[35.4146,31.24775],[35.4134,31.24772],[35.4122,31.24771],[35.411,31.24772],[35.4098,31.24774],[35.4086,31.24774],[35.4074,31.24766],[35.40622,31.24745],[35.40509,31.24705],[35.40407,31.24642],[35.40326,31.24556],[35.4027,31.24452],[35.4024,31.24338],[35.40229,31.2422],[35.40229,31.241],[35.40237,31.2398],[35.40248,31.2386],[35.40264,31.2374],[35.40284,31.2362],[35.40312,31.235],[35.40347,31.2338],[35.40388,31.2326],[35.40434,31.2314],[35.40476,31.2302],[35.40504,31.229],[35.40508,31.22783],[35.40477,31.22672],[35.40414,31.22576],[35.40323,31.22507],[35.40216,31.22474],[35.40102,31.22482],[35.39989,31.22528],[35.39883,31.22607],[35.39786,31.22708],[35.39699,31.22821],[35.39617,31.22936],[35.39533,31.23048],[35.39439,31.23149],[35.39333,31.23237],[35.39218,31.23308],[35.391,31.23364],[35.3898,31.23404],[35.3886,31.23432],[35.3874,31.23448],[35.3862,31.23456],[35.385,31.23459],[35.3838,31.2346],[35.3826,31.2346],[35.3814,31.2346],[35.3802,31.2346],[35.379,31.2346],[35.3778,31.2346],[35.3766,31.2346],[35.3754,31.23459],[35.3742,31.23457],[35.373,31.23452],[35.3718,31.23445],[35.3706,31.23438],[35.3694,31.23434],[35.3682,31.23432],[35.367,31.23427],[35.3658,31.23415],[35.3646,31.23392],[35.3634,31.23359],[35.36221,31.23315],[35.36105,31.23254],[35.35995,31.23174],[35.35899,31.23078],[35.35819,31.22971],[35.35756,31.22857],[35.35706,31.22739],[35.35667,31.2262],[35.35639,31.225],[35.35628,31.2238],[35.35642,31.2226],[35.35683,31.2214],[35.3575,31.2202],[35.35837,31.219],[35.35934,31.2178],[35.36028,31.2166],[35.36108,31.2154],[35.3617,31.2142],[35.36211,31.213],[35.36233,31.2118],[35.36239,31.2106],[35.36233,31.2094],[35.36221,31.2082],[35.36215,31.207],[35.36226,31.2058],[35.36257,31.2046],[35.36304,31.2034],[35.36354,31.2022],[35.36396,31.201],[35.36419,31.1998],[35.3642,31.1986],[35.36404,31.1974],[35.36384,31.1962],[35.36375,31.195],[35.36381,31.1938],[35.36401,31.1926],[35.36429,31.1914],[35.36457,31.1902],[35.36485,31.189],[35.36511,31.1878],[35.36541,31.1866],[35.36577,31.1854],[35.36621,31.1842],[35.36673,31.183],[35.36727,31.1818],[35.36778,31.1806],[35.3682,31.1794],[35.36851,31.1782],[35.36872,31.177],[35.36885,31.1758],[35.36893,31.1746],[35.36894,31.1734],[35.36886,31.1722],[35.36874,31.171],[35.36865,31.1698],[35.36863,31.1686],[35.36861,31.1674],[35.36853,31.1662],[35.36835,31.165],[35.36806,31.1638],[35.3677,31.1626],[35.36734,31.1614],[35.36704,31.1602],[35.36682,31.159],[35.3667,31.1578],[35.36668,31.15662],[35.36677,31.15548],[35.36703,31.15444],[35.3675,31.15356],[35.36822,31.15286],[35.36916,31.15229],[35.37025,31.15174],[35.37141,31.15115],[35.3726,31.15056],[35.3738,31.15003],[35.375,31.1496],[35.3762,31.1492],[35.3774,31.14876],[35.3786,31.14822],[35.37979,31.14757],[35.38095,31.1468],[35.38204,31.1459],[35.38297,31.14488],[35.38369,31.14376],[35.38414,31.14259],[35.38439,31.1414],[35.38457,31.1402],[35.38483,31.139],[35.38527,31.1378],[35.38583,31.1366],[35.38641,31.1354],[35.38692,31.1342],[35.38735,31.133],[35.38771,31.1318],[35.38801,31.1306],[35.38826,31.1294],[35.3885,31.1282],[35.38878,31.127],[35.38915,31.1258],[35.38959,31.1246],[35.39005,31.1234],[35.39047,31.1222],[35.39082,31.121],[35.39112,31.1198],[35.3914,31.1186],[35.39167,31.1174],[35.39195,31.1162],[35.39224,31.115],[35.39251,31.1138],[35.39273,31.1126],[35.39286,31.1114],[35.39288,31.1102],[35.39284,31.109],[35.39275,31.1078],[35.39268,31.1066],[35.39265,31.1054],[35.39268,31.1042],[35.39282,31.103],[35.39309,31.1018],[35.39348,31.1006],[35.3939,31.0994],[35.39427,31.0982],[35.39457,31.097],[35.39483,31.0958],[35.39514,31.0946],[35.39554,31.0934],[35.39604,31.0922],[35.3966,31.091],[35.39717,31.0898],[35.39769,31.0886],[35.39817,31.0874],[35.39862,31.0862],[35.39907,31.085],[35.39953,31.0838],[35.39997,31.0826],[35.40036,31.0814],[35.4007,31.0802],[35.40099,31.079],[35.40127,31.0778],[35.40153,31.0766],[35.4018,31.0754],[35.40206,31.0742],[35.40229,31.073],[35.40248,31.0718],[35.40256,31.0706],[35.40252,31.0694],[35.40232,31.0682],[35.40195,31.06701],[35.40138,31.06583],[35.40061,31.06469],[35.39964,31.06362],[35.39855,31.06263],[35.39739,31.06171],[35.39621,31.06082],[35.39503,31.05988],[35.39388,31.05886],[35.39275,31.05776],[35.39165,31.05661],[35.39052,31.05546],[35.38937,31.05438],[35.38819,31.05339],[35.387,31.05245],[35.38582,31.05149],[35.38468,31.05046],[35.38363,31.04936],[35.38274,31.04819],[35.38203,31.047],[35.38146,31.0458],[35.381,31.0446],[35.38059,31.0434],[35.38022,31.0422],[35.37982,31.041],[35.37932,31.0398],[35.37864,31.03861],[35.37779,31.03745],[35.3768,31.03635],[35.37571,31.03535],[35.37457,31.03447],[35.37339,31.03368],[35.37221,31.03292],[35.37104,31.03213],[35.36992,31.03128],[35.3689,31.03033],[35.368,31.02928],[35.36724,31.02816],[35.36661,31.02699],[35.36611,31.0258],[35.36576,31.0246],[35.36555,31.0234],[35.36545,31.0222],[35.36541,31.021],[35.36543,31.01983],[35.36551,31.01871],[35.36575,31.01775],[35.36621,31.01701],[35.36695,31.01657],[35.36791,31.01639],[35.36903,31.01645],[35.3702,31.01669],[35.3714,31.01703],[35.3726,31.01733],[35.3738,31.01744],[35.37499,31.01722],[35.37615,31.01668],[35.37724,31.01587],[35.3782,31.01487],[35.37896,31.01376],[35.3795,31.01259],[35.37987,31.0114],[35.38016,31.0102],[35.38043,31.009],[35.38066,31.0078],[35.38077,31.0066],[35.38066,31.0054],[35.38036,31.0042],[35.37994,31.003],[35.37948,31.0018],[35.37904,31.0006],[35.37861,30.9994],[35.37812,30.99823],[35.3775,30.99711],[35.37669,30.99612],[35.37569,30.99533],[35.37457,30.99479],[35.3734,30.99447],[35.3722,30.9943],[35.37101,30.99421],[35.36984,30.99412],[35.36872,30.99393],[35.36769,30.99354],[35.36678,30.9929],[35.36598,30.99201],[35.3653,30.99094],[35.36476,30.98979],[35.3644,30.9886],[35.36428,30.9874],[35.36443,30.9862],[35.36483,30.985],[35.36538,30.9838],[35.36598,30.9826],[35.36655,30.9814],[35.36707,30.9802],[35.36748,30.979],[35.36772,30.9778],[35.36774,30.9766],[35.36749,30.9754],[35.367,30.9742],[35.36636,30.973],[35.36572,30.9718],[35.36527,30.9706],[35.36518,30.9694],[35.36546,30.9682],[35.36606,30.967],[35.36687,30.9658],[35.3678,30.9646]]],[[[35.4138,31.2558],[35.41499,31.25644],[35.41615,31.25715],[35.41725,31.25795],[35.41824,31.25888],[35.4191,31.25992],[35.41983,31.26104],[35.42048,31.26221],[35.42107,31.2634],[35.42164,31.2646],[35.42219,31.2658],[35.42273,31.267],[35.42328,31.2682],[35.42384,31.2694],[35.42444,31.2706],[35.42512,31.2718],[35.42588,31.273],[35.42672,31.27419],[35.42767,31.27537],[35.42872,31.27651],[35.42984,31.27761],[35.43101,31.27867],[35.43219,31.27969],[35.43337,31.28071],[35.43452,31.28173],[35.43565,31.28279],[35.43675,31.28389],[35.43788,31.28503],[35.43903,31.28621],[35.44021,31.28739],[35.4414,31.28856],[35.44259,31.28969],[35.44377,31.29077],[35.44492,31.2918],[35.44604,31.29283],[35.44715,31.29391],[35.44825,31.29504],[35.44935,31.2962],[35.45045,31.29737],[35.45156,31.29852],[35.45268,31.29964],[35.45383,31.30074],[35.45501,31.30179],[35.4562,31.30277],[35.4574,31.30358],[35.4586,31.30419],[35.4598,31.3046],[35.461,31.30491],[35.46219,31.30523],[35.46337,31.30564],[35.46451,31.30622],[35.46561,31.30699],[35.46663,31.30796],[35.46758,31.30905],[35.46843,31.31021],[35.46918,31.3114],[35.46983,31.3126],[35.4704,31.3138],[35.4709,31.315],[35.4713,31.31618],[35.47156,31.31734],[35.47158,31.31843],[35.47127,31.31945],[35.47061,31.32037],[35.46968,31.32123],[35.46857,31.32202],[35.4674,31.32275],[35.4662,31.32334],[35.465,31.32372],[35.4638,31.32381],[35.4626,31.32359],[35.4614,31.32314],[35.4602,31.32254],[35.459,31.32191],[35.4578,31.32134],[35.4566,31.32087],[35.4554,31.32049],[35.4542,31.32016],[35.453,31.31985],[35.4518,31.31955],[35.4506,31.31924],[35.4494,31.31891],[35.4482,31.31854],[35.447,31.3181],[35.44581,31.31757],[35.44463,31.31692],[35.44349,31.31614],[35.44239,31.3152],[35.44133,31.31413],[35.44031,31.31299],[35.43929,31.31181],[35.43827,31.31067],[35.43721,31.30959],[35.43611,31.30863],[35.43497,31.30777],[35.43379,31.30698],[35.43261,31.30622],[35.43144,31.30543],[35.43032,31.30457],[35.4293,31.30361],[35.42839,31.30253],[35.42759,31.30138],[35.42686,31.3002],[35.42615,31.299],[35.42545,31.2978],[35.42475,31.2966],[35.42407,31.2954],[35.4234,31.2942],[35.42273,31.293],[35.42207,31.2918],[35.4214,31.2906],[35.42073,31.2894],[35.42007,31.2882],[35.4194,31.287],[35.41873,31.2858],[35.41805,31.2846],[35.41735,31.2834],[35.41665,31.2822],[35.41595,31.281],[35.41527,31.2798],[35.4146,31.2786],[35.41393,31.2774],[35.41327,31.2762],[35.4126,31.275],[35.41193,31.2738],[35.41124,31.2726],[35.41051,31.2714],[35.40974,31.27021],[35.40891,31.26903],[35.40806,31.26788],[35.40729,31.26675],[35.40674,31.26565],[35.40649,31.26452],[35.40654,31.26338],[35.40682,31.26223],[35.40729,31.26112],[35.40796,31.2601],[35.40884,31.25919],[35.40988,31.25839],[35.41102,31.25766],[35.4122,31.25693],[35.4134,31.2562],[35.4138,31.2558]]],[[[35.4074,31.3258],[35.4086,31.326],[35.4098,31.3262],[35.411,31.3264],[35.41219,31.32662],[35.41335,31.32688],[35.41444,31.32724],[35.4154,31.32777],[35.41615,31.32854],[35.41662,31.3295],[35.41673,31.33056],[35.41646,31.33158],[35.41581,31.33247],[35.41489,31.33312],[35.41382,31.33349],[35.41273,31.33355],[35.41171,31.33332],[35.41076,31.3328],[35.40982,31.33207],[35.40887,31.33123],[35.40792,31.33034],[35.40712,31.32941],[35.40661,31.32842],[35.40647,31.32734],[35.4066,31.3262],[35.4074,31.3258]]],[[[35.3514,31.0006],[35.35257,31.00088],[35.35366,31.00117],[35.35458,31.00154],[35.35526,31.00209],[35.35566,31.00284],[35.3558,31.00374],[35.3557,31.00462],[35.35532,31.00537],[35.35466,31.00587],[35.3538,31.00609],[35.3529,31.00597],[35.35209,31.0055],[35.35149,31.00473],[35.35115,31.00375],[35.35105,31.00269],[35.35117,31.00163],[35.3514,31.0006]]]]}}]}