{"type":"FeatureCollection","features":[{"type":"Feature","properties":{"id":"adam","who":"아담·하와","title":"에덴에서 쫓겨나다","ref":"창 3:23-24","certainty":"hypothetical","stops":"에덴(아르메니아설) → 놋 땅","km":1076,"walk_h":214},"geometry":{"type":"LineString","coordinates":[[41.001,38.9936],[41.0229,38.9765],[41.0229,38.8226],[41.0449,38.8055],[41.0449,38.6684],[41.1328,38.5997],[41.1328,38.4794],[41.1548,38.4622],[41.1548,38.4278],[41.1768,38.4106],[41.1768,38.3072],[41.748,37.8575],[41.748,37.8228],[41.77,37.8054],[41.77,37.7707],[41.792,37.7533],[41.792,37.6664],[41.9019,37.5794],[41.9019,37.44],[42.0337,37.3352],[42.0337,37.2653],[42.2754,37.0552],[42.2754,36.985],[42.2974,36.9674],[42.2974,36.9148],[42.3193,36.8972],[42.3193,36.8796],[42.4292,36.7917],[42.4292,36.7037],[42.561,36.5979],[42.583,36.5449],[42.627,36.5096],[42.627,36.4566],[42.6929,36.4036],[42.6929,36.3859],[42.7368,36.3505],[42.7368,36.3328],[43.2861,35.8534],[43.2861,35.7822],[43.3301,35.7465],[43.3301,35.693],[43.396,35.6394],[43.396,35.6037],[43.9673,35.1199],[43.9673,35.1019],[44.0112,35.066],[44.0112,35.03],[44.0771,34.976],[44.0771,34.958],[44.4946,34.6151],[44.4946,34.5247],[44.5166,34.5066],[44.5166,34.4341],[44.6704,34.3071],[44.6704,34.289],[46.0107,33.1743],[46.0107,33.1192],[46.2744,32.898],[46.2744,32.8796],[47.7905,31.5973]]}},{"type":"Feature","properties":{"id":"cain","who":"가인","title":"놋 땅으로 가 에녹 성을 세우다","ref":"창 4:16-17","certainty":"hypothetical","stops":"에덴(아르메니아설) → 놋 땅 → 에녹 성","km":1272,"walk_h":255},"geometry":{"type":"LineString","coordinates":[[41.001,38.9936],[41.0229,38.9765],[41.0229,38.8226],[41.0449,38.8055],[41.0449,38.6684],[41.1328,38.5997],[41.1328,38.4794],[41.1548,38.4622],[41.1548,38.4278],[41.1768,38.4106],[41.1768,38.3072],[41.748,37.8575],[41.748,37.8228],[41.77,37.8054],[41.77,37.7707],[41.792,37.7533],[41.792,37.6664],[41.9019,37.5794],[41.9019,37.44],[42.0337,37.3352],[42.0337,37.2653],[42.2754,37.0552],[42.2754,36.985],[42.2974,36.9674],[42.2974,36.9148],[42.3193,36.8972],[42.3193,36.8796],[42.4292,36.7917],[42.4292,36.7037],[42.561,36.5979],[42.583,36.5449],[42.627,36.5096],[42.627,36.4566],[42.6929,36.4036],[42.6929,36.3859],[42.7368,36.3505],[42.7368,36.3328],[43.2861,35.8534],[43.2861,35.7822],[43.3301,35.7465],[43.3301,35.693],[43.396,35.6394],[43.396,35.6037],[43.9673,35.1199],[43.9673,35.1019],[44.0112,35.066],[44.0112,35.03],[44.0771,34.976],[44.0771,34.958],[44.4946,34.6151],[44.4946,34.5247],[44.5166,34.5066],[44.5166,34.4341],[44.6704,34.3071],[44.6704,34.289],[46.0107,33.1743],[46.0107,33.1192],[46.2744,32.898],[46.2744,32.8796],[47.7905,31.5973],[47.8015,31.6019],[47.7301,31.5832],[47.5104,31.4568],[47.45,31.4427],[47.384,31.4005],[47.2028,31.3302],[47.1533,31.2926],[47.0929,31.2739],[47.038,31.2316],[46.8292,31.1705],[46.6315,31.0671],[46.5765,31.0671],[46.4886,31.0294],[46.4337,31.02],[46.2964,30.9352],[46.1536,30.8834],[46.0767,30.8315],[46.0107,30.8315],[45.9943,30.8173]]}},{"type":"Feature","properties":{"id":"noah","who":"노아 후손","title":"아라랏에서 시날로","ref":"창 8:4·11:2","certainty":"hypothetical","stops":"아라랏 → 시날(바벨)","km":809,"walk_h":163},"geometry":{"type":"LineString","coordinates":[[44.2969,39.7072],[44.2969,39.3853],[44.2529,39.3513],[44.2529,37.8922],[44.3628,37.8054],[44.3628,37.736],[44.4067,37.7012],[44.4067,37.5968],[44.4287,37.5794],[44.4287,37.2478],[44.4067,37.2303],[44.4067,37.0201],[44.4287,37.0026],[44.4287,36.7741],[44.4507,36.7565],[44.4507,36.6508],[44.4067,36.6155],[44.4067,36.5802],[44.4287,36.5626],[44.4287,32.5468]]}},{"type":"Feature","properties":{"id":"terah","who":"데라","title":"우르에서 하란으로","ref":"창 11:31","certainty":"inferred","stops":"우르 → 하란","km":927,"walk_h":185},"geometry":{"type":"LineString","coordinates":[[46.0986,30.9588],[44.0112,32.7318],[44.0112,32.7503],[42.7808,33.7791],[42.7808,33.7974],[40.9351,35.3174],[39.0234,36.862]]}},{"type":"Feature","properties":{"id":"abram1","who":"아브람","title":"하란에서 가나안으로","ref":"창 12:4-9","certainty":"attested","stops":"하란 → 세겜 → 벧엘 → 네게브","km":806,"walk_h":163},"geometry":{"type":"LineString","coordinates":[[39.0234,36.862],[38.9355,36.7917],[38.9355,36.7389],[38.8916,36.7037],[38.8916,36.686],[38.8477,36.6508],[38.8477,36.6332],[38.8037,36.5979],[38.8037,36.5802],[38.7817,36.5626],[38.7817,36.4213],[37.3096,35.2097],[37.3096,35.1918],[36.5405,34.5428],[36.5405,34.5247],[36.4746,34.4703],[36.4746,34.4341],[36.4526,34.416],[36.4526,34.3978],[36.4087,34.3616],[36.4087,34.3434],[36.2988,34.2527],[36.2988,34.2163],[36.123,34.0709],[36.123,34.0527],[36.0571,33.9616],[36.0571,33.9434],[35.9912,33.8887],[35.9912,33.8704],[35.8154,33.7243],[35.8154,33.7061],[35.7056,33.6146],[35.7056,33.5963],[35.6836,33.578],[35.6836,33.5414],[35.6616,33.5231],[35.6616,33.4864],[35.6396,33.4681],[35.6396,33.4131],[35.5737,33.3581],[35.5737,33.3213],[35.5518,33.303],[35.5518,32.9534],[35.4419,32.8611],[35.4419,32.7873],[35.3979,32.7318],[35.3979,32.6209],[35.3101,32.5468],[35.3101,32.3428],[35.2881,32.3243],[35.2881,32.2128],[35.2826,32.2128],[35.2661,32.1547],[35.2716,32.0267],[35.2496,31.9988],[35.2496,31.9592],[35.2194,31.9289],[35.2222,31.9289],[35.2002,31.7141],[35.1013,31.6113],[35.0848,31.5224],[35.0519,31.4802],[35.0354,31.424],[34.9805,31.3677],[34.975,31.3114],[34.931,31.2269],[34.931,31.1376],[34.9146,31.1141],[34.8981,30.9493]]}},{"type":"Feature","properties":{"id":"abram2","who":"아브람","title":"기근에 애굽으로","ref":"창 12:10-13:1","certainty":"inferred","stops":"네게브 → 고센","km":304,"walk_h":61},"geometry":{"type":"LineString","coordinates":[[34.9036,30.9493],[34.8157,30.8928],[34.7607,30.8834],[34.6619,30.8268],[34.2004,30.8173],[34.1345,30.7796],[33.5303,30.7796],[33.4753,30.7607],[33.3655,30.7607],[33.3545,30.7513],[32.7942,30.7513],[32.7832,30.7418],[32.5085,30.7324],[32.4866,30.7135],[32.4316,30.7041],[31.8054,30.7041]]}},{"type":"Feature","properties":{"id":"abram3","who":"아브람","title":"롯과 갈라서다","ref":"창 13:10-18","certainty":"attested","stops":"벧엘 → 소돔","km":98,"walk_h":20},"geometry":{"type":"LineString","coordinates":[[35.2222,31.9289],[35.2167,31.8636],[35.2277,31.8309],[35.2551,31.8076],[35.2716,31.7515],[35.354,31.6581],[35.3595,31.6206],[35.3979,31.5832],[35.3979,31.1]]}},{"type":"Feature","properties":{"id":"abram4","who":"아브람","title":"롯을 구하러 북진","ref":"창 14:14-17","certainty":"attested","stops":"헤브론 → 단 → 호바 → 살렘","km":529,"walk_h":108},"geometry":{"type":"LineString","coordinates":[[35.1013,31.5317],[35.1892,31.616],[35.1947,31.6627],[35.2441,31.7048],[35.2496,31.7375],[35.3925,31.8636],[35.4089,31.9149],[35.4584,31.9568],[35.4749,32.0034],[35.5243,32.0453],[35.5408,32.0826],[35.5627,32.1942],[35.5737,32.4356],[35.5902,32.4866],[35.5957,32.6162],[35.6067,32.6255],[35.6287,33.133],[35.6506,33.2479],[35.6506,33.3076],[35.6671,33.3397],[36.0571,33.6786],[36.0571,33.7061],[36.1011,33.7517],[36.0461,33.7061],[36.0352,33.5414],[36.0022,33.5048],[35.9912,33.3948],[35.9363,33.3397],[35.9363,33.2938],[35.7166,33.1099],[35.7056,32.9995],[35.6726,32.9718],[35.6726,32.9165],[35.6177,32.8611],[35.6067,32.8334],[35.5957,32.5653],[35.5847,32.5561],[35.5847,32.482],[35.5737,32.4727],[35.5737,32.25],[35.5627,32.2407],[35.5408,32.1012],[35.4529,32.0267],[35.4419,31.9894],[35.2551,31.8309],[35.2332,31.7749]]}},{"type":"Feature","properties":{"id":"abr5","who":"아브라함","title":"그랄에 머물다","ref":"창 20:1-21:34","certainty":"attested","stops":"헤브론 → 그랄 → 브엘세바","km":85,"walk_h":17},"geometry":{"type":"LineString","coordinates":[[35.0986,31.5317],[35.0601,31.5036],[34.975,31.4826],[34.8679,31.4099],[34.5493,31.4005],[34.791,31.2504]]}},{"type":"Feature","properties":{"id":"isaac1","who":"아브라함·이삭","title":"모리아 산으로","ref":"창 22:1-19","certainty":"attested","stops":"브엘세바 → 모리아","km":74,"walk_h":16},"geometry":{"type":"LineString","coordinates":[[34.7882,31.2504],[34.9091,31.3536],[34.9915,31.438],[34.9915,31.4568],[35.0739,31.527],[35.1013,31.6113],[35.2002,31.7141],[35.2332,31.7795]]}},{"type":"Feature","properties":{"id":"servant","who":"아브라함의 종","title":"리브가를 데리러","ref":"창 24","certainty":"inferred","stops":"브엘세바 → 하란","km":783,"walk_h":157},"geometry":{"type":"LineString","coordinates":[[34.7827,31.241],[34.7827,31.4662],[34.8047,31.4849],[34.8047,31.5598],[34.8267,31.5785],[34.8267,31.6721],[34.8706,31.7095],[34.8706,31.8776],[34.9146,31.9149],[34.9146,32.1198],[34.9365,32.1384],[34.9365,32.2128],[34.9585,32.2314],[34.9585,32.25],[35.0244,32.3057],[35.0244,32.3614],[35.0684,32.3985],[35.0684,32.6209],[35.0903,32.6394],[35.0903,32.7318],[35.1343,32.7873],[35.1343,32.8427],[35.1782,32.8796],[35.1782,33.0087],[35.2441,33.0639],[35.2441,33.1007],[35.6177,33.4131],[35.6396,33.4681],[35.6616,33.4864],[35.6616,33.5231],[35.6836,33.5414],[35.6836,33.578],[35.7056,33.5963],[35.7056,33.6146],[35.8154,33.7061],[35.8154,33.7243],[35.9912,33.8704],[35.9912,33.8887],[36.0571,33.9434],[36.0571,33.9616],[36.1011,34.0162],[36.1011,34.0527],[36.2988,34.2163],[36.2988,34.2527],[36.4087,34.3434],[36.4087,34.3616],[36.4526,34.3978],[36.4526,34.416],[36.4746,34.4341],[36.4746,34.4703],[36.5405,34.5247],[36.5405,34.5428],[37.3096,35.1918],[37.3096,35.2097],[38.7817,36.4213],[38.7817,36.5802],[38.8477,36.6332],[38.8477,36.6508],[38.8916,36.686],[38.8916,36.7037],[38.9355,36.7389],[38.9355,36.7917],[39.0234,36.862]]}},{"type":"Feature","properties":{"id":"isaac2","who":"이삭","title":"그랄에서 브엘세바로","ref":"창 26","certainty":"attested","stops":"브엘라해로이 → 그랄 → 르호봇 → 브엘세바","km":99,"walk_h":20},"geometry":{"type":"LineString","coordinates":[[34.6014,30.8504],[34.6014,30.9022],[34.574,30.9305],[34.5575,31.0765],[34.552,31.4005],[34.5493,31.4005],[34.6536,31.2926],[34.7003,31.2245],[34.7003,31.2011],[34.791,31.2504]]}},{"type":"Feature","properties":{"id":"jacob1","who":"야곱","title":"도피, 하란으로","ref":"창 28:10-29:1","certainty":"attested","stops":"브엘세바 → 벧엘 → 하란","km":779,"walk_h":156},"geometry":{"type":"LineString","coordinates":[[34.7882,31.2504],[34.8706,31.3349],[34.8871,31.424],[34.9475,31.4802],[34.9475,31.5036],[35.0134,31.5692],[35.0464,31.63],[35.1178,31.6908],[35.1343,31.7328],[35.2057,31.8029],[35.2112,31.9149],[35.2222,31.9289],[35.2222,31.9335],[35.2441,31.9522],[35.2441,32.0267],[35.2661,32.0453],[35.2661,32.1756],[35.2881,32.1942],[35.2881,32.3243],[35.3101,32.3428],[35.3101,32.5468],[35.3979,32.6209],[35.3979,32.7318],[35.4419,32.7873],[35.4419,32.8611],[35.5518,32.9534],[35.5518,33.303],[35.5737,33.3213],[35.5737,33.3581],[35.6177,33.3948],[35.6177,33.4314],[35.6616,33.4864],[35.6616,33.5231],[35.6836,33.5414],[35.6836,33.578],[35.7056,33.5963],[35.7056,33.6146],[35.8154,33.7061],[35.8154,33.7243],[35.9912,33.8704],[35.9912,33.8887],[36.0571,33.9434],[36.0571,33.9616],[36.1011,34.0162],[36.1011,34.0527],[36.2988,34.2163],[36.2988,34.2527],[36.4087,34.3434],[36.4087,34.3616],[36.4526,34.3978],[36.4526,34.416],[36.4746,34.4341],[36.4746,34.4703],[36.5405,34.5247],[36.5405,34.5428],[37.3096,35.1918],[37.3096,35.2097],[38.7817,36.4213],[38.7817,36.5802],[38.8477,36.6332],[38.8477,36.6508],[38.8916,36.686],[38.8916,36.7037],[38.9355,36.7389],[38.9355,36.7917],[39.0234,36.862]]}},{"type":"Feature","properties":{"id":"jacob2","who":"야곱","title":"귀환","ref":"창 31-35","certainty":"attested","stops":"하란 → 길르앗 산 → 마하나임 → 브니엘 → 숙곳 → 세겜 → 벧엘 → 에브랏 → 헤브론","km":752,"walk_h":157},"geometry":{"type":"LineString","coordinates":[[39.0344,36.862],[39.0234,36.8093],[38.9905,36.7653],[38.9905,36.642],[38.9685,36.5802],[38.7927,36.439],[38.7927,36.4124],[38.7048,36.3417],[38.551,36.1822],[38.54,36.1467],[38.3093,35.9246],[37.7051,35.4159],[37.6721,35.3532],[37.6172,35.3084],[37.6172,35.2725],[37.3645,35.066],[37.3425,35.012],[37.2437,34.931],[37.1558,34.8318],[37.1558,34.8138],[37.1228,34.7867],[37.1228,34.7687],[37.0898,34.7416],[37.0679,34.6784],[37.0679,34.1254],[37.0569,34.0982],[36.8701,33.9251],[36.8042,33.7883],[36.8042,33.7426],[36.6614,33.6238],[36.6614,33.4864],[36.6394,33.4589],[36.6394,33.4314],[36.5955,33.3856],[36.5625,33.303],[36.3318,33.0823],[36.167,32.9441],[36.167,32.9165],[36.145,32.898],[36.145,32.8427],[36.1121,32.7965],[36.1121,32.778],[36.0901,32.7596],[36.0901,32.7411],[36.0681,32.7226],[36.0681,32.6764],[36.0132,32.6301],[36.0022,32.5746],[35.9692,32.519],[35.8484,32.3985],[35.8511,32.4008],[35.7825,32.3127],[35.6754,32.2267],[35.6808,32.1989],[35.6506,32.1896],[35.6204,32.1989],[35.2826,32.2128],[35.2661,32.1547],[35.2716,32.0267],[35.2496,31.9988],[35.2496,31.9592],[35.2194,31.9289],[35.2029,31.7048],[35.1041,31.5973],[35.0986,31.5317]]}},{"type":"Feature","properties":{"id":"joseph","who":"요셉","title":"형들에게 팔리다","ref":"창 37:12-36","certainty":"attested","stops":"헤브론 → 세겜 → 도단 → 고센","km":512,"walk_h":105},"geometry":{"type":"LineString","coordinates":[[35.1013,31.5317],[35.1288,31.644],[35.1892,31.7001],[35.2167,31.7469],[35.2222,31.8916],[35.2386,31.9149],[35.2496,32.0034],[35.2606,32.0127],[35.2826,32.2128],[35.2881,32.236],[35.2716,32.2755],[35.2057,32.3452],[35.2002,32.4194],[35.2002,32.4171],[35.2002,32.3892],[35.1453,32.3428],[35.1453,32.3243],[35.1123,32.2778],[35.1123,32.2407],[35.0684,32.1942],[35.0574,32.1384],[34.9805,32.0733],[34.9475,32.0081],[34.8816,31.9522],[34.8267,31.8776],[34.3872,31.4755],[34.0686,31.2128],[33.772,31.1],[33.6621,31.0906],[33.5632,31.0623],[33.4863,31.0623],[33.4644,31.0435],[33.2556,31.0341],[33.1897,31.0059],[32.915,30.9964],[32.8601,30.9588],[32.8162,30.9588],[32.7393,30.9117],[32.6624,30.9117],[32.6294,30.8928],[32.5745,30.8928],[32.5525,30.8739],[32.4097,30.8551],[32.3438,30.8079],[32.2888,30.8079],[32.2559,30.7796],[32.157,30.7324],[31.8384,30.7324],[31.8054,30.7041]]}},{"type":"Feature","properties":{"id":"jacob3","who":"야곱 일가","title":"애굽으로 내려가다","ref":"창 46:1-7","certainty":"attested","stops":"헤브론 → 브엘세바 → 고센","km":344,"walk_h":70},"geometry":{"type":"LineString","coordinates":[[35.0986,31.5317],[34.791,31.2504],[34.7937,31.2504],[34.7607,31.2504],[34.7388,31.2316],[34.6289,31.2222],[34.574,31.194],[34.4421,31.1846],[34.3433,31.1564],[34.1675,31.1564],[34.1235,31.1282],[33.8489,31.1188],[33.6621,31.0906],[33.5632,31.0623],[33.4863,31.0623],[33.4644,31.0435],[33.2556,31.0341],[33.1897,31.0059],[32.915,30.9964],[32.8601,30.9588],[32.8162,30.9588],[32.7393,30.9117],[32.6624,30.9117],[32.6294,30.8928],[32.5745,30.8928],[32.5525,30.8739],[32.4097,30.8551],[32.3438,30.8079],[32.2888,30.8079],[32.2559,30.7796],[32.157,30.7324],[31.8384,30.7324],[31.8054,30.7041]]}},{"type":"Feature","properties":{"id":"burial","who":"장례 행렬","title":"야곱을 막벨라에 묻다","ref":"창 50:7-13","certainty":"inferred","stops":"고센 → 아닷 타작마당 → 헤브론","km":452,"walk_h":94},"geometry":{"type":"LineString","coordinates":[[31.8054,30.7041],[31.8384,30.7324],[32.168,30.7324],[32.2778,30.7985],[32.3438,30.8079],[32.4097,30.8551],[32.5525,30.8739],[32.5745,30.8928],[32.6294,30.8928],[32.6624,30.9117],[32.7502,30.9117],[32.8162,30.9588],[32.8601,30.9588],[32.915,30.9964],[33.1897,31.0059],[33.2556,31.0341],[33.4644,31.0435],[33.5083,31.0623],[33.5632,31.0623],[33.6621,31.0906],[33.772,31.1],[33.8489,31.1376],[33.8818,31.1376],[33.9587,31.1658],[33.9807,31.1846],[34.0906,31.194],[34.2444,31.2692],[34.2773,31.2973],[34.3323,31.2973],[34.3762,31.3255],[34.4202,31.3349],[34.4861,31.3912],[34.552,31.4193],[34.6509,31.4943],[34.6838,31.4943],[34.7168,31.5224],[34.7717,31.5317],[34.8706,31.6066],[34.9036,31.6066],[34.9805,31.6534],[35.0134,31.6534],[35.1013,31.7095],[35.2991,31.7469],[35.354,31.7842],[35.387,31.7842],[35.4529,31.8402],[35.5408,31.8402],[35.5518,31.8496],[35.549,31.8496],[35.4749,31.8076],[35.3458,31.7001],[35.2386,31.6534],[35.0986,31.5317]]}}]}