{"type": "FeatureCollection", "name": "judea-c30-boundary", "note": "서기 30년경 로마 직할 유대 + 헤롯 안티파스 영지 + 헤롯 빌립 영지를 합친 바깥 경계. 원자료는 AWMC 'Herod's Kingdom'(기원전 4년 헤롯 사망 시점 왕국) 이며, 이 왕국이 곧 서기 30년 세 통치 영역의 합에 해당한다. 복원 근사치이며 국경 통계가 아니다.", "features": [{"type": "Feature", "properties": {"period": "c. AD 30", "status": "reconstructed_approximation", "ruler": "Roman prefect (Iudaea) / Herod Antipas / Herod Philip", "confidence": "high", "excludes": ["사해 수면", "데가볼리 도시권", "나바테아", "수리아 속주"], "sources": ["awmc-herods-kingdom"], "area_km2_epsg6933": 23282.9, "area_km2_sphere": 23298.4}, "geometry": {"type": "MultiPolygon", "coordinates": [[[[34.6561700000002, 31.841819999999643], [34.679879999999685, 31.877399999999398], [34.73409999999967, 31.923140000000785], [34.86624, 31.88587], [34.95773, 31.85707], [35.054299999999785, 31.76896999999917], [34.6561700000002, 31.841819999999643]]], [[[35.852170000000115, 33.35016999999971], [35.9045100000003, 33.32162000000062], [35.933069999999134, 33.297819999999774], [35.875959999999395, 33.23120000000017], [35.94734000000062, 33.18361], [35.98260999999911, 33.17185000000063], [36.00445000000036, 33.16457000000082], [36.02052999999978, 33.165759999999864], [36.04252000000088, 33.1874200000002], [36.067510000000766, 33.1874200000002], [36.088920000000144, 33.19098999999915], [36.11211999999978, 33.19811999999911], [36.14068000000043, 33.192769999999655], [36.13293999999951, 33.17409000000043], [36.17101, 33.15505999999914], [36.21473999999944, 33.16172], [36.24329000000034, 33.159929999999804], [36.273629999999685, 33.16529000000082], [36.32003000000077, 33.14744000000064], [36.33966, 33.17956000000049], [36.35215000000062, 33.19918999999936], [36.393200000000434, 33.21169], [36.42532000000028, 33.27414999999928], [36.4735, 33.26521999999932], [36.49669999999969, 33.23132000000078], [36.49849, 33.19741000000067], [36.50919000000067, 33.16885999999977], [36.53596, 33.12959000000046], [36.56272999999965, 33.090330000000904], [36.55559, 33.05106999999953], [36.58057999999983, 33.01894999999968], [36.619839999999385, 33.00288999999975], [36.60556, 32.981120000000374], [36.619839999999385, 32.98468999999932], [36.64839000000029, 32.981120000000374], [36.70371999999952, 32.96683999999914], [36.7429800000009, 32.94721000000027], [36.75725000000057, 32.924010000000635], [36.784019999999146, 32.90258999999969], [36.82863999999972, 32.891890000000785], [36.85896999999932, 32.87046999999984], [36.87325000000055, 32.83477999999923], [36.8768199999995, 32.80623000000014], [36.88895000000048, 32.779959999999846], [36.894899999999325, 32.74973999999929], [36.86789999999928, 32.741980000000694], [36.83577999999943, 32.7491200000004], [36.81970999999976, 32.73127000000022], [36.8125799999998, 32.6937999999991], [36.77510000000075, 32.692010000000664], [36.7429800000009, 32.68844], [36.70371999999952, 32.679519999999684], [36.66624000000047, 32.66703000000052], [36.619839999999385, 32.66345999999976], [36.57165999999961, 32.68486999999914], [36.53953, 32.70271999999932], [36.49402999999984, 32.7205699999995], [36.4743899999994, 32.72235], [36.45118999999977, 32.72235], [36.427999999999884, 32.7152100000003], [36.41372000000047, 32.729489999999714], [36.4101499999997, 32.75804000000062], [36.395870000000286, 32.74733000000015], [36.37446000000091, 32.74554999999964], [36.3494699999992, 32.741980000000694], [36.32449000000088, 32.73306000000048], [36.29949999999917, 32.73306000000048], [36.27808999999979, 32.729489999999714], [36.26737999999932, 32.72769999999946], [36.23704, 32.73127000000022], [36.219199999999546, 32.73662999999942], [36.19064000000071, 32.73127000000022], [36.17458000000079, 32.72592000000077], [36.151379999999335, 32.724130000000514], [36.13532, 32.73483999999917], [36.15495, 32.80265999999938], [36.117480000000796, 32.81515000000036], [36.099630000000616, 32.82229], [36.07107999999971, 32.82763999999952], [36.06036999999924, 32.82586000000083], [36.044309999999314, 32.8187199999993], [36.02824999999939, 32.80623000000014], [36.01039999999921, 32.793729999999414], [35.99611999999979, 32.78124000000025], [35.987199999999575, 32.7634], [35.97292000000016, 32.74733000000015], [35.955079999999725, 32.73127000000022], [35.94436999999925, 32.73483999999917], [35.924339999999575, 32.7530399999996], [35.90259999999944, 32.737349999999424], [35.8783399999993, 32.76518000000033], [35.82836999999927, 32.73841], [35.84086000000025, 32.71700000000055], [35.848910000000615, 32.69858000000022], [35.89083000000028, 32.68486999999914], [35.872989999999845, 32.65632], [35.835510000000795, 32.64383000000089], [35.86048999999912, 32.61170999999922], [35.817660000000615, 32.57423000000017], [35.753419999999096, 32.5635199999997], [35.70701999999983, 32.547459999999774], [35.65204000000085, 32.556469999999536], [35.63007, 32.54061], [35.5660399999997, 32.545679999999265], [35.55710999999974, 32.54032], [35.56424999999945, 32.51891000000069], [35.573050000000876, 32.49944999999934], [35.5660399999997, 32.46357999999964], [35.56424999999945, 32.41897000000063], [35.56424999999945, 32.39398000000074], [35.59994, 32.395769999999175], [35.66239999999925, 32.39754999999968], [35.67668000000049, 32.4029100000007], [35.673109999999724, 32.358290000000125], [35.65883000000031, 32.33331], [35.65526999999929, 32.31725], [35.6749, 32.30832], [35.673109999999724, 32.28512000000046], [35.66776000000027, 32.26728], [35.685600000000704, 32.2512200000001], [35.66597, 32.22802000000047], [35.6559699999998, 32.18202000000019], [35.7758900000008, 32.093010000000504], [35.79982000000018, 32.075259999999616], [35.8087400000004, 32.05384000000049], [35.799559999999474, 32.01161999999931], [35.83015999999952, 31.97353], [35.82677999999942, 31.917970000000423], [35.85364999999911, 31.90158], [35.90838000000076, 31.88969], [35.97501000000011, 31.892069999999876], [36.01784000000043, 31.884930000000168], [36.04876999999942, 31.849239999999554], [36.024970000000394, 31.813539999999193], [35.960730000000694, 31.79450999999972], [35.920280000000275, 31.782610000000204], [35.82748, 31.773090000000593], [35.76799000000028, 31.739779999999882], [35.770370000000185, 31.720750000000407], [35.7219299999997, 31.67974999999933], [35.72689, 31.646989999999278], [35.71978999999919, 31.642069999999876], [35.72278, 31.635089999999764], [35.70817999999963, 31.609259999999267], [35.706560000000536, 31.624970000000758], [35.70428999999967, 31.630779999999504], [35.6947, 31.614799999999377], [35.737059999999474, 31.487740000000485], [35.721809999999095, 31.47588], [35.70825, 31.469100000000253], [35.69301000000087, 31.46741], [35.67267999999967, 31.46741], [35.65912000000026, 31.470799999999144], [35.63371, 31.470799999999144], [35.611689999999726, 31.472490000000107], [35.593049999999494, 31.487740000000485], [35.58119000000079, 31.50806999999986], [35.56424999999945, 31.53856000000087], [35.562550000000556, 31.56905999999981], [35.5676399999993, 31.599550000000818], [35.58458000000064, 31.643599999999424], [35.5998299999992, 31.691039999999703], [35.60491, 31.733389999999417], [35.60491, 31.758809999999357], [35.58458000000064, 31.779140000000552], [35.587970000000496, 31.79269000000022], [35.59793, 31.81261000000086], [35.580079999999725, 31.790419999999358], [35.56058999999914, 31.78687], [35.51984000000084, 31.781559999999445], [35.505670000000464, 31.77801], [35.49149000000034, 31.76561000000038], [35.47023000000081, 31.73725999999988], [35.4613700000009, 31.71422999999959], [35.449539999999615, 31.692259999999806], [35.45581999999922, 31.691039999999703], [35.45413, 31.679179999999178], [35.4321, 31.65037999999913], [35.42362999999932, 31.63174000000072], [35.41855000000032, 31.59617000000071], [35.42023999999947, 31.56567], [35.411770000000615, 31.541950000000725], [35.40499000000091, 31.526700000000346], [35.4033, 31.509760000000824], [35.38975000000028, 31.47588], [35.388049999999566, 31.44708], [35.39314000000013, 31.428439999999682], [35.39314000000013, 31.416579999999158], [35.38975000000028, 31.4013300000006], [35.38975000000028, 31.391170000000784], [35.39314000000013, 31.372530000000552], [35.4033, 31.362370000000737], [35.4066899999998, 31.350510000000213], [35.4066899999998, 31.330180000000837], [35.4016100000008, 31.294599999999264], [35.394829999999274, 31.27088], [35.379580000000715, 31.25224999999955], [35.379580000000715, 31.230219999999463], [35.38297000000057, 31.206500000000233], [35.38888000000043, 31.163989999999103], [35.35330000000067, 31.157219999999143], [35.3228, 31.15382999999929], [35.27873999999974, 31.15552000000025], [35.2499399999997, 31.167380000000776], [35.23468999999932, 31.19619000000057], [35.17200000000048, 31.20465999999942], [35.15165999999954, 31.197879999999714], [35.07802000000083, 31.164150000000518], [34.854380000000674, 31.160760000000664], [34.79678000000058, 31.153979999999137], [34.713770000000295, 31.17262], [34.68665999999939, 31.18956000000071], [34.673109999999724, 31.18956000000071], [34.64430999999968, 31.184479999999894], [34.615499999999884, 31.17262], [34.59517000000051, 31.162449999999808], [34.57315000000017, 31.145510000000286], [34.54774, 31.14042999999947], [34.51555, 31.160760000000664], [34.5002999999997, 31.192950000000565], [34.491830000000846, 31.223439999999755], [34.4681099999998, 31.248859999999695], [34.45456000000013, 31.282740000000558], [34.451170000000275, 31.297989999999118], [34.43931, 31.297989999999118], [34.417279999999664, 31.304770000000644], [34.410509999999704, 31.3251], [34.38509999999951, 31.321710000000166], [34.36984999999913, 31.320009999999456], [34.34444000000076, 31.30815000000075], [34.317329999999856, 31.31493000000046], [34.31225000000086, 31.335259999999835], [34.42985000000044, 31.475769999999102], [34.45017999999982, 31.518130000000383], [34.51456999999937, 31.602849999999307], [34.587429999999586, 31.724840000000768], [34.63825999999972, 31.811260000000402], [34.66198000000077, 31.845149999999194], [34.70665999999983, 31.83648], [34.67114000000038, 31.85952], [34.73137999999926, 31.983539999999266], [34.77390999999989, 32.09693999999945], [34.83238, 32.320190000000366], [34.84831999999915, 32.36094000000048], [34.85190999999941, 32.363359999999375], [34.85845999999947, 32.41306000000077], [34.8752800000002, 32.46274000000085], [34.89423, 32.51130000000012], [34.9007500000007, 32.53598000000056], [34.95499000000018, 32.5638799999997], [34.96570000000065, 32.60849000000053], [34.9692699999996, 32.63704999999936], [34.97818999999981, 32.660250000000815], [35.01388000000043, 32.67094999999972], [35.05314, 32.67094999999972], [35.0674199999994, 32.68345000000045], [35.08347999999933, 32.711999999999534], [35.11203000000023, 32.6888], [35.170930000000226, 32.711999999999534], [35.10490000000027, 32.74591], [35.120960000000196, 32.761969999999565], [35.154860000000554, 32.80837000000065], [35.18699000000015, 32.84763000000021], [35.19412999999986, 32.87797], [35.23517, 32.894029999999475], [35.292279999999664, 32.90116999999918], [35.302990000000136, 32.924370000000636], [35.31012, 32.95291999999972], [35.33153999999922, 32.98503999999957], [35.37615, 33.01716999999917], [35.43147999999928, 33.08141000000069], [35.47074000000066, 33.088550000000396], [35.53319999999985, 33.04392999999982], [35.56175000000076, 33.083199999999124], [35.56175000000076, 33.2134700000006], [35.511780000000726, 33.259869999999864], [35.52678999999989, 33.339889999999286], [35.57615000000078, 33.373970000000554], [35.61421999999948, 33.34541], [35.627479999999196, 33.344460000000254], [35.64633999999933, 33.362310000000434], [35.66418999999951, 33.36408999999912], [35.69096, 33.362310000000434], [35.7236699999994, 33.34065], [35.761749999999665, 33.38824000000022], [35.852170000000115, 33.35016999999971]], [[35.59779999999955, 32.07036], [35.611510000000635, 32.02363999999943], [35.59466000000066, 32.09483], [35.59779999999955, 32.07036]], [[35.64564000000064, 31.87191999999959], [35.60574000000088, 31.82231999999931], [35.60829999999987, 31.82488000000012], [35.609379999999874, 31.82462999999916], [35.64809000000059, 31.869010000000344], [35.64329, 31.889279999999417], [35.64564000000064, 31.87191999999959]]]]}}]}