{"type": "FeatureCollection", "name": "judea-c30-regions", "note": "통치 영역은 폴리곤을 새로 그리지 않고, 바깥 경계(judea-c30-boundary) 안을 아래 세 경계선으로 나누어 분류한다. 경계선은 요세푸스의 기술과 실제 지형(요단강·이스르엘 골짜기·야르묵강)에서 복원한 근사선이며, 바깥 경계보다 확실성이 낮다.", "features": [{"type": "Feature", "properties": {"kind": "divider", "id": "jordan-rift", "name": "요단강·사해 (동서 분할)", "confidence": "high", "note": "요단강과 사해가 서편(유대·사마리아·갈릴리)과 동편(베레아·빌립 영지)을 가른다.", "sources": ["josephus-bj", "josephus-aj", "physical-geography"]}, "geometry": {"type": "LineString", "coordinates": [[35.628, 33.246], [35.586, 33.1], [35.59, 32.98], [35.6, 32.9], [35.585, 32.83], [35.56, 32.76], [35.575, 32.7], [35.57, 32.64], [35.545, 32.5], [35.54, 32.38], [35.532, 32.2], [35.545, 32.05], [35.54, 31.93], [35.48, 31.85], [35.475, 31.7], [35.47, 31.55], [35.48, 31.45], [35.5, 31.35], [35.47, 31.15]]}}, {"type": "Feature", "properties": {"kind": "divider", "id": "jezreel", "name": "이스르엘(에스드라엘론) 골짜기 (갈릴리 남계)", "confidence": "medium", "note": "갈릴리의 남쪽 경계는 갈멜에서 스키토폴리스에 이르는 이스르엘 골짜기를 따랐다 (요세푸스 BJ 3.35–40).", "sources": ["josephus-bj", "josephus-aj", "physical-geography"]}, "geometry": {"type": "LineString", "coordinates": [[34.95, 32.72], [35.08, 32.66], [35.25, 32.58], [35.4, 32.53], [35.545, 32.5]]}}, {"type": "Feature", "properties": {"kind": "divider", "id": "yarmuk", "name": "야르묵강 (안티파스·빌립 분할)", "confidence": "medium", "note": "야르묵강 북쪽이 빌립의 가울라니티스, 남쪽이 안티파스의 베레아였다.", "sources": ["josephus-bj", "josephus-aj", "physical-geography"]}, "geometry": {"type": "LineString", "coordinates": [[35.575, 32.7], [35.8, 32.7], [36.1, 32.72], [36.9, 32.75]]}}, {"type": "Feature", "properties": {"kind": "region", "id": "judaea", "name": "로마 직할 유대 속주 (유대·사마리아·이두매)", "ruler": "로마 총독(빌라도, 재임 26–36)", "area_km2": 12331, "share_pct": 53.5, "confidence": "medium", "note": "서기 6년 아켈라오 폐위 뒤 로마 직할. 예루살렘·세바스테·가이사랴·헤브론을 포함한다.", "period": "c. AD 30", "status": "reconstructed_approximation"}, "geometry": {"type": "Point", "coordinates": [35.1, 31.75]}}, {"type": "Feature", "properties": {"kind": "region", "id": "galilee", "name": "갈릴리 (헤롯 안티파스)", "ruler": "헤롯 안티파스", "area_km2": 2194, "share_pct": 9.5, "confidence": "medium", "note": "나사렛·가버나움·디베랴. 복음서 사역의 주 무대.", "period": "c. AD 30", "status": "reconstructed_approximation"}, "geometry": {"type": "Point", "coordinates": [35.35, 32.8]}}, {"type": "Feature", "properties": {"kind": "region", "id": "peraea", "name": "베레아 (헤롯 안티파스)", "ruler": "헤롯 안티파스", "area_km2": 2825, "share_pct": 12.3, "confidence": "low", "note": "요단 동편. 요세푸스는 '마카이루스에서 벨라까지, 필라델피아에서 요단까지'라 했다 (BJ 3.46–47). 원자료 폴리곤이 요단 동안을 다소 동쪽으로 그려 실제보다 작게 잡혔을 수 있다.", "period": "c. AD 30", "status": "reconstructed_approximation"}, "geometry": {"type": "Point", "coordinates": [35.75, 31.8]}}, {"type": "Feature", "properties": {"kind": "region", "id": "philip", "name": "빌립 영지 (가울라니티스·바타네아·트라코니티스·아우라니티스)", "ruler": "헤롯 빌립 2세", "area_km2": 5678, "share_pct": 24.7, "confidence": "low", "note": "북동부. 가이사랴 빌립보·벳새다. 사막 쪽 경계가 가장 불확실하다.", "period": "c. AD 30", "status": "reconstructed_approximation"}, "geometry": {"type": "Point", "coordinates": [36.2, 32.95]}}]}