{"type":"FeatureCollection","features":[{"type":"Feature","properties":{"ko":"유대","en":"Judea","rank":2,"kind":"region"},"geometry":{"type":"Point","coordinates":[35.02,31.62]}},{"type":"Feature","properties":{"ko":"갈릴리","en":"Galilee","rank":2,"kind":"region"},"geometry":{"type":"Point","coordinates":[35.12,32.95]}},{"type":"Feature","properties":{"ko":"사마리아","en":"Samaria","rank":2,"kind":"region"},"geometry":{"type":"Point","coordinates":[35.02,32.36]}},{"type":"Feature","properties":{"ko":"데가볼리","en":"Decapolis","rank":2,"kind":"region"},"geometry":{"type":"Point","coordinates":[36.1,32.58]}},{"type":"Feature","properties":{"ko":"베뢰아","en":"Perea","rank":3,"kind":"region"},"geometry":{"type":"Point","coordinates":[35.8,31.7]}},{"type":"Feature","properties":{"ko":"이두매","en":"Idumea","rank":3,"kind":"region"},"geometry":{"type":"Point","coordinates":[34.72,31.02]}},{"type":"Feature","properties":{"ko":"나바테아","en":"Nabatea","rank":3,"kind":"region"},"geometry":{"type":"Point","coordinates":[35.95,30.05]}},{"type":"Feature","properties":{"ko":"수리아","en":"Syria","rank":1,"kind":"region"},"geometry":{"type":"Point","coordinates":[37.6,35.3]}},{"type":"Feature","properties":{"ko":"베니게","en":"Phoenicia","rank":3,"kind":"region"},"geometry":{"type":"Point","coordinates":[35.58,34.1]}},{"type":"Feature","properties":{"ko":"길리기아","en":"Cilicia","rank":2,"kind":"region"},"geometry":{"type":"Point","coordinates":[34.3,37.25]}},{"type":"Feature","properties":{"ko":"갑바도기아","en":"Cappadocia","rank":2,"kind":"region"},"geometry":{"type":"Point","coordinates":[35.2,38.7]}},{"type":"Feature","properties":{"ko":"본도","en":"Pontus","rank":2,"kind":"region"},"geometry":{"type":"Point","coordinates":[36.2,40.8]}},{"type":"Feature","properties":{"ko":"비두니아","en":"Bithynia","rank":2,"kind":"region"},"geometry":{"type":"Point","coordinates":[30.6,40.55]}},{"type":"Feature","properties":{"ko":"갈라디아","en":"Galatia","rank":2,"kind":"region"},"geometry":{"type":"Point","coordinates":[33.2,39.4]}},{"type":"Feature","properties":{"ko":"브루기아","en":"Phrygia","rank":3,"kind":"region"},"geometry":{"type":"Point","coordinates":[30.1,38.7]}},{"type":"Feature","properties":{"ko":"무시아","en":"Mysia","rank":3,"kind":"region"},"geometry":{"type":"Point","coordinates":[27.7,39.65]}},{"type":"Feature","properties":{"ko":"루디아","en":"Lydia","rank":3,"kind":"region"},"geometry":{"type":"Point","coordinates":[28.4,38.55]}},{"type":"Feature","properties":{"ko":"가리아","en":"Caria","rank":3,"kind":"region"},"geometry":{"type":"Point","coordinates":[27.9,37.2]}},{"type":"Feature","properties":{"ko":"루가오니아","en":"Lycaonia","rank":3,"kind":"region"},"geometry":{"type":"Point","coordinates":[33.1,37.7]}},{"type":"Feature","properties":{"ko":"비시디아","en":"Pisidia","rank":3,"kind":"region"},"geometry":{"type":"Point","coordinates":[30.7,37.55]}},{"type":"Feature","properties":{"ko":"밤빌리아","en":"Pamphylia","rank":3,"kind":"region"},"geometry":{"type":"Point","coordinates":[31.4,37.1]}},{"type":"Feature","properties":{"ko":"루기아","en":"Lycia","rank":3,"kind":"region"},"geometry":{"type":"Point","coordinates":[29.4,36.6]}},{"type":"Feature","properties":{"ko":"아시아","en":"Asia","rank":1,"kind":"region"},"geometry":{"type":"Point","coordinates":[28.6,38.05]}},{"type":"Feature","properties":{"ko":"마게도냐","en":"Macedonia","rank":1,"kind":"region"},"geometry":{"type":"Point","coordinates":[22.1,41.1]}},{"type":"Feature","properties":{"ko":"아가야","en":"Achaia","rank":1,"kind":"region"},"geometry":{"type":"Point","coordinates":[22.3,38.0]}},{"type":"Feature","properties":{"ko":"일루리곤","en":"Illyricum","rank":3,"kind":"region"},"geometry":{"type":"Point","coordinates":[19.4,42.1]}},{"type":"Feature","properties":{"ko":"달마디아","en":"Dalmatia","rank":3,"kind":"region"},"geometry":{"type":"Point","coordinates":[17.4,43.5]}},{"type":"Feature","properties":{"ko":"이달리야","en":"Italy","rank":1,"kind":"region"},"geometry":{"type":"Point","coordinates":[13.2,42.6]}},{"type":"Feature","properties":{"ko":"서바나","en":"Spain","rank":2,"kind":"region"},"geometry":{"type":"Point","coordinates":[-4.0,40.2]}},{"type":"Feature","properties":{"ko":"애굽","en":"Egypt","rank":1,"kind":"region"},"geometry":{"type":"Point","coordinates":[30.8,27.2]}},{"type":"Feature","properties":{"ko":"리비아","en":"Libya","rank":2,"kind":"region"},"geometry":{"type":"Point","coordinates":[20.5,30.2]}},{"type":"Feature","properties":{"ko":"아라비아","en":"Arabia","rank":2,"kind":"region"},"geometry":{"type":"Point","coordinates":[39.5,28.5]}},{"type":"Feature","properties":{"ko":"메소보다미아","en":"Mesopotamia","rank":1,"kind":"region"},"geometry":{"type":"Point","coordinates":[42.8,34.6]}},{"type":"Feature","properties":{"ko":"바대","en":"Parthia","rank":2,"kind":"region"},"geometry":{"type":"Point","coordinates":[55.0,35.2]}},{"type":"Feature","properties":{"ko":"메대","en":"Media","rank":2,"kind":"region"},"geometry":{"type":"Point","coordinates":[49.0,35.6]}},{"type":"Feature","properties":{"ko":"엘람","en":"Elam","rank":3,"kind":"region"},"geometry":{"type":"Point","coordinates":[48.5,31.6]}},{"type":"Feature","properties":{"ko":"앗수르","en":"Assyria","rank":3,"kind":"region"},"geometry":{"type":"Point","coordinates":[43.2,36.4]}},{"type":"Feature","properties":{"ko":"에디오피아","en":"Ethiopia","rank":2,"kind":"region"},"geometry":{"type":"Point","coordinates":[34.0,17.5]}},{"type":"Feature","properties":{"ko":"갈릴리 이방인의 땅","en":"Gaulanitis","rank":4,"kind":"region"},"geometry":{"type":"Point","coordinates":[35.8,32.95]}},{"type":"Feature","properties":{"ko":"이두래","en":"Iturea","rank":4,"kind":"region"},"geometry":{"type":"Point","coordinates":[35.95,33.6]}},{"type":"Feature","properties":{"ko":"드라고닛","en":"Trachonitis","rank":4,"kind":"region"},"geometry":{"type":"Point","coordinates":[36.6,33.1]}},{"type":"Feature","properties":{"ko":"구브로","en":"Cyprus","rank":2,"kind":"island"},"geometry":{"type":"Point","coordinates":[33.2,35.05]}},{"type":"Feature","properties":{"ko":"그레데","en":"Crete","rank":2,"kind":"island"},"geometry":{"type":"Point","coordinates":[24.85,35.22]}},{"type":"Feature","properties":{"ko":"시실리","en":"Sicily","rank":2,"kind":"island"},"geometry":{"type":"Point","coordinates":[14.2,37.55]}},{"type":"Feature","properties":{"ko":"멜리데","en":"Malta","rank":2,"kind":"island"},"geometry":{"type":"Point","coordinates":[14.4,35.9]}},{"type":"Feature","properties":{"ko":"밧모","en":"Patmos","rank":3,"kind":"island"},"geometry":{"type":"Point","coordinates":[26.547,37.309]}},{"type":"Feature","properties":{"ko":"로도","en":"Rhodes","rank":3,"kind":"island"},"geometry":{"type":"Point","coordinates":[28.227,36.451]}},{"type":"Feature","properties":{"ko":"고스","en":"Cos","rank":4,"kind":"island"},"geometry":{"type":"Point","coordinates":[27.288,36.893]}},{"type":"Feature","properties":{"ko":"사모","en":"Samos","rank":4,"kind":"island"},"geometry":{"type":"Point","coordinates":[26.977,37.755]}},{"type":"Feature","properties":{"ko":"기오","en":"Chios","rank":4,"kind":"island"},"geometry":{"type":"Point","coordinates":[26.135,38.368]}},{"type":"Feature","properties":{"ko":"레스보","en":"Lesbos","rank":4,"kind":"island"},"geometry":{"type":"Point","coordinates":[26.3,39.2]}},{"type":"Feature","properties":{"ko":"사모드라게","en":"Samothrace","rank":4,"kind":"island"},"geometry":{"type":"Point","coordinates":[25.53,40.47]}},{"type":"Feature","properties":{"ko":"가우다","en":"Cauda","rank":5,"kind":"island"},"geometry":{"type":"Point","coordinates":[24.13,34.84]}},{"type":"Feature","properties":{"ko":"지중해","en":"Mediterranean Sea","rank":1,"kind":"water"},"geometry":{"type":"Point","coordinates":[31.0,33.8]}},{"type":"Feature","properties":{"ko":"에게해","en":"Aegean Sea","rank":2,"kind":"water"},"geometry":{"type":"Point","coordinates":[25.1,38.2]}},{"type":"Feature","properties":{"ko":"아드리아해","en":"Adriatic Sea","rank":2,"kind":"water"},"geometry":{"type":"Point","coordinates":[18.2,41.6]}},{"type":"Feature","properties":{"ko":"흑해","en":"Black Sea","rank":2,"kind":"water"},"geometry":{"type":"Point","coordinates":[34.0,42.6]}},{"type":"Feature","properties":{"ko":"홍해","en":"Red Sea","rank":2,"kind":"water"},"geometry":{"type":"Point","coordinates":[36.5,24.5]}},{"type":"Feature","properties":{"ko":"갈릴리 바다","en":"Sea of Galilee","rank":2,"kind":"water"},"geometry":{"type":"Point","coordinates":[35.578,32.742]}},{"type":"Feature","properties":{"ko":"사해","en":"Dead Sea","rank":2,"kind":"water"},"geometry":{"type":"Point","coordinates":[35.47,31.5]}},{"type":"Feature","properties":{"ko":"요단강","en":"Jordan River","rank":3,"kind":"water"},"geometry":{"type":"Point","coordinates":[35.56,32.3]}},{"type":"Feature","properties":{"ko":"유브라데강","en":"Euphrates","rank":2,"kind":"water"},"geometry":{"type":"Point","coordinates":[40.2,35.4]}},{"type":"Feature","properties":{"ko":"힛데겔강","en":"Tigris","rank":2,"kind":"water"},"geometry":{"type":"Point","coordinates":[43.5,35.0]}},{"type":"Feature","properties":{"ko":"나일강","en":"Nile","rank":2,"kind":"water"},"geometry":{"type":"Point","coordinates":[31.1,27.3]}},{"type":"Feature","properties":{"ko":"기손강","en":"Kishon","rank":5,"kind":"water"},"geometry":{"type":"Point","coordinates":[35.1,32.75]}},{"type":"Feature","properties":{"ko":"얍복강","en":"Jabbok","rank":5,"kind":"water"},"geometry":{"type":"Point","coordinates":[35.62,32.1]}},{"type":"Feature","properties":{"ko":"아르논강","en":"Arnon","rank":5,"kind":"water"},"geometry":{"type":"Point","coordinates":[35.6,31.45]}},{"type":"Feature","properties":{"ko":"헤르몬산","en":"Mt. Hermon","rank":3,"kind":"mountain"},"geometry":{"type":"Point","coordinates":[35.857,33.416]}},{"type":"Feature","properties":{"ko":"감람산","en":"Mount of Olives","rank":5,"kind":"mountain"},"geometry":{"type":"Point","coordinates":[35.245,31.778]}},{"type":"Feature","properties":{"ko":"시온산","en":"Mount Zion","rank":5,"kind":"mountain"},"geometry":{"type":"Point","coordinates":[35.228,31.771]}},{"type":"Feature","properties":{"ko":"갈멜산","en":"Mt. Carmel","rank":3,"kind":"mountain"},"geometry":{"type":"Point","coordinates":[35.03,32.73]}},{"type":"Feature","properties":{"ko":"다볼산","en":"Mt. Tabor","rank":5,"kind":"mountain"},"geometry":{"type":"Point","coordinates":[35.39,32.687]}},{"type":"Feature","properties":{"ko":"그리심산","en":"Mt. Gerizim","rank":5,"kind":"mountain"},"geometry":{"type":"Point","coordinates":[35.273,32.2]}},{"type":"Feature","properties":{"ko":"에발산","en":"Mt. Ebal","rank":5,"kind":"mountain"},"geometry":{"type":"Point","coordinates":[35.27,32.235]}},{"type":"Feature","properties":{"ko":"느보산","en":"Mt. Nebo","rank":5,"kind":"mountain"},"geometry":{"type":"Point","coordinates":[35.725,31.768]}},{"type":"Feature","properties":{"ko":"시내산","en":"Mt. Sinai","rank":2,"kind":"mountain"},"geometry":{"type":"Point","coordinates":[33.975,28.539]}},{"type":"Feature","properties":{"ko":"아라랏산","en":"Mt. Ararat","rank":3,"kind":"mountain"},"geometry":{"type":"Point","coordinates":[44.3,39.7]}},{"type":"Feature","properties":{"ko":"예루살렘","en":"Jerusalem","rank":1,"kind":"city"},"geometry":{"type":"Point","coordinates":[35.2354,31.7784]}},{"type":"Feature","properties":{"ko":"베들레헴","en":"Bethlehem","rank":5,"kind":"city"},"geometry":{"type":"Point","coordinates":[35.2024,31.7054]}},{"type":"Feature","properties":{"ko":"베다니","en":"Bethany","rank":5,"kind":"town"},"geometry":{"type":"Point","coordinates":[35.2617,31.7716]}},{"type":"Feature","properties":{"ko":"벳바게","en":"Bethphage","rank":5,"kind":"town"},"geometry":{"type":"Point","coordinates":[35.253,31.777]}},{"type":"Feature","properties":{"ko":"여리고","en":"Jericho","rank":4,"kind":"city"},"geometry":{"type":"Point","coordinates":[35.4443,31.857]}},{"type":"Feature","properties":{"ko":"엠마오","en":"Emmaus","rank":5,"kind":"town"},"geometry":{"type":"Point","coordinates":[35.014,31.839]}},{"type":"Feature","properties":{"ko":"헤브론","en":"Hebron","rank":5,"kind":"city"},"geometry":{"type":"Point","coordinates":[35.0998,31.5326]}},{"type":"Feature","properties":{"ko":"아리마대","en":"Arimathea","rank":5,"kind":"town"},"geometry":{"type":"Point","coordinates":[34.95,32.0]}},{"type":"Feature","properties":{"ko":"룻다","en":"Lydda","rank":5,"kind":"town"},"geometry":{"type":"Point","coordinates":[34.89,31.95]}},{"type":"Feature","properties":{"ko":"욥바","en":"Joppa","rank":3,"kind":"city"},"geometry":{"type":"Point","coordinates":[34.752,32.054]}},{"type":"Feature","properties":{"ko":"안디바드리","en":"Antipatris","rank":4,"kind":"city"},"geometry":{"type":"Point","coordinates":[34.94,32.1]}},{"type":"Feature","properties":{"ko":"가이사랴","en":"Caesarea Maritima","rank":4,"kind":"city"},"geometry":{"type":"Point","coordinates":[34.8917,32.5]}},{"type":"Feature","properties":{"ko":"아소도","en":"Azotus","rank":4,"kind":"city"},"geometry":{"type":"Point","coordinates":[34.65,31.8]}},{"type":"Feature","properties":{"ko":"가사","en":"Gaza","rank":3,"kind":"city"},"geometry":{"type":"Point","coordinates":[34.47,31.5]}},{"type":"Feature","properties":{"ko":"아스글론","en":"Ashkelon","rank":4,"kind":"city"},"geometry":{"type":"Point","coordinates":[34.55,31.66]}},{"type":"Feature","properties":{"ko":"얌니아","en":"Jamnia","rank":5,"kind":"city"},"geometry":{"type":"Point","coordinates":[34.74,31.87]}},{"type":"Feature","properties":{"ko":"마사다","en":"Masada","rank":4,"kind":"fort"},"geometry":{"type":"Point","coordinates":[35.354,31.315]}},{"type":"Feature","properties":{"ko":"쿰란","en":"Qumran","rank":4,"kind":"village"},"geometry":{"type":"Point","coordinates":[35.459,31.741]}},{"type":"Feature","properties":{"ko":"헤로디온","en":"Herodium","rank":4,"kind":"fort"},"geometry":{"type":"Point","coordinates":[35.241,31.666]}},{"type":"Feature","properties":{"ko":"엔게디","en":"En Gedi","rank":5,"kind":"village"},"geometry":{"type":"Point","coordinates":[35.39,31.46]}},{"type":"Feature","properties":{"ko":"드고아","en":"Tekoa","rank":5,"kind":"town"},"geometry":{"type":"Point","coordinates":[35.238,31.636]}},{"type":"Feature","properties":{"ko":"벧엘","en":"Bethel","rank":4,"kind":"town"},"geometry":{"type":"Point","coordinates":[35.22,31.93]}},{"type":"Feature","properties":{"ko":"실로","en":"Shiloh","rank":4,"kind":"town"},"geometry":{"type":"Point","coordinates":[35.29,32.056]}},{"type":"Feature","properties":{"ko":"에브라임","en":"Ephraim","rank":5,"kind":"town"},"geometry":{"type":"Point","coordinates":[35.3,31.94]}},{"type":"Feature","properties":{"ko":"게셀","en":"Gezer","rank":5,"kind":"town"},"geometry":{"type":"Point","coordinates":[34.92,31.86]}},{"type":"Feature","properties":{"ko":"모딘","en":"Modiin","rank":5,"kind":"town"},"geometry":{"type":"Point","coordinates":[35.01,31.93]}},{"type":"Feature","properties":{"ko":"벧호론","en":"Beth Horon","rank":5,"kind":"town"},"geometry":{"type":"Point","coordinates":[35.12,31.88]}},{"type":"Feature","properties":{"ko":"미스바","en":"Mizpah","rank":5,"kind":"town"},"geometry":{"type":"Point","coordinates":[35.22,31.88]}},{"type":"Feature","properties":{"ko":"라마","en":"Ramah","rank":5,"kind":"town"},"geometry":{"type":"Point","coordinates":[35.215,31.897]}},{"type":"Feature","properties":{"ko":"벧술","en":"Beth Zur","rank":5,"kind":"town"},"geometry":{"type":"Point","coordinates":[35.1,31.59]}},{"type":"Feature","properties":{"ko":"브엘세바","en":"Beersheba","rank":3,"kind":"city"},"geometry":{"type":"Point","coordinates":[34.79,31.25]}},{"type":"Feature","properties":{"ko":"사마리아(세바스테)","en":"Sebaste","rank":4,"kind":"city"},"geometry":{"type":"Point","coordinates":[35.195,32.28]}},{"type":"Feature","properties":{"ko":"세겜","en":"Shechem","rank":5,"kind":"city"},"geometry":{"type":"Point","coordinates":[35.283,32.213]}},{"type":"Feature","properties":{"ko":"수가","en":"Sychar","rank":5,"kind":"town"},"geometry":{"type":"Point","coordinates":[35.281,32.213]}},{"type":"Feature","properties":{"ko":"나사렛","en":"Nazareth","rank":4,"kind":"city"},"geometry":{"type":"Point","coordinates":[35.2978,32.7019]}},{"type":"Feature","properties":{"ko":"세포리스","en":"Sepphoris","rank":5,"kind":"city"},"geometry":{"type":"Point","coordinates":[35.279,32.752]}},{"type":"Feature","properties":{"ko":"가버나움","en":"Capernaum","rank":4,"kind":"town"},"geometry":{"type":"Point","coordinates":[35.575,32.8808]}},{"type":"Feature","properties":{"ko":"벳새다","en":"Bethsaida","rank":5,"kind":"town"},"geometry":{"type":"Point","coordinates":[35.63,32.91]}},{"type":"Feature","properties":{"ko":"고라신","en":"Chorazin","rank":5,"kind":"town"},"geometry":{"type":"Point","coordinates":[35.564,32.911]}},{"type":"Feature","properties":{"ko":"가나","en":"Cana","rank":5,"kind":"town"},"geometry":{"type":"Point","coordinates":[35.339,32.747]}},{"type":"Feature","properties":{"ko":"막달라","en":"Magdala","rank":5,"kind":"town"},"geometry":{"type":"Point","coordinates":[35.5169,32.8247]}},{"type":"Feature","properties":{"ko":"디베랴","en":"Tiberias","rank":5,"kind":"city"},"geometry":{"type":"Point","coordinates":[35.5312,32.7959]}},{"type":"Feature","properties":{"ko":"나인","en":"Nain","rank":5,"kind":"town"},"geometry":{"type":"Point","coordinates":[35.345,32.632]}},{"type":"Feature","properties":{"ko":"기살라","en":"Gischala","rank":5,"kind":"town"},"geometry":{"type":"Point","coordinates":[35.447,33.025]}},{"type":"Feature","properties":{"ko":"요드밧","en":"Jotapata","rank":5,"kind":"fort"},"geometry":{"type":"Point","coordinates":[35.274,32.836]}},{"type":"Feature","properties":{"ko":"감라","en":"Gamla","rank":5,"kind":"fort"},"geometry":{"type":"Point","coordinates":[35.74,32.902]}},{"type":"Feature","properties":{"ko":"돌레마이","en":"Ptolemais","rank":5,"kind":"city"},"geometry":{"type":"Point","coordinates":[35.07,32.928]}},{"type":"Feature","properties":{"ko":"돌","en":"Dor","rank":4,"kind":"harbour"},"geometry":{"type":"Point","coordinates":[34.92,32.62]}},{"type":"Feature","properties":{"ko":"므깃도","en":"Megiddo","rank":4,"kind":"city"},"geometry":{"type":"Point","coordinates":[35.183,32.585]}},{"type":"Feature","properties":{"ko":"이스르엘","en":"Jezreel","rank":5,"kind":"town"},"geometry":{"type":"Point","coordinates":[35.33,32.558]}},{"type":"Feature","properties":{"ko":"가이사랴 빌립보","en":"Caesarea Philippi","rank":4,"kind":"city"},"geometry":{"type":"Point","coordinates":[35.6944,33.2486]}},{"type":"Feature","properties":{"ko":"단","en":"Dan","rank":5,"kind":"town"},"geometry":{"type":"Point","coordinates":[35.652,33.249]}},{"type":"Feature","properties":{"ko":"거라사","en":"Gerasa","rank":3,"kind":"city"},"geometry":{"type":"Point","coordinates":[35.891,32.281]}},{"type":"Feature","properties":{"ko":"가다라","en":"Gadara","rank":5,"kind":"city"},"geometry":{"type":"Point","coordinates":[35.68,32.654]}},{"type":"Feature","properties":{"ko":"히포스","en":"Hippos","rank":5,"kind":"city"},"geometry":{"type":"Point","coordinates":[35.66,32.779]}},{"type":"Feature","properties":{"ko":"벨라","en":"Pella","rank":5,"kind":"city"},"geometry":{"type":"Point","coordinates":[35.62,32.45]}},{"type":"Feature","properties":{"ko":"빌라델비아","en":"Philadelphia","rank":3,"kind":"city"},"geometry":{"type":"Point","coordinates":[35.9333,31.95]}},{"type":"Feature","properties":{"ko":"가나다","en":"Canatha","rank":4,"kind":"city"},"geometry":{"type":"Point","coordinates":[36.61,32.76]}},{"type":"Feature","properties":{"ko":"디온","en":"Dion","rank":5,"kind":"city"},"geometry":{"type":"Point","coordinates":[36.1,32.6]}},{"type":"Feature","properties":{"ko":"라파나","en":"Raphana","rank":5,"kind":"city"},"geometry":{"type":"Point","coordinates":[36.2,32.8]}},{"type":"Feature","properties":{"ko":"아빌라","en":"Abila","rank":5,"kind":"city"},"geometry":{"type":"Point","coordinates":[35.87,32.68]}},{"type":"Feature","properties":{"ko":"스구도볼리","en":"Scythopolis","rank":4,"kind":"city"},"geometry":{"type":"Point","coordinates":[35.5,32.5]}},{"type":"Feature","properties":{"ko":"마케루스","en":"Machaerus","rank":4,"kind":"fort"},"geometry":{"type":"Point","coordinates":[35.625,31.567]}},{"type":"Feature","properties":{"ko":"베다니(요단 건너)","en":"Bethany beyond Jordan","rank":5,"kind":"village"},"geometry":{"type":"Point","coordinates":[35.545,31.837]}},{"type":"Feature","properties":{"ko":"헤스본","en":"Heshbon","rank":5,"kind":"town"},"geometry":{"type":"Point","coordinates":[35.808,31.8]}},{"type":"Feature","properties":{"ko":"메드바","en":"Medeba","rank":5,"kind":"town"},"geometry":{"type":"Point","coordinates":[35.795,31.716]}},{"type":"Feature","properties":{"ko":"페트라","en":"Petra","rank":3,"kind":"city"},"geometry":{"type":"Point","coordinates":[35.444,30.3285]}},{"type":"Feature","properties":{"ko":"두로","en":"Tyre","rank":3,"kind":"city"},"geometry":{"type":"Point","coordinates":[35.2038,33.2705]}},{"type":"Feature","properties":{"ko":"시돈","en":"Sidon","rank":2,"kind":"city"},"geometry":{"type":"Point","coordinates":[35.369,33.563]}},{"type":"Feature","properties":{"ko":"사렙다","en":"Sarepta","rank":5,"kind":"town"},"geometry":{"type":"Point","coordinates":[35.29,33.45]}},{"type":"Feature","properties":{"ko":"베리도","en":"Berytus","rank":4,"kind":"city"},"geometry":{"type":"Point","coordinates":[35.5,33.89]}},{"type":"Feature","properties":{"ko":"비블로스","en":"Byblos","rank":5,"kind":"city"},"geometry":{"type":"Point","coordinates":[35.648,34.12]}},{"type":"Feature","properties":{"ko":"다메섹","en":"Damascus","rank":1,"kind":"city"},"geometry":{"type":"Point","coordinates":[36.2765,33.5138]}},{"type":"Feature","properties":{"ko":"안디옥","en":"Antioch","rank":1,"kind":"city"},"geometry":{"type":"Point","coordinates":[36.16,36.202]}},{"type":"Feature","properties":{"ko":"실루기아","en":"Seleucia Pieria","rank":4,"kind":"harbour"},"geometry":{"type":"Point","coordinates":[35.93,36.12]}},{"type":"Feature","properties":{"ko":"다프네","en":"Daphne","rank":5,"kind":"town"},"geometry":{"type":"Point","coordinates":[36.13,36.13]}},{"type":"Feature","properties":{"ko":"아파메아","en":"Apamea","rank":4,"kind":"city"},"geometry":{"type":"Point","coordinates":[36.4,35.418]}},{"type":"Feature","properties":{"ko":"에메사","en":"Emesa","rank":4,"kind":"city"},"geometry":{"type":"Point","coordinates":[36.72,34.73]}},{"type":"Feature","properties":{"ko":"팔미라","en":"Palmyra","rank":3,"kind":"city"},"geometry":{"type":"Point","coordinates":[38.27,34.55]}},{"type":"Feature","properties":{"ko":"다소","en":"Tarsus","rank":3,"kind":"city"},"geometry":{"type":"Point","coordinates":[34.8951,36.9177]}},{"type":"Feature","properties":{"ko":"더베","en":"Derbe","rank":4,"kind":"town"},"geometry":{"type":"Point","coordinates":[33.27,37.35]}},{"type":"Feature","properties":{"ko":"루스드라","en":"Lystra","rank":4,"kind":"town"},"geometry":{"type":"Point","coordinates":[32.45,37.58]}},{"type":"Feature","properties":{"ko":"이고니온","en":"Iconium","rank":2,"kind":"city"},"geometry":{"type":"Point","coordinates":[32.4932,37.8746]}},{"type":"Feature","properties":{"ko":"비시디아 안디옥","en":"Antioch of Pisidia","rank":3,"kind":"city"},"geometry":{"type":"Point","coordinates":[31.189,38.306]}},{"type":"Feature","properties":{"ko":"에베소","en":"Ephesus","rank":1,"kind":"city"},"geometry":{"type":"Point","coordinates":[27.3417,37.9395]}},{"type":"Feature","properties":{"ko":"밀레도","en":"Miletus","rank":3,"kind":"city"},"geometry":{"type":"Point","coordinates":[27.277,37.53]}},{"type":"Feature","properties":{"ko":"서머나","en":"Smyrna","rank":2,"kind":"city"},"geometry":{"type":"Point","coordinates":[27.1287,38.4192]}},{"type":"Feature","properties":{"ko":"버가모","en":"Pergamum","rank":2,"kind":"city"},"geometry":{"type":"Point","coordinates":[27.18,39.12]}},{"type":"Feature","properties":{"ko":"두아디라","en":"Thyatira","rank":3,"kind":"city"},"geometry":{"type":"Point","coordinates":[27.84,38.92]}},{"type":"Feature","properties":{"ko":"사데","en":"Sardis","rank":3,"kind":"city"},"geometry":{"type":"Point","coordinates":[28.04,38.488]}},{"type":"Feature","properties":{"ko":"빌라델비아(아시아)","en":"Philadelphia (Asia)","rank":4,"kind":"city"},"geometry":{"type":"Point","coordinates":[28.52,38.35]}},{"type":"Feature","properties":{"ko":"라오디게아","en":"Laodicea","rank":3,"kind":"city"},"geometry":{"type":"Point","coordinates":[29.107,37.836]}},{"type":"Feature","properties":{"ko":"골로새","en":"Colossae","rank":4,"kind":"city"},"geometry":{"type":"Point","coordinates":[29.26,37.79]}},{"type":"Feature","properties":{"ko":"히에라볼리","en":"Hierapolis","rank":5,"kind":"city"},"geometry":{"type":"Point","coordinates":[29.125,37.925]}},{"type":"Feature","properties":{"ko":"드로아","en":"Troas","rank":3,"kind":"harbour"},"geometry":{"type":"Point","coordinates":[26.16,39.75]}},{"type":"Feature","properties":{"ko":"앗소","en":"Assos","rank":4,"kind":"harbour"},"geometry":{"type":"Point","coordinates":[26.34,39.49]}},{"type":"Feature","properties":{"ko":"아드라뭇데노","en":"Adramyttium","rank":5,"kind":"harbour"},"geometry":{"type":"Point","coordinates":[26.94,39.5]}},{"type":"Feature","properties":{"ko":"앗달리아","en":"Attalia","rank":4,"kind":"harbour"},"geometry":{"type":"Point","coordinates":[30.7,36.88]}},{"type":"Feature","properties":{"ko":"버가","en":"Perga","rank":5,"kind":"city"},"geometry":{"type":"Point","coordinates":[30.85,36.96]}},{"type":"Feature","properties":{"ko":"무라","en":"Myra","rank":4,"kind":"harbour"},"geometry":{"type":"Point","coordinates":[29.985,36.256]}},{"type":"Feature","properties":{"ko":"바다라","en":"Patara","rank":4,"kind":"harbour"},"geometry":{"type":"Point","coordinates":[29.316,36.262]}},{"type":"Feature","properties":{"ko":"니도","en":"Cnidus","rank":4,"kind":"harbour"},"geometry":{"type":"Point","coordinates":[27.374,36.685]}},{"type":"Feature","properties":{"ko":"할리카르낫소","en":"Halicarnassus","rank":5,"kind":"city"},"geometry":{"type":"Point","coordinates":[27.429,37.038]}},{"type":"Feature","properties":{"ko":"가이사랴 마사가","en":"Caesarea Mazaca","rank":4,"kind":"city"},"geometry":{"type":"Point","coordinates":[35.49,38.73]}},{"type":"Feature","properties":{"ko":"니고메디아","en":"Nicomedia","rank":3,"kind":"city"},"geometry":{"type":"Point","coordinates":[29.92,40.765]}},{"type":"Feature","properties":{"ko":"니케아","en":"Nicaea","rank":4,"kind":"city"},"geometry":{"type":"Point","coordinates":[29.72,40.429]}},{"type":"Feature","properties":{"ko":"비잔티움","en":"Byzantium","rank":2,"kind":"city"},"geometry":{"type":"Point","coordinates":[28.98,41.01]}},{"type":"Feature","properties":{"ko":"시노페","en":"Sinope","rank":3,"kind":"city"},"geometry":{"type":"Point","coordinates":[35.15,42.03]}},{"type":"Feature","properties":{"ko":"아마세아","en":"Amaseia","rank":4,"kind":"city"},"geometry":{"type":"Point","coordinates":[35.83,40.65]}},{"type":"Feature","properties":{"ko":"빌립보","en":"Philippi","rank":2,"kind":"city"},"geometry":{"type":"Point","coordinates":[24.287,41.013]}},{"type":"Feature","properties":{"ko":"네압볼리","en":"Neapolis","rank":5,"kind":"harbour"},"geometry":{"type":"Point","coordinates":[24.41,40.94]}},{"type":"Feature","properties":{"ko":"암비볼리","en":"Amphipolis","rank":4,"kind":"city"},"geometry":{"type":"Point","coordinates":[23.84,40.82]}},{"type":"Feature","properties":{"ko":"아볼로니아","en":"Apollonia","rank":5,"kind":"town"},"geometry":{"type":"Point","coordinates":[23.44,40.61]}},{"type":"Feature","properties":{"ko":"데살로니가","en":"Thessalonica","rank":2,"kind":"city"},"geometry":{"type":"Point","coordinates":[22.9444,40.6401]}},{"type":"Feature","properties":{"ko":"베뢰아(마게도냐)","en":"Berea","rank":3,"kind":"city"},"geometry":{"type":"Point","coordinates":[22.203,40.524]}},{"type":"Feature","properties":{"ko":"아덴","en":"Athens","rank":1,"kind":"city"},"geometry":{"type":"Point","coordinates":[23.7275,37.9838]}},{"type":"Feature","properties":{"ko":"고린도","en":"Corinth","rank":3,"kind":"city"},"geometry":{"type":"Point","coordinates":[22.879,37.906]}},{"type":"Feature","properties":{"ko":"겐그레아","en":"Cenchreae","rank":5,"kind":"harbour"},"geometry":{"type":"Point","coordinates":[22.988,37.888]}},{"type":"Feature","properties":{"ko":"니고볼리","en":"Nicopolis","rank":3,"kind":"city"},"geometry":{"type":"Point","coordinates":[20.73,39.02]}},{"type":"Feature","properties":{"ko":"델비","en":"Delphi","rank":4,"kind":"city"},"geometry":{"type":"Point","coordinates":[22.501,38.482]}},{"type":"Feature","properties":{"ko":"스파르타","en":"Sparta","rank":4,"kind":"city"},"geometry":{"type":"Point","coordinates":[22.43,37.08]}},{"type":"Feature","properties":{"ko":"두라기움","en":"Dyrrachium","rank":3,"kind":"harbour"},"geometry":{"type":"Point","coordinates":[19.45,41.31]}},{"type":"Feature","properties":{"ko":"로마","en":"Rome","rank":2,"kind":"city"},"geometry":{"type":"Point","coordinates":[12.4964,41.9028]}},{"type":"Feature","properties":{"ko":"보디올","en":"Puteoli","rank":3,"kind":"harbour"},"geometry":{"type":"Point","coordinates":[14.121,40.823]}},{"type":"Feature","properties":{"ko":"압비오 광장","en":"Forum of Appius","rank":5,"kind":"town"},"geometry":{"type":"Point","coordinates":[12.99,41.49]}},{"type":"Feature","properties":{"ko":"삼관","en":"Three Taverns","rank":5,"kind":"town"},"geometry":{"type":"Point","coordinates":[12.83,41.63]}},{"type":"Feature","properties":{"ko":"브린디시움","en":"Brundisium","rank":3,"kind":"harbour"},"geometry":{"type":"Point","coordinates":[17.94,40.63]}},{"type":"Feature","properties":{"ko":"수라구사","en":"Syracuse","rank":3,"kind":"city"},"geometry":{"type":"Point","coordinates":[15.2866,37.0755]}},{"type":"Feature","properties":{"ko":"레기온","en":"Rhegium","rank":4,"kind":"city"},"geometry":{"type":"Point","coordinates":[15.65,38.11]}},{"type":"Feature","properties":{"ko":"폼페이","en":"Pompeii","rank":4,"kind":"city"},"geometry":{"type":"Point","coordinates":[14.489,40.75]}},{"type":"Feature","properties":{"ko":"알렉산드리아","en":"Alexandria","rank":1,"kind":"city"},"geometry":{"type":"Point","coordinates":[29.9187,31.2001]}},{"type":"Feature","properties":{"ko":"구레네","en":"Cyrene","rank":2,"kind":"city"},"geometry":{"type":"Point","coordinates":[21.86,32.82]}},{"type":"Feature","properties":{"ko":"멤피스","en":"Memphis","rank":3,"kind":"city"},"geometry":{"type":"Point","coordinates":[31.25,29.85]}},{"type":"Feature","properties":{"ko":"시에네","en":"Syene","rank":3,"kind":"city"},"geometry":{"type":"Point","coordinates":[32.899,24.089]}},{"type":"Feature","properties":{"ko":"고센","en":"Goshen","rank":4,"kind":"region"},"geometry":{"type":"Point","coordinates":[31.8,30.7]}},{"type":"Feature","properties":{"ko":"바벨론","en":"Babylon","rank":2,"kind":"city"},"geometry":{"type":"Point","coordinates":[44.42,32.54]}},{"type":"Feature","properties":{"ko":"셀류키아","en":"Seleucia on Tigris","rank":3,"kind":"city"},"geometry":{"type":"Point","coordinates":[44.52,33.1]}},{"type":"Feature","properties":{"ko":"니시비스","en":"Nisibis","rank":3,"kind":"city"},"geometry":{"type":"Point","coordinates":[41.22,37.07]}},{"type":"Feature","properties":{"ko":"에데사","en":"Edessa","rank":3,"kind":"city"},"geometry":{"type":"Point","coordinates":[38.79,37.15]}},{"type":"Feature","properties":{"ko":"수산","en":"Susa","rank":3,"kind":"city"},"geometry":{"type":"Point","coordinates":[48.26,32.19]}},{"type":"Feature","properties":{"ko":"엑바타나","en":"Ecbatana","rank":3,"kind":"city"},"geometry":{"type":"Point","coordinates":[48.515,34.799]}},{"type":"Feature","properties":{"ko":"니느웨","en":"Nineveh","rank":5,"kind":"city"},"geometry":{"type":"Point","coordinates":[43.152,36.359]}},{"type":"Feature","properties":{"ko":"마리사","en":"Marisa","rank":5,"kind":"city"},"geometry":{"type":"Point","coordinates":[34.899,31.598]}},{"type":"Feature","properties":{"ko":"아둘람","en":"Adullam","rank":5,"kind":"town"},"geometry":{"type":"Point","coordinates":[34.99,31.65]}},{"type":"Feature","properties":{"ko":"라기스","en":"Lachish","rank":5,"kind":"town"},"geometry":{"type":"Point","coordinates":[34.849,31.565]}},{"type":"Feature","properties":{"ko":"기브온","en":"Gibeon","rank":5,"kind":"town"},"geometry":{"type":"Point","coordinates":[35.184,31.846]}},{"type":"Feature","properties":{"ko":"기브아","en":"Gibeah","rank":5,"kind":"town"},"geometry":{"type":"Point","coordinates":[35.232,31.824]}},{"type":"Feature","properties":{"ko":"아나돗","en":"Anathoth","rank":5,"kind":"town"},"geometry":{"type":"Point","coordinates":[35.262,31.811]}},{"type":"Feature","properties":{"ko":"벧세메스","en":"Beth Shemesh","rank":5,"kind":"town"},"geometry":{"type":"Point","coordinates":[34.975,31.751]}},{"type":"Feature","properties":{"ko":"알렉산드리움","en":"Alexandrium","rank":5,"kind":"fort"},"geometry":{"type":"Point","coordinates":[35.42,32.09]}},{"type":"Feature","properties":{"ko":"키프로스 요새","en":"Cypros","rank":5,"kind":"fort"},"geometry":{"type":"Point","coordinates":[35.42,31.85]}},{"type":"Feature","properties":{"ko":"아르벨","en":"Arbel","rank":5,"kind":"town"},"geometry":{"type":"Point","coordinates":[35.5,32.823]}},{"type":"Feature","properties":{"ko":"다브랏","en":"Daberath","rank":5,"kind":"town"},"geometry":{"type":"Point","coordinates":[35.38,32.682]}},{"type":"Feature","properties":{"ko":"가바라","en":"Gabara","rank":5,"kind":"town"},"geometry":{"type":"Point","coordinates":[35.32,32.87]}},{"type":"Feature","properties":{"ko":"라오디게아(수리아)","en":"Laodicea ad Mare","rank":4,"kind":"city"},"geometry":{"type":"Point","coordinates":[35.79,35.52]}},{"type":"Feature","properties":{"ko":"아라두스","en":"Arados","rank":5,"kind":"island"},"geometry":{"type":"Point","coordinates":[35.85,34.856]}},{"type":"Feature","properties":{"ko":"트리폴리","en":"Tripolis","rank":4,"kind":"city"},"geometry":{"type":"Point","coordinates":[35.84,34.44]}},{"type":"Feature","properties":{"ko":"찰키스","en":"Chalcis","rank":5,"kind":"city"},"geometry":{"type":"Point","coordinates":[36.1,34.2]}},{"type":"Feature","properties":{"ko":"마그네시아","en":"Magnesia","rank":5,"kind":"city"},"geometry":{"type":"Point","coordinates":[27.53,37.85]}},{"type":"Feature","properties":{"ko":"트랄레스","en":"Tralles","rank":5,"kind":"city"},"geometry":{"type":"Point","coordinates":[27.84,37.856]}},{"type":"Feature","properties":{"ko":"아프로디시아스","en":"Aphrodisias","rank":4,"kind":"city"},"geometry":{"type":"Point","coordinates":[28.725,37.708]}},{"type":"Feature","properties":{"ko":"앙키라","en":"Ancyra","rank":3,"kind":"city"},"geometry":{"type":"Point","coordinates":[32.854,39.933]}},{"type":"Feature","properties":{"ko":"페시누스","en":"Pessinus","rank":5,"kind":"city"},"geometry":{"type":"Point","coordinates":[31.58,39.33]}},{"type":"Feature","properties":{"ko":"타비움","en":"Tavium","rank":5,"kind":"city"},"geometry":{"type":"Point","coordinates":[34.6,39.85]}},{"type":"Feature","properties":{"ko":"이수스","en":"Issus","rank":5,"kind":"city"},"geometry":{"type":"Point","coordinates":[36.2,36.85]}},{"type":"Feature","properties":{"ko":"소리","en":"Soli","rank":5,"kind":"city"},"geometry":{"type":"Point","coordinates":[34.14,36.75]}},{"type":"Feature","properties":{"ko":"사모사타","en":"Samosata","rank":4,"kind":"city"},"geometry":{"type":"Point","coordinates":[38.5,37.53]}},{"type":"Feature","properties":{"ko":"아파메아(브루기아)","en":"Apamea (Phrygia)","rank":5,"kind":"city"},"geometry":{"type":"Point","coordinates":[30.17,38.08]}},{"type":"Feature","properties":{"ko":"람프사쿠스","en":"Lampsacus","rank":5,"kind":"city"},"geometry":{"type":"Point","coordinates":[26.69,40.348]}},{"type":"Feature","properties":{"ko":"시지쿠스","en":"Cyzicus","rank":4,"kind":"city"},"geometry":{"type":"Point","coordinates":[27.88,40.38]}},{"type":"Feature","properties":{"ko":"칼케돈","en":"Chalcedon","rank":5,"kind":"city"},"geometry":{"type":"Point","coordinates":[29.02,40.99]}},{"type":"Feature","properties":{"ko":"헤라클레아","en":"Heraclea Pontica","rank":4,"kind":"city"},"geometry":{"type":"Point","coordinates":[31.415,41.29]}},{"type":"Feature","properties":{"ko":"아미수스","en":"Amisus","rank":4,"kind":"city"},"geometry":{"type":"Point","coordinates":[36.33,41.29]}},{"type":"Feature","properties":{"ko":"트라페주스","en":"Trapezus","rank":3,"kind":"city"},"geometry":{"type":"Point","coordinates":[39.72,41.0]}},{"type":"Feature","properties":{"ko":"라리사","en":"Larissa","rank":4,"kind":"city"},"geometry":{"type":"Point","coordinates":[22.418,39.639]}},{"type":"Feature","properties":{"ko":"테베","en":"Thebes","rank":4,"kind":"city"},"geometry":{"type":"Point","coordinates":[23.318,38.322]}},{"type":"Feature","properties":{"ko":"아르고스","en":"Argos","rank":4,"kind":"city"},"geometry":{"type":"Point","coordinates":[22.719,37.63]}},{"type":"Feature","properties":{"ko":"파트라이","en":"Patrae","rank":3,"kind":"harbour"},"geometry":{"type":"Point","coordinates":[21.735,38.246]}},{"type":"Feature","properties":{"ko":"올림피아","en":"Olympia","rank":4,"kind":"town"},"geometry":{"type":"Point","coordinates":[21.63,37.638]}},{"type":"Feature","properties":{"ko":"델로스","en":"Delos","rank":4,"kind":"island"},"geometry":{"type":"Point","coordinates":[25.268,37.393]}},{"type":"Feature","properties":{"ko":"나폴리","en":"Neapolis (Italy)","rank":5,"kind":"city"},"geometry":{"type":"Point","coordinates":[14.25,40.85]}},{"type":"Feature","properties":{"ko":"오스티아","en":"Ostia","rank":4,"kind":"harbour"},"geometry":{"type":"Point","coordinates":[12.29,41.755]}},{"type":"Feature","properties":{"ko":"카푸아","en":"Capua","rank":5,"kind":"city"},"geometry":{"type":"Point","coordinates":[14.213,41.085]}},{"type":"Feature","properties":{"ko":"펠루시움","en":"Pelusium","rank":4,"kind":"city"},"geometry":{"type":"Point","coordinates":[32.54,31.04]}},{"type":"Feature","properties":{"ko":"살라미","en":"Salamis","rank":4,"kind":"city"},"geometry":{"type":"Point","coordinates":[33.906,35.183]}},{"type":"Feature","properties":{"ko":"바보","en":"Paphos","rank":4,"kind":"city"},"geometry":{"type":"Point","coordinates":[32.406,34.757]}},{"type":"Feature","properties":{"ko":"미둘레네","en":"Mitylene","rank":4,"kind":"harbour"},"geometry":{"type":"Point","coordinates":[26.554,39.106]}},{"type":"Feature","properties":{"ko":"살모네","en":"Salmone","rank":5,"kind":"harbour"},"geometry":{"type":"Point","coordinates":[26.3,35.19]}},{"type":"Feature","properties":{"ko":"미항","en":"Fair Havens","rank":4,"kind":"harbour"},"geometry":{"type":"Point","coordinates":[24.806,34.931]}},{"type":"Feature","properties":{"ko":"라새아","en":"Lasea","rank":5,"kind":"town"},"geometry":{"type":"Point","coordinates":[24.85,34.9]}},{"type":"Feature","properties":{"ko":"뵈닉스","en":"Phoenix","rank":5,"kind":"harbour"},"geometry":{"type":"Point","coordinates":[24.075,35.196]}},{"type":"Feature","properties":{"ko":"아레오바고","en":"Areopagus","rank":5,"kind":"landmark"},"geometry":{"type":"Point","coordinates":[23.7245,37.9723]}}]}