{"type":"FeatureCollection","features":[{"type":"Feature","properties":{"ko":"가나안","en":"Canaan","rank":1,"kind":"region"},"geometry":{"type":"Point","coordinates":[34.96,31.99]}},{"type":"Feature","properties":{"ko":"이스라엘","en":"Israel","rank":1,"kind":"region"},"geometry":{"type":"Point","coordinates":[35.36,32.48]}},{"type":"Feature","properties":{"ko":"유다","en":"Judah","rank":1,"kind":"region"},"geometry":{"type":"Point","coordinates":[34.96,31.54]}},{"type":"Feature","properties":{"ko":"베냐민","en":"Benjamin","rank":3,"kind":"region"},"geometry":{"type":"Point","coordinates":[35.08,31.86]}},{"type":"Feature","properties":{"ko":"에브라임 산지","en":"Hill Country of Ephraim","rank":3,"kind":"region"},"geometry":{"type":"Point","coordinates":[35.34,32.16]}},{"type":"Feature","properties":{"ko":"갈릴리","en":"Galilee","rank":2,"kind":"region"},"geometry":{"type":"Point","coordinates":[35.1,32.98]}},{"type":"Feature","properties":{"ko":"사마리아","en":"Samaria","rank":2,"kind":"region"},"geometry":{"type":"Point","coordinates":[34.98,32.3]}},{"type":"Feature","properties":{"ko":"길르앗","en":"Gilead","rank":2,"kind":"region"},"geometry":{"type":"Point","coordinates":[35.78,32.3]}},{"type":"Feature","properties":{"ko":"바산","en":"Bashan","rank":2,"kind":"region"},"geometry":{"type":"Point","coordinates":[36.15,32.85]}},{"type":"Feature","properties":{"ko":"사론","en":"Sharon","rank":3,"kind":"region"},"geometry":{"type":"Point","coordinates":[34.85,32.35]}},{"type":"Feature","properties":{"ko":"세벨라","en":"Shephelah","rank":3,"kind":"region"},"geometry":{"type":"Point","coordinates":[34.86,31.7]}},{"type":"Feature","properties":{"ko":"네게브","en":"Negev","rank":2,"kind":"region"},"geometry":{"type":"Point","coordinates":[34.9,30.9]}},{"type":"Feature","properties":{"ko":"아라바","en":"Arabah","rank":3,"kind":"region"},"geometry":{"type":"Point","coordinates":[35.3,30.6]}},{"type":"Feature","properties":{"ko":"유다 광야","en":"Wilderness of Judah","rank":3,"kind":"region"},"geometry":{"type":"Point","coordinates":[35.38,31.47]}},{"type":"Feature","properties":{"ko":"블레셋","en":"Philistia","rank":2,"kind":"region"},"geometry":{"type":"Point","coordinates":[34.58,31.58]}},{"type":"Feature","properties":{"ko":"암몬","en":"Ammon","rank":2,"kind":"region"},"geometry":{"type":"Point","coordinates":[35.95,31.98]}},{"type":"Feature","properties":{"ko":"모압","en":"Moab","rank":2,"kind":"region"},"geometry":{"type":"Point","coordinates":[35.78,31.35]}},{"type":"Feature","properties":{"ko":"에돔","en":"Edom","rank":2,"kind":"region"},"geometry":{"type":"Point","coordinates":[35.45,30.45]}},{"type":"Feature","properties":{"ko":"미디안","en":"Midian","rank":2,"kind":"region"},"geometry":{"type":"Point","coordinates":[35.6,28.4]}},{"type":"Feature","properties":{"ko":"아말렉","en":"Amalek","rank":3,"kind":"region"},"geometry":{"type":"Point","coordinates":[34.75,30.45]}},{"type":"Feature","properties":{"ko":"아람","en":"Aram","rank":1,"kind":"region"},"geometry":{"type":"Point","coordinates":[37.1,34.5]}},{"type":"Feature","properties":{"ko":"소바","en":"Zobah","rank":3,"kind":"region"},"geometry":{"type":"Point","coordinates":[36.4,34.2]}},{"type":"Feature","properties":{"ko":"하맛 땅","en":"Land of Hamath","rank":3,"kind":"region"},"geometry":{"type":"Point","coordinates":[36.9,35.3]}},{"type":"Feature","properties":{"ko":"레바논","en":"Lebanon","rank":2,"kind":"region"},"geometry":{"type":"Point","coordinates":[35.9,34.3]}},{"type":"Feature","properties":{"ko":"앗수르","en":"Assyria","rank":1,"kind":"region"},"geometry":{"type":"Point","coordinates":[43.2,36.4]}},{"type":"Feature","properties":{"ko":"바벨로니아","en":"Babylonia","rank":1,"kind":"region"},"geometry":{"type":"Point","coordinates":[44.6,32.1]}},{"type":"Feature","properties":{"ko":"갈대아","en":"Chaldea","rank":2,"kind":"region"},"geometry":{"type":"Point","coordinates":[45.6,31.0]}},{"type":"Feature","properties":{"ko":"시날","en":"Shinar","rank":2,"kind":"region"},"geometry":{"type":"Point","coordinates":[44.5,32.6]}},{"type":"Feature","properties":{"ko":"엘람","en":"Elam","rank":2,"kind":"region"},"geometry":{"type":"Point","coordinates":[48.5,31.6]}},{"type":"Feature","properties":{"ko":"메대","en":"Media","rank":2,"kind":"region"},"geometry":{"type":"Point","coordinates":[49.0,35.6]}},{"type":"Feature","properties":{"ko":"바사","en":"Persia","rank":1,"kind":"region"},"geometry":{"type":"Point","coordinates":[53.0,30.5]}},{"type":"Feature","properties":{"ko":"밧단아람","en":"Paddan-aram","rank":3,"kind":"region"},"geometry":{"type":"Point","coordinates":[39.2,36.9]}},{"type":"Feature","properties":{"ko":"애굽","en":"Egypt","rank":1,"kind":"region"},"geometry":{"type":"Point","coordinates":[30.8,27.2]}},{"type":"Feature","properties":{"ko":"고센","en":"Goshen","rank":3,"kind":"region"},"geometry":{"type":"Point","coordinates":[31.8,30.7]}},{"type":"Feature","properties":{"ko":"밧드로스","en":"Pathros","rank":3,"kind":"region"},"geometry":{"type":"Point","coordinates":[32.2,26.2]}},{"type":"Feature","properties":{"ko":"구스","en":"Cush","rank":1,"kind":"region"},"geometry":{"type":"Point","coordinates":[32.5,18.0]}},{"type":"Feature","properties":{"ko":"붓","en":"Put","rank":3,"kind":"region"},"geometry":{"type":"Point","coordinates":[18.0,29.0]}},{"type":"Feature","properties":{"ko":"스바","en":"Sheba","rank":2,"kind":"region"},"geometry":{"type":"Point","coordinates":[45.0,15.5]}},{"type":"Feature","properties":{"ko":"오빌","en":"Ophir","rank":3,"kind":"region"},"geometry":{"type":"Point","coordinates":[43.0,13.0]}},{"type":"Feature","properties":{"ko":"야완","en":"Javan","rank":2,"kind":"region"},"geometry":{"type":"Point","coordinates":[23.5,38.5]}},{"type":"Feature","properties":{"ko":"깃딤","en":"Kittim","rank":3,"kind":"region"},"geometry":{"type":"Point","coordinates":[33.2,35.05]}},{"type":"Feature","properties":{"ko":"다시스","en":"Tarshish","rank":2,"kind":"region"},"geometry":{"type":"Point","coordinates":[-6.0,37.0]}},{"type":"Feature","properties":{"ko":"두발","en":"Tubal","rank":3,"kind":"region"},"geometry":{"type":"Point","coordinates":[36.0,39.5]}},{"type":"Feature","properties":{"ko":"메섹","en":"Meshech","rank":3,"kind":"region"},"geometry":{"type":"Point","coordinates":[34.5,40.5]}},{"type":"Feature","properties":{"ko":"고멜","en":"Gomer","rank":3,"kind":"region"},"geometry":{"type":"Point","coordinates":[35.0,41.5]}},{"type":"Feature","properties":{"ko":"마곡","en":"Magog","rank":3,"kind":"region"},"geometry":{"type":"Point","coordinates":[45.0,42.0]}},{"type":"Feature","properties":{"ko":"도갈마","en":"Togarmah","rank":3,"kind":"region"},"geometry":{"type":"Point","coordinates":[39.0,39.5]}},{"type":"Feature","properties":{"ko":"에덴","en":"Eden","rank":2,"kind":"region"},"geometry":{"type":"Point","coordinates":[47.5,31.2]}},{"type":"Feature","properties":{"ko":"신 광야","en":"Wilderness of Zin","rank":4,"kind":"region"},"geometry":{"type":"Point","coordinates":[34.9,30.7]}},{"type":"Feature","properties":{"ko":"바란 광야","en":"Wilderness of Paran","rank":3,"kind":"region"},"geometry":{"type":"Point","coordinates":[34.3,29.8]}},{"type":"Feature","properties":{"ko":"술 광야","en":"Wilderness of Shur","rank":4,"kind":"region"},"geometry":{"type":"Point","coordinates":[33.5,30.5]}},{"type":"Feature","properties":{"ko":"시내 광야","en":"Wilderness of Sinai","rank":3,"kind":"region"},"geometry":{"type":"Point","coordinates":[33.9,28.8]}},{"type":"Feature","properties":{"ko":"모압 평지","en":"Plains of Moab","rank":4,"kind":"region"},"geometry":{"type":"Point","coordinates":[35.62,31.86]}},{"type":"Feature","properties":{"ko":"세일산 지방","en":"Mt. Seir","rank":3,"kind":"region"},"geometry":{"type":"Point","coordinates":[35.42,30.5]}},{"type":"Feature","properties":{"ko":"대해","en":"Great Sea","rank":1,"kind":"water"},"geometry":{"type":"Point","coordinates":[31.0,33.8]}},{"type":"Feature","properties":{"ko":"염해","en":"Salt Sea","rank":2,"kind":"water"},"geometry":{"type":"Point","coordinates":[35.47,31.5]}},{"type":"Feature","properties":{"ko":"긴네렛 바다","en":"Sea of Chinnereth","rank":2,"kind":"water"},"geometry":{"type":"Point","coordinates":[35.578,32.742]}},{"type":"Feature","properties":{"ko":"홍해","en":"Red Sea","rank":2,"kind":"water"},"geometry":{"type":"Point","coordinates":[36.5,24.5]}},{"type":"Feature","properties":{"ko":"요단강","en":"Jordan River","rank":2,"kind":"water"},"geometry":{"type":"Point","coordinates":[35.56,32.3]}},{"type":"Feature","properties":{"ko":"유브라데강","en":"Euphrates","rank":1,"kind":"water"},"geometry":{"type":"Point","coordinates":[40.2,35.4]}},{"type":"Feature","properties":{"ko":"힛데겔강","en":"Tigris","rank":1,"kind":"water"},"geometry":{"type":"Point","coordinates":[43.5,35.0]}},{"type":"Feature","properties":{"ko":"나일강","en":"Nile","rank":1,"kind":"water"},"geometry":{"type":"Point","coordinates":[31.1,27.3]}},{"type":"Feature","properties":{"ko":"아르논강","en":"Arnon","rank":4,"kind":"water"},"geometry":{"type":"Point","coordinates":[35.6,31.45]}},{"type":"Feature","properties":{"ko":"얍복강","en":"Jabbok","rank":4,"kind":"water"},"geometry":{"type":"Point","coordinates":[35.62,32.1]}},{"type":"Feature","properties":{"ko":"기손강","en":"Kishon","rank":4,"kind":"water"},"geometry":{"type":"Point","coordinates":[35.1,32.75]}},{"type":"Feature","properties":{"ko":"브솔 시내","en":"Brook Besor","rank":5,"kind":"water"},"geometry":{"type":"Point","coordinates":[34.55,31.3]}},{"type":"Feature","properties":{"ko":"그릿 시내","en":"Brook Cherith","rank":5,"kind":"water"},"geometry":{"type":"Point","coordinates":[35.55,32.05]}},{"type":"Feature","properties":{"ko":"그발강","en":"Chebar","rank":4,"kind":"water"},"geometry":{"type":"Point","coordinates":[44.4,32.3]}},{"type":"Feature","properties":{"ko":"아하와 강","en":"Ahava","rank":5,"kind":"water"},"geometry":{"type":"Point","coordinates":[44.0,33.0]}},{"type":"Feature","properties":{"ko":"시내산","en":"Mt. Sinai","rank":1,"kind":"mountain"},"geometry":{"type":"Point","coordinates":[33.975,28.539]}},{"type":"Feature","properties":{"ko":"호렙산","en":"Mt. Horeb","rank":5,"kind":"mountain"},"geometry":{"type":"Point","coordinates":[33.96,28.56]}},{"type":"Feature","properties":{"ko":"느보산","en":"Mt. Nebo","rank":4,"kind":"mountain"},"geometry":{"type":"Point","coordinates":[35.725,31.768]}},{"type":"Feature","properties":{"ko":"비스가산","en":"Pisgah","rank":5,"kind":"mountain"},"geometry":{"type":"Point","coordinates":[35.735,31.772]}},{"type":"Feature","properties":{"ko":"호르산","en":"Mt. Hor","rank":4,"kind":"mountain"},"geometry":{"type":"Point","coordinates":[35.41,30.32]}},{"type":"Feature","properties":{"ko":"갈멜산","en":"Mt. Carmel","rank":3,"kind":"mountain"},"geometry":{"type":"Point","coordinates":[35.03,32.73]}},{"type":"Feature","properties":{"ko":"다볼산","en":"Mt. Tabor","rank":4,"kind":"mountain"},"geometry":{"type":"Point","coordinates":[35.39,32.687]}},{"type":"Feature","properties":{"ko":"길보아산","en":"Mt. Gilboa","rank":5,"kind":"mountain"},"geometry":{"type":"Point","coordinates":[35.4,32.51]}},{"type":"Feature","properties":{"ko":"헤르몬산","en":"Mt. Hermon","rank":3,"kind":"mountain"},"geometry":{"type":"Point","coordinates":[35.857,33.416]}},{"type":"Feature","properties":{"ko":"에발산","en":"Mt. Ebal","rank":5,"kind":"mountain"},"geometry":{"type":"Point","coordinates":[35.27,32.235]}},{"type":"Feature","properties":{"ko":"그리심산","en":"Mt. Gerizim","rank":5,"kind":"mountain"},"geometry":{"type":"Point","coordinates":[35.273,32.2]}},{"type":"Feature","properties":{"ko":"모리아산","en":"Mt. Moriah","rank":5,"kind":"mountain"},"geometry":{"type":"Point","coordinates":[35.2354,31.778]}},{"type":"Feature","properties":{"ko":"시온산","en":"Mount Zion","rank":5,"kind":"mountain"},"geometry":{"type":"Point","coordinates":[35.228,31.771]}},{"type":"Feature","properties":{"ko":"감람산","en":"Mount of Olives","rank":5,"kind":"mountain"},"geometry":{"type":"Point","coordinates":[35.245,31.778]}},{"type":"Feature","properties":{"ko":"아라랏산","en":"Mt. Ararat","rank":2,"kind":"mountain"},"geometry":{"type":"Point","coordinates":[44.3,39.7]}},{"type":"Feature","properties":{"ko":"우르","en":"Ur","rank":1,"kind":"city"},"geometry":{"type":"Point","coordinates":[46.103,30.962]}},{"type":"Feature","properties":{"ko":"하란","en":"Haran","rank":1,"kind":"city"},"geometry":{"type":"Point","coordinates":[39.03,36.86]}},{"type":"Feature","properties":{"ko":"바벨","en":"Babel","rank":2,"kind":"city"},"geometry":{"type":"Point","coordinates":[44.42,32.54]}},{"type":"Feature","properties":{"ko":"세겜","en":"Shechem","rank":5,"kind":"city"},"geometry":{"type":"Point","coordinates":[35.283,32.213]}},{"type":"Feature","properties":{"ko":"벧엘","en":"Bethel","rank":5,"kind":"town"},"geometry":{"type":"Point","coordinates":[35.22,31.93]}},{"type":"Feature","properties":{"ko":"헤브론","en":"Hebron","rank":5,"kind":"city"},"geometry":{"type":"Point","coordinates":[35.0998,31.5326]}},{"type":"Feature","properties":{"ko":"브엘세바","en":"Beersheba","rank":3,"kind":"city"},"geometry":{"type":"Point","coordinates":[34.79,31.25]}},{"type":"Feature","properties":{"ko":"소돔","en":"Sodom","rank":3,"kind":"city"},"geometry":{"type":"Point","coordinates":[35.4,31.1]}},{"type":"Feature","properties":{"ko":"고모라","en":"Gomorrah","rank":5,"kind":"city"},"geometry":{"type":"Point","coordinates":[35.42,31.05]}},{"type":"Feature","properties":{"ko":"소알","en":"Zoar","rank":5,"kind":"town"},"geometry":{"type":"Point","coordinates":[35.5,31.05]}},{"type":"Feature","properties":{"ko":"그랄","en":"Gerar","rank":4,"kind":"city"},"geometry":{"type":"Point","coordinates":[34.55,31.4]}},{"type":"Feature","properties":{"ko":"도단","en":"Dothan","rank":5,"kind":"town"},"geometry":{"type":"Point","coordinates":[35.2,32.42]}},{"type":"Feature","properties":{"ko":"마므레","en":"Mamre","rank":5,"kind":"village"},"geometry":{"type":"Point","coordinates":[35.1,31.55]}},{"type":"Feature","properties":{"ko":"브니엘","en":"Peniel","rank":5,"kind":"town"},"geometry":{"type":"Point","coordinates":[35.65,32.19]}},{"type":"Feature","properties":{"ko":"마하나임","en":"Mahanaim","rank":5,"kind":"town"},"geometry":{"type":"Point","coordinates":[35.68,32.2]}},{"type":"Feature","properties":{"ko":"막벨라","en":"Machpelah","rank":5,"kind":"landmark"},"geometry":{"type":"Point","coordinates":[35.11,31.525]}},{"type":"Feature","properties":{"ko":"온","en":"On (Heliopolis)","rank":3,"kind":"city"},"geometry":{"type":"Point","coordinates":[31.29,30.13]}},{"type":"Feature","properties":{"ko":"라암셋","en":"Rameses","rank":5,"kind":"city"},"geometry":{"type":"Point","coordinates":[31.83,30.8]}},{"type":"Feature","properties":{"ko":"비돔","en":"Pithom","rank":4,"kind":"city"},"geometry":{"type":"Point","coordinates":[31.85,30.55]}},{"type":"Feature","properties":{"ko":"숙곳(애굽)","en":"Succoth (Egypt)","rank":4,"kind":"town"},"geometry":{"type":"Point","coordinates":[32.1,30.55]}},{"type":"Feature","properties":{"ko":"에담","en":"Etham","rank":5,"kind":"town"},"geometry":{"type":"Point","coordinates":[32.35,30.35]}},{"type":"Feature","properties":{"ko":"비하히롯","en":"Pi-hahiroth","rank":5,"kind":"town"},"geometry":{"type":"Point","coordinates":[32.55,30.1]}},{"type":"Feature","properties":{"ko":"믹돌","en":"Migdol","rank":5,"kind":"fort"},"geometry":{"type":"Point","coordinates":[32.6,30.3]}},{"type":"Feature","properties":{"ko":"바알스본","en":"Baal-zephon","rank":5,"kind":"town"},"geometry":{"type":"Point","coordinates":[32.6,30.05]}},{"type":"Feature","properties":{"ko":"마라","en":"Marah","rank":4,"kind":"town"},"geometry":{"type":"Point","coordinates":[33.05,29.45]}},{"type":"Feature","properties":{"ko":"엘림","en":"Elim","rank":4,"kind":"town"},"geometry":{"type":"Point","coordinates":[33.1,29.2]}},{"type":"Feature","properties":{"ko":"르비딤","en":"Rephidim","rank":5,"kind":"town"},"geometry":{"type":"Point","coordinates":[33.9,28.72]}},{"type":"Feature","properties":{"ko":"다베라","en":"Taberah","rank":5,"kind":"town"},"geometry":{"type":"Point","coordinates":[34.05,28.8]}},{"type":"Feature","properties":{"ko":"기브롯 핫다아와","en":"Kibroth-hattaavah","rank":5,"kind":"town"},"geometry":{"type":"Point","coordinates":[34.1,28.9]}},{"type":"Feature","properties":{"ko":"하세롯","en":"Hazeroth","rank":5,"kind":"town"},"geometry":{"type":"Point","coordinates":[34.4,29.1]}},{"type":"Feature","properties":{"ko":"가데스 바네아","en":"Kadesh-barnea","rank":3,"kind":"town"},"geometry":{"type":"Point","coordinates":[34.5,30.68]}},{"type":"Feature","properties":{"ko":"에시온게벨","en":"Ezion-geber","rank":3,"kind":"harbour"},"geometry":{"type":"Point","coordinates":[35.0,29.55]}},{"type":"Feature","properties":{"ko":"엘랏","en":"Elath","rank":5,"kind":"harbour"},"geometry":{"type":"Point","coordinates":[34.95,29.55]}},{"type":"Feature","properties":{"ko":"오봇","en":"Oboth","rank":5,"kind":"town"},"geometry":{"type":"Point","coordinates":[35.35,30.6]}},{"type":"Feature","properties":{"ko":"아바림","en":"Abarim","rank":5,"kind":"mountain"},"geometry":{"type":"Point","coordinates":[35.7,31.75]}},{"type":"Feature","properties":{"ko":"여리고","en":"Jericho","rank":4,"kind":"city"},"geometry":{"type":"Point","coordinates":[35.4443,31.857]}},{"type":"Feature","properties":{"ko":"아이","en":"Ai","rank":5,"kind":"town"},"geometry":{"type":"Point","coordinates":[35.26,31.92]}},{"type":"Feature","properties":{"ko":"길갈","en":"Gilgal","rank":5,"kind":"town"},"geometry":{"type":"Point","coordinates":[35.5,31.87]}},{"type":"Feature","properties":{"ko":"기브온","en":"Gibeon","rank":5,"kind":"town"},"geometry":{"type":"Point","coordinates":[35.184,31.846]}},{"type":"Feature","properties":{"ko":"아얄론","en":"Aijalon","rank":5,"kind":"town"},"geometry":{"type":"Point","coordinates":[35.02,31.85]}},{"type":"Feature","properties":{"ko":"벧호론","en":"Beth Horon","rank":5,"kind":"town"},"geometry":{"type":"Point","coordinates":[35.12,31.88]}},{"type":"Feature","properties":{"ko":"라기스","en":"Lachish","rank":4,"kind":"city"},"geometry":{"type":"Point","coordinates":[34.849,31.565]}},{"type":"Feature","properties":{"ko":"에글론","en":"Eglon","rank":5,"kind":"city"},"geometry":{"type":"Point","coordinates":[34.78,31.55]}},{"type":"Feature","properties":{"ko":"드빌","en":"Debir","rank":4,"kind":"town"},"geometry":{"type":"Point","coordinates":[34.98,31.42]}},{"type":"Feature","properties":{"ko":"립나","en":"Libnah","rank":5,"kind":"town"},"geometry":{"type":"Point","coordinates":[34.87,31.65]}},{"type":"Feature","properties":{"ko":"막게다","en":"Makkedah","rank":5,"kind":"town"},"geometry":{"type":"Point","coordinates":[34.9,31.68]}},{"type":"Feature","properties":{"ko":"야르뭇","en":"Jarmuth","rank":5,"kind":"town"},"geometry":{"type":"Point","coordinates":[34.97,31.72]}},{"type":"Feature","properties":{"ko":"아세가","en":"Azekah","rank":5,"kind":"town"},"geometry":{"type":"Point","coordinates":[34.94,31.7]}},{"type":"Feature","properties":{"ko":"소고","en":"Socoh","rank":5,"kind":"town"},"geometry":{"type":"Point","coordinates":[34.98,31.68]}},{"type":"Feature","properties":{"ko":"하솔","en":"Hazor","rank":3,"kind":"city"},"geometry":{"type":"Point","coordinates":[35.568,33.017]}},{"type":"Feature","properties":{"ko":"메롬","en":"Merom","rank":4,"kind":"town"},"geometry":{"type":"Point","coordinates":[35.42,32.93]}},{"type":"Feature","properties":{"ko":"다아낙","en":"Taanach","rank":5,"kind":"city"},"geometry":{"type":"Point","coordinates":[35.22,32.53]}},{"type":"Feature","properties":{"ko":"므깃도","en":"Megiddo","rank":4,"kind":"city"},"geometry":{"type":"Point","coordinates":[35.183,32.585]}},{"type":"Feature","properties":{"ko":"벧산","en":"Beth Shean","rank":4,"kind":"city"},"geometry":{"type":"Point","coordinates":[35.5,32.5]}},{"type":"Feature","properties":{"ko":"아벡","en":"Aphek","rank":4,"kind":"city"},"geometry":{"type":"Point","coordinates":[34.93,32.1]}},{"type":"Feature","properties":{"ko":"실로","en":"Shiloh","rank":5,"kind":"town"},"geometry":{"type":"Point","coordinates":[35.29,32.056]}},{"type":"Feature","properties":{"ko":"게데스","en":"Kedesh","rank":5,"kind":"city"},"geometry":{"type":"Point","coordinates":[35.53,33.11]}},{"type":"Feature","properties":{"ko":"아벨벧마아가","en":"Abel-beth-maacah","rank":5,"kind":"city"},"geometry":{"type":"Point","coordinates":[35.61,33.26]}},{"type":"Feature","properties":{"ko":"기럇여아림","en":"Kiriath-jearim","rank":5,"kind":"town"},"geometry":{"type":"Point","coordinates":[35.1,31.81]}},{"type":"Feature","properties":{"ko":"벧세메스","en":"Beth Shemesh","rank":5,"kind":"town"},"geometry":{"type":"Point","coordinates":[34.975,31.751]}},{"type":"Feature","properties":{"ko":"딤나","en":"Timnah","rank":5,"kind":"town"},"geometry":{"type":"Point","coordinates":[34.93,31.78]}},{"type":"Feature","properties":{"ko":"소라","en":"Zorah","rank":5,"kind":"town"},"geometry":{"type":"Point","coordinates":[34.98,31.77]}},{"type":"Feature","properties":{"ko":"에스다올","en":"Eshtaol","rank":5,"kind":"town"},"geometry":{"type":"Point","coordinates":[35.0,31.79]}},{"type":"Feature","properties":{"ko":"오브라","en":"Ophrah","rank":5,"kind":"town"},"geometry":{"type":"Point","coordinates":[35.35,32.6]}},{"type":"Feature","properties":{"ko":"라마","en":"Ramah","rank":5,"kind":"town"},"geometry":{"type":"Point","coordinates":[35.215,31.897]}},{"type":"Feature","properties":{"ko":"미스바","en":"Mizpah","rank":5,"kind":"town"},"geometry":{"type":"Point","coordinates":[35.22,31.88]}},{"type":"Feature","properties":{"ko":"기브아","en":"Gibeah","rank":5,"kind":"town"},"geometry":{"type":"Point","coordinates":[35.232,31.824]}},{"type":"Feature","properties":{"ko":"놉","en":"Nob","rank":5,"kind":"town"},"geometry":{"type":"Point","coordinates":[35.24,31.8]}},{"type":"Feature","properties":{"ko":"단","en":"Dan","rank":4,"kind":"city"},"geometry":{"type":"Point","coordinates":[35.652,33.249]}},{"type":"Feature","properties":{"ko":"수넴","en":"Shunem","rank":5,"kind":"town"},"geometry":{"type":"Point","coordinates":[35.34,32.6]}},{"type":"Feature","properties":{"ko":"에느돌","en":"En-dor","rank":5,"kind":"town"},"geometry":{"type":"Point","coordinates":[35.4,32.63]}},{"type":"Feature","properties":{"ko":"가사","en":"Gaza","rank":5,"kind":"city"},"geometry":{"type":"Point","coordinates":[34.47,31.5]}},{"type":"Feature","properties":{"ko":"아스글론","en":"Ashkelon","rank":5,"kind":"city"},"geometry":{"type":"Point","coordinates":[34.55,31.66]}},{"type":"Feature","properties":{"ko":"아스돗","en":"Ashdod","rank":3,"kind":"city"},"geometry":{"type":"Point","coordinates":[34.65,31.8]}},{"type":"Feature","properties":{"ko":"에그론","en":"Ekron","rank":5,"kind":"city"},"geometry":{"type":"Point","coordinates":[34.85,31.78]}},{"type":"Feature","properties":{"ko":"가드","en":"Gath","rank":5,"kind":"city"},"geometry":{"type":"Point","coordinates":[34.85,31.7]}},{"type":"Feature","properties":{"ko":"예루살렘","en":"Jerusalem","rank":3,"kind":"city"},"geometry":{"type":"Point","coordinates":[35.2354,31.7784]}},{"type":"Feature","properties":{"ko":"기혼 샘","en":"Gihon Spring","rank":5,"kind":"landmark"},"geometry":{"type":"Point","coordinates":[35.236,31.774]}},{"type":"Feature","properties":{"ko":"실로암","en":"Siloam","rank":5,"kind":"landmark"},"geometry":{"type":"Point","coordinates":[35.235,31.771]}},{"type":"Feature","properties":{"ko":"시글락","en":"Ziklag","rank":5,"kind":"town"},"geometry":{"type":"Point","coordinates":[34.72,31.35]}},{"type":"Feature","properties":{"ko":"아둘람","en":"Adullam","rank":5,"kind":"town"},"geometry":{"type":"Point","coordinates":[34.99,31.65]}},{"type":"Feature","properties":{"ko":"그일라","en":"Keilah","rank":5,"kind":"town"},"geometry":{"type":"Point","coordinates":[34.99,31.61]}},{"type":"Feature","properties":{"ko":"십","en":"Ziph","rank":5,"kind":"town"},"geometry":{"type":"Point","coordinates":[35.13,31.45]}},{"type":"Feature","properties":{"ko":"마온","en":"Maon","rank":5,"kind":"town"},"geometry":{"type":"Point","coordinates":[35.13,31.41]}},{"type":"Feature","properties":{"ko":"엔게디","en":"En Gedi","rank":5,"kind":"town"},"geometry":{"type":"Point","coordinates":[35.39,31.46]}},{"type":"Feature","properties":{"ko":"야베스 길르앗","en":"Jabesh-gilead","rank":4,"kind":"town"},"geometry":{"type":"Point","coordinates":[35.66,32.42]}},{"type":"Feature","properties":{"ko":"랍바","en":"Rabbah","rank":5,"kind":"city"},"geometry":{"type":"Point","coordinates":[35.933,31.95]}},{"type":"Feature","properties":{"ko":"게셀","en":"Gezer","rank":4,"kind":"city"},"geometry":{"type":"Point","coordinates":[34.92,31.86]}},{"type":"Feature","properties":{"ko":"다말","en":"Tamar","rank":5,"kind":"fort"},"geometry":{"type":"Point","coordinates":[35.3,30.95]}},{"type":"Feature","properties":{"ko":"사르밧","en":"Zarephath","rank":4,"kind":"town"},"geometry":{"type":"Point","coordinates":[35.29,33.45]}},{"type":"Feature","properties":{"ko":"아벨므홀라","en":"Abel-meholah","rank":5,"kind":"town"},"geometry":{"type":"Point","coordinates":[35.53,32.35]}},{"type":"Feature","properties":{"ko":"사르단","en":"Zarethan","rank":5,"kind":"town"},"geometry":{"type":"Point","coordinates":[35.55,32.15]}},{"type":"Feature","properties":{"ko":"숙곳(요단)","en":"Succoth (Jordan)","rank":5,"kind":"town"},"geometry":{"type":"Point","coordinates":[35.62,32.2]}},{"type":"Feature","properties":{"ko":"디르사","en":"Tirzah","rank":5,"kind":"city"},"geometry":{"type":"Point","coordinates":[35.32,32.28]}},{"type":"Feature","properties":{"ko":"사마리아(성)","en":"Samaria (city)","rank":4,"kind":"city"},"geometry":{"type":"Point","coordinates":[35.195,32.28]}},{"type":"Feature","properties":{"ko":"이스르엘","en":"Jezreel","rank":4,"kind":"city"},"geometry":{"type":"Point","coordinates":[35.33,32.558]}},{"type":"Feature","properties":{"ko":"라못길르앗","en":"Ramoth-gilead","rank":4,"kind":"city"},"geometry":{"type":"Point","coordinates":[35.85,32.55]}},{"type":"Feature","properties":{"ko":"두로","en":"Tyre","rank":2,"kind":"city"},"geometry":{"type":"Point","coordinates":[35.2038,33.2705]}},{"type":"Feature","properties":{"ko":"시돈","en":"Sidon","rank":1,"kind":"city"},"geometry":{"type":"Point","coordinates":[35.369,33.563]}},{"type":"Feature","properties":{"ko":"그발","en":"Gebal (Byblos)","rank":4,"kind":"city"},"geometry":{"type":"Point","coordinates":[35.648,34.12]}},{"type":"Feature","properties":{"ko":"아르왓","en":"Arvad","rank":4,"kind":"island"},"geometry":{"type":"Point","coordinates":[35.85,34.856]}},{"type":"Feature","properties":{"ko":"다메섹","en":"Damascus","rank":2,"kind":"city"},"geometry":{"type":"Point","coordinates":[36.2765,33.5138]}},{"type":"Feature","properties":{"ko":"하맛","en":"Hamath","rank":2,"kind":"city"},"geometry":{"type":"Point","coordinates":[36.75,35.13]}},{"type":"Feature","properties":{"ko":"아르밧","en":"Arpad","rank":3,"kind":"city"},"geometry":{"type":"Point","coordinates":[37.05,36.47]}},{"type":"Feature","properties":{"ko":"리블라","en":"Riblah","rank":4,"kind":"town"},"geometry":{"type":"Point","coordinates":[36.55,34.45]}},{"type":"Feature","properties":{"ko":"디본","en":"Dibon","rank":4,"kind":"city"},"geometry":{"type":"Point","coordinates":[35.78,31.51]}},{"type":"Feature","properties":{"ko":"아르","en":"Ar","rank":5,"kind":"city"},"geometry":{"type":"Point","coordinates":[35.75,31.3]}},{"type":"Feature","properties":{"ko":"기르하레셋","en":"Kir-hareseth","rank":4,"kind":"city"},"geometry":{"type":"Point","coordinates":[35.7,31.18]}},{"type":"Feature","properties":{"ko":"헤스본","en":"Heshbon","rank":5,"kind":"city"},"geometry":{"type":"Point","coordinates":[35.808,31.8]}},{"type":"Feature","properties":{"ko":"메드바","en":"Medeba","rank":5,"kind":"city"},"geometry":{"type":"Point","coordinates":[35.795,31.716]}},{"type":"Feature","properties":{"ko":"아로엘","en":"Aroer","rank":5,"kind":"town"},"geometry":{"type":"Point","coordinates":[35.82,31.46]}},{"type":"Feature","properties":{"ko":"야하스","en":"Jahaz","rank":5,"kind":"town"},"geometry":{"type":"Point","coordinates":[35.85,31.62]}},{"type":"Feature","properties":{"ko":"보스라","en":"Bozrah","rank":3,"kind":"city"},"geometry":{"type":"Point","coordinates":[35.62,30.74]}},{"type":"Feature","properties":{"ko":"셀라","en":"Sela","rank":4,"kind":"city"},"geometry":{"type":"Point","coordinates":[35.6,30.6]}},{"type":"Feature","properties":{"ko":"데만","en":"Teman","rank":5,"kind":"town"},"geometry":{"type":"Point","coordinates":[35.5,30.35]}},{"type":"Feature","properties":{"ko":"드단","en":"Dedan","rank":3,"kind":"city"},"geometry":{"type":"Point","coordinates":[37.92,26.62]}},{"type":"Feature","properties":{"ko":"데마","en":"Tema","rank":3,"kind":"city"},"geometry":{"type":"Point","coordinates":[38.55,27.63]}},{"type":"Feature","properties":{"ko":"니느웨","en":"Nineveh","rank":5,"kind":"city"},"geometry":{"type":"Point","coordinates":[43.152,36.359]}},{"type":"Feature","properties":{"ko":"갈라","en":"Calah","rank":3,"kind":"city"},"geometry":{"type":"Point","coordinates":[43.33,36.1]}},{"type":"Feature","properties":{"ko":"앗수르(성)","en":"Asshur","rank":2,"kind":"city"},"geometry":{"type":"Point","coordinates":[43.26,35.46]}},{"type":"Feature","properties":{"ko":"갈그미스","en":"Carchemish","rank":2,"kind":"city"},"geometry":{"type":"Point","coordinates":[38.01,36.83]}},{"type":"Feature","properties":{"ko":"바벨론","en":"Babylon","rank":5,"kind":"city"},"geometry":{"type":"Point","coordinates":[44.42,32.54]}},{"type":"Feature","properties":{"ko":"델아빕","en":"Tel-abib","rank":5,"kind":"town"},"geometry":{"type":"Point","coordinates":[44.5,32.2]}},{"type":"Feature","properties":{"ko":"수산","en":"Susa","rank":1,"kind":"city"},"geometry":{"type":"Point","coordinates":[48.26,32.19]}},{"type":"Feature","properties":{"ko":"엑바타나","en":"Ecbatana","rank":2,"kind":"city"},"geometry":{"type":"Point","coordinates":[48.515,34.799]}},{"type":"Feature","properties":{"ko":"페르세폴리스","en":"Persepolis","rank":2,"kind":"city"},"geometry":{"type":"Point","coordinates":[52.891,29.936]}},{"type":"Feature","properties":{"ko":"놉(멤피스)","en":"Noph (Memphis)","rank":2,"kind":"city"},"geometry":{"type":"Point","coordinates":[31.25,29.85]}},{"type":"Feature","properties":{"ko":"노","en":"No (Thebes)","rank":2,"kind":"city"},"geometry":{"type":"Point","coordinates":[32.64,25.72]}},{"type":"Feature","properties":{"ko":"다바네스","en":"Tahpanhes","rank":3,"kind":"city"},"geometry":{"type":"Point","coordinates":[32.16,30.86]}},{"type":"Feature","properties":{"ko":"신","en":"Sin (Pelusium)","rank":4,"kind":"city"},"geometry":{"type":"Point","coordinates":[32.54,31.04]}},{"type":"Feature","properties":{"ko":"수에네","en":"Syene","rank":3,"kind":"city"},"geometry":{"type":"Point","coordinates":[32.899,24.089]}}]}