{"type":"FeatureCollection","features":[{"type":"Feature","id":"k0","properties":{"ko":"에미쿠시산","en":"Emi Koussi","rank":3,"m":3415,"elev":"3,415 m"},"geometry":{"type":"Point","coordinates":[18.55178,19.793391]}},{"type":"Feature","id":"k1","properties":{"ko":"투브칼산","en":"Jbel Toubkal","rank":3,"m":4165,"elev":"4,165 m"},"geometry":{"type":"Point","coordinates":[-7.916134,31.062075]}},{"type":"Feature","id":"k2","properties":{"ko":"케냐산","en":"Mount Kenya","rank":2,"m":5199,"elev":"5,199 m"},"geometry":{"type":"Point","coordinates":[37.299935,-0.150072]}},{"type":"Feature","id":"k3","properties":{"ko":"킬리만자로산","en":"Mount Kilimanjaro","rank":1,"m":5895,"elev":"5,895 m"},"geometry":{"type":"Point","coordinates":[37.353252,-3.075715]}},{"type":"Feature","id":"k4","properties":{"ko":"카리심비산","en":"Mount Karisimbi","rank":3,"m":4519,"elev":"4,519 m"},"geometry":{"type":"Point","coordinates":[29.449912,-1.500039]}},{"type":"Feature","id":"k5","properties":{"ko":"산타이사벨봉","en":"Pico Basilé","rank":3,"m":3008,"elev":"3,008 m"},"geometry":{"type":"Point","coordinates":[8.760054,3.590107]}},{"type":"Feature","id":"k6","properties":{"ko":"음토르위산","en":"Mtorwi","rank":3,"m":2980,"elev":"2,980 m"},"geometry":{"type":"Point","coordinates":[34.020058,-9.080004]}},{"type":"Feature","id":"k7","properties":{"ko":"카메룬산","en":"Mount Cameroon","rank":3,"m":4040,"elev":"4,040 m"},"geometry":{"type":"Point","coordinates":[9.169948,4.219974]}},{"type":"Feature","id":"k8","properties":{"ko":"마파디산","en":"Mafadi","rank":3,"m":3451,"elev":"3,451 m"},"geometry":{"type":"Point","coordinates":[29.360001,-29.200018]}},{"type":"Feature","id":"k9","properties":{"ko":"카타리나산(시나이 반도 최고봉)","en":"Mount Catherine","rank":3,"m":2629,"elev":"2,629 m"},"geometry":{"type":"Point","coordinates":[33.949938,28.510095]}},{"type":"Feature","id":"k10","properties":{"ko":"암바파리트산","en":"Amba Farit","rank":3,"m":4270,"elev":"4,270 m"},"geometry":{"type":"Point","coordinates":[39.099945,10.950099]}},{"type":"Feature","id":"k11","properties":{"ko":"에러버스산","en":"Mount Erebus","rank":2,"m":3795,"elev":"3,795 m"},"geometry":{"type":"Point","coordinates":[167.18293,-77.514484]}},{"type":"Feature","id":"k12","properties":{"ko":"빈슨산괴","en":"Vinson Massif","rank":1,"m":4892,"elev":"4,892 m"},"geometry":{"type":"Point","coordinates":[-85.633729,-78.529362]}},{"type":"Feature","id":"k13","properties":{"ko":"남차바르와산","en":"Namcha Barwa","rank":3,"m":7782,"elev":"7,782 m"},"geometry":{"type":"Point","coordinates":[95.065707,29.642998]}},{"type":"Feature","id":"k14","properties":{"ko":"후지산","en":"Mount Fuji","rank":2,"m":3776,"elev":"3,776 m"},"geometry":{"type":"Point","coordinates":[138.730941,35.357921]}},{"type":"Feature","id":"k15","properties":{"ko":"다마반드산","en":"Damavand","rank":2,"m":5610,"elev":"5,610 m"},"geometry":{"type":"Point","coordinates":[52.109022,35.955192]}},{"type":"Feature","id":"k16","properties":{"ko":"난다데비","en":"Nanda Devi","rank":3,"m":7817,"elev":"7,817 m"},"geometry":{"type":"Point","coordinates":[79.97097,30.542478]}},{"type":"Feature","id":"k17","properties":{"ko":"이스모일소모니봉","en":"Ismoil Somoni Peak","rank":3,"m":7495,"elev":"7,495 m"},"geometry":{"type":"Point","coordinates":[72.021746,38.932374]}},{"type":"Feature","id":"k18","properties":{"ko":"우타이산","en":"Mount Wutai","rank":3,"m":3058,"elev":"3,058 m"},"geometry":{"type":"Point","coordinates":[113.570219,39.087599]}},{"type":"Feature","id":"k19","properties":{"ko":"궁가산","en":"Mount Gongga","rank":3,"m":7556,"elev":"7,556 m"},"geometry":{"type":"Point","coordinates":[101.87912,29.59578]}},{"type":"Feature","id":"k20","properties":{"ko":"다울라기리","en":"Dhaulagiri","rank":2,"m":8172,"elev":"8,172 m"},"geometry":{"type":"Point","coordinates":[83.495136,28.696462]}},{"type":"Feature","id":"k21","properties":{"ko":"에베레스트산","en":"Mount Everest","rank":1,"m":8848,"elev":"8,848 m"},"geometry":{"type":"Point","coordinates":[86.880596,27.980481]}},{"type":"Feature","id":"k22","properties":{"ko":"K2(고드윈오스틴)","en":"K2","rank":1,"m":8611,"elev":"8,611 m"},"geometry":{"type":"Point","coordinates":[76.513209,35.882406]}},{"type":"Feature","id":"k23","properties":{"ko":"카일라스산","en":"Mount Kailash","rank":2,"m":6638,"elev":"6,638 m"},"geometry":{"type":"Point","coordinates":[81.312536,31.066599]}},{"type":"Feature","id":"k24","properties":{"ko":"자르드쿠산","en":"Zard Kuh","rank":3,"m":4548,"elev":"4,548 m"},"geometry":{"type":"Point","coordinates":[50.090009,32.369995]}},{"type":"Feature","id":"k25","properties":{"ko":"티리치미르","en":"Tirich Mir","rank":3,"m":7708,"elev":"7,708 m"},"geometry":{"type":"Point","coordinates":[71.839984,36.25001]}},{"type":"Feature","id":"k26","properties":{"ko":"타반보그드산","en":"Tavan Bogd","rank":3,"m":4374,"elev":"4,374 m"},"geometry":{"type":"Point","coordinates":[87.819943,49.149949]}},{"type":"Feature","id":"k27","properties":{"ko":"포베다산","en":"Jengish Chokusu","rank":3,"m":7439,"elev":"7,439 m"},"geometry":{"type":"Point","coordinates":[80.130032,42.039981]}},{"type":"Feature","id":"k28","properties":{"ko":"푸비아산","en":"Phou Bia","rank":3,"m":2830,"elev":"2,830 m"},"geometry":{"type":"Point","coordinates":[103.139983,18.979985]}},{"type":"Feature","id":"k29","properties":{"ko":"백두산","en":"Baekdu Mountain","rank":2,"m":2744,"elev":"2,744 m"},"geometry":{"type":"Point","coordinates":[128.090022,41.999993]}},{"type":"Feature","id":"k30","properties":{"ko":"노샤크산","en":"Noshaq","rank":3,"m":7492,"elev":"7,492 m"},"geometry":{"type":"Point","coordinates":[71.781093,36.422118]}},{"type":"Feature","id":"k31","properties":{"ko":"낭가파르바트","en":"Nanga Parbat","rank":2,"m":8125,"elev":"8,125 m"},"geometry":{"type":"Point","coordinates":[74.590005,35.239978]}},{"type":"Feature","id":"k32","properties":{"ko":"아라라트산","en":"Mount Ararat","rank":2,"m":5137,"elev":"5,137 m"},"geometry":{"type":"Point","coordinates":[44.299957,39.700097]}},{"type":"Feature","id":"k33","properties":{"ko":"칸첸중가","en":"Kanchenjunga","rank":2,"m":8586,"elev":"8,586 m"},"geometry":{"type":"Point","coordinates":[88.150023,27.700082]}},{"type":"Feature","id":"k34","properties":{"ko":"헤르몬산(자발셰이크)","en":"Mount Hermon","rank":3,"m":2814,"elev":"2,814 m"},"geometry":{"type":"Point","coordinates":[35.859975,33.409997]}},{"type":"Feature","id":"k35","properties":{"ko":"자발알라우즈","en":"Jabal al-Lawz","rank":3,"m":2580,"elev":"2,580 m"},"geometry":{"type":"Point","coordinates":[35.289888,28.689999]}},{"type":"Feature","id":"k36","properties":{"ko":"카카보라지산","en":"Hkakabo Razi","rank":3,"m":5881,"elev":"5,881 m"},"geometry":{"type":"Point","coordinates":[97.539933,28.33007]}},{"type":"Feature","id":"k37","properties":{"ko":"한라산","en":"Hallasan","rank":3,"m":1950,"elev":"1,950 m"},"geometry":{"type":"Point","coordinates":[126.520001,33.359992]}},{"type":"Feature","id":"k38","properties":{"ko":"시하라산","en":"Shkhara","rank":3,"m":5200,"elev":"5,200 m"},"geometry":{"type":"Point","coordinates":[43.100004,43.000008]}},{"type":"Feature","id":"k39","properties":{"ko":"강카르푼섬","en":"Gangkhar Puensum","rank":3,"m":7570,"elev":"7,570 m"},"geometry":{"type":"Point","coordinates":[90.459936,28.049994]}},{"type":"Feature","id":"k40","properties":{"ko":"치카다르산","en":"Cheekha Dar","rank":3,"m":3611,"elev":"3,611 m"},"geometry":{"type":"Point","coordinates":[44.919887,36.779988]}},{"type":"Feature","id":"k41","properties":{"ko":"바자르뒤쥐산","en":"Mount Bazardüzü","rank":3,"m":4466,"elev":"4,466 m"},"geometry":{"type":"Point","coordinates":[47.85999,41.210095]}},{"type":"Feature","id":"k42","properties":{"ko":"아이리바바산","en":"Aýrybaba","rank":3,"m":3137,"elev":"3,137 m"},"geometry":{"type":"Point","coordinates":[66.569934,37.830088]}},{"type":"Feature","id":"k43","properties":{"ko":"아라가츠산","en":"Mount Aragats","rank":3,"m":4090,"elev":"4,090 m"},"geometry":{"type":"Point","coordinates":[44.199947,40.529982]}},{"type":"Feature","id":"k44","properties":{"ko":"마터호른","en":"Matterhorn","rank":2,"m":4478,"elev":"4,478 m"},"geometry":{"type":"Point","coordinates":[7.729584,45.938172]}},{"type":"Feature","id":"k45","properties":{"ko":"갈회피겐산","en":"Galdhøpiggen","rank":3,"m":2469,"elev":"2,469 m"},"geometry":{"type":"Point","coordinates":[8.312677,61.63648]}},{"type":"Feature","id":"k46","properties":{"ko":"올림포스산","en":"Mount Olympus","rank":3,"m":2917,"elev":"2,917 m"},"geometry":{"type":"Point","coordinates":[22.350123,40.083251]}},{"type":"Feature","id":"k47","properties":{"ko":"무살라산","en":"Musala","rank":3,"m":2925,"elev":"2,925 m"},"geometry":{"type":"Point","coordinates":[23.586833,42.179816]}},{"type":"Feature","id":"k48","properties":{"ko":"그로스글로크너산","en":"Grossglockner","rank":3,"m":3798,"elev":"3,798 m"},"geometry":{"type":"Point","coordinates":[12.695325,47.07471]}},{"type":"Feature","id":"k49","properties":{"ko":"베수비오산","en":"Mount Vesuvius","rank":3,"m":1281,"elev":"1,281 m"},"geometry":{"type":"Point","coordinates":[14.433374,40.816722]}},{"type":"Feature","id":"k50","properties":{"ko":"몽블랑산","en":"Mont Blanc","rank":2,"m":4807,"elev":"4,807 m"},"geometry":{"type":"Point","coordinates":[6.865043,45.833679]}},{"type":"Feature","id":"k51","properties":{"ko":"엘브루스산","en":"Mount Elbrus","rank":1,"m":5642,"elev":"5,642 m"},"geometry":{"type":"Point","coordinates":[42.439198,43.355171]}},{"type":"Feature","id":"k52","properties":{"ko":"추크슈피체산","en":"Zugspitze","rank":3,"m":2963,"elev":"2,963 m"},"geometry":{"type":"Point","coordinates":[10.979975,47.419977]}},{"type":"Feature","id":"k53","properties":{"ko":"트리글라우산","en":"Triglav","rank":3,"m":2864,"elev":"2,864 m"},"geometry":{"type":"Point","coordinates":[13.830005,46.380056]}},{"type":"Feature","id":"k54","properties":{"ko":"알만소르봉","en":"Pico Almanzor","rank":3,"m":2592,"elev":"2,592 m"},"geometry":{"type":"Point","coordinates":[-5.300012,40.260086]}},{"type":"Feature","id":"k55","properties":{"ko":"몬테로사산","en":"Monte Rosa Massif","rank":3,"m":4634,"elev":"4,634 m"},"geometry":{"type":"Point","coordinates":[7.869985,45.94003]}},{"type":"Feature","id":"k56","properties":{"ko":"오리사바산","en":"Pico de Orizaba","rank":2,"m":5636,"elev":"5,636 m"},"geometry":{"type":"Point","coordinates":[-97.278298,19.033988]}},{"type":"Feature","id":"k57","properties":{"ko":"포포카테페틀산","en":"Popocatépetl","rank":3,"m":5420,"elev":"5,420 m"},"geometry":{"type":"Point","coordinates":[-98.622611,19.03419]}},{"type":"Feature","id":"k58","properties":{"ko":"로건산","en":"Mount Logan","rank":2,"m":5959,"elev":"5,959 m"},"geometry":{"type":"Point","coordinates":[-140.412019,60.579796]}},{"type":"Feature","id":"k59","properties":{"ko":"엘버트산","en":"Mount Elbert","rank":3,"m":4402,"elev":"4,402 m"},"geometry":{"type":"Point","coordinates":[-106.446419,39.125082]}},{"type":"Feature","id":"k60","properties":{"ko":"섀스타산","en":"Mount Shasta","rank":3,"m":4322,"elev":"4,322 m"},"geometry":{"type":"Point","coordinates":[-122.195014,41.409307]}},{"type":"Feature","id":"k61","properties":{"ko":"후드산","en":"Mount Hood","rank":3,"m":3426,"elev":"3,426 m"},"geometry":{"type":"Point","coordinates":[-121.696582,45.384484]}},{"type":"Feature","id":"k62","properties":{"ko":"데날리산(매킨리)","en":"Denali","rank":1,"m":6194,"elev":"6,194 m"},"geometry":{"type":"Point","coordinates":[-151.007296,63.069411]}},{"type":"Feature","id":"k63","properties":{"ko":"휘트니산","en":"Mount Whitney","rank":3,"m":4421,"elev":"4,421 m"},"geometry":{"type":"Point","coordinates":[-118.292218,36.582715]}},{"type":"Feature","id":"k64","properties":{"ko":"서샌드퍼드산","en":"Mount Sir Sandford","rank":3,"m":3519,"elev":"3,519 m"},"geometry":{"type":"Point","coordinates":[-117.885919,51.664001]}},{"type":"Feature","id":"k65","properties":{"ko":"레이니어산","en":"Mount Rainier","rank":3,"m":4392,"elev":"4,392 m"},"geometry":{"type":"Point","coordinates":[-121.759997,46.849971]}},{"type":"Feature","id":"k66","properties":{"ko":"산라파엘산","en":"Cerro San Rafael","rank":3,"m":3710,"elev":"3,710 m"},"geometry":{"type":"Point","coordinates":[-100.559993,25.359996]}},{"type":"Feature","id":"k67","properties":{"ko":"오호스델살라도산","en":"Ojos del Salado","rank":2,"m":6880,"elev":"6,880 m"},"geometry":{"type":"Point","coordinates":[-68.542235,-27.109592]}},{"type":"Feature","id":"k68","properties":{"ko":"코지어스코산","en":"Mount Kosciuszko","rank":3,"m":2228,"elev":"2,228 m"},"geometry":{"type":"Point","coordinates":[148.263192,-36.45588]}},{"type":"Feature","id":"k69","properties":{"ko":"벤네비스산","en":"Ben Nevis","rank":3,"m":1343,"elev":"1,343 m"},"geometry":{"type":"Point","coordinates":[-5.004992,56.797003]}},{"type":"Feature","id":"k70","properties":{"ko":"타카나산","en":"Volcán Tacaná","rank":3,"m":4067,"elev":"4,067 m"},"geometry":{"type":"Point","coordinates":[-92.110034,15.130062]}},{"type":"Feature","id":"k71","properties":{"ko":"마로모코트로산","en":"Maromokotro","rank":3,"m":2876,"elev":"2,876 m"},"geometry":{"type":"Point","coordinates":[48.970031,-14.019974]}},{"type":"Feature","id":"k72","properties":{"ko":"키나발루산","en":"Mount Kinabalu","rank":3,"m":4101,"elev":"4,101 m"},"geometry":{"type":"Point","coordinates":[116.549987,6.083399]}},{"type":"Feature","id":"k73","properties":{"ko":"스메루산","en":"Gunung Semeru","rank":3,"m":3676,"elev":"3,676 m"},"geometry":{"type":"Point","coordinates":[112.919915,-8.107859]}},{"type":"Feature","id":"k74","properties":{"ko":"할콘산","en":"Mount Halcon","rank":3,"m":2585,"elev":"2,585 m"},"geometry":{"type":"Point","coordinates":[120.989991,13.260093]}},{"type":"Feature","id":"k75","properties":{"ko":"린자니산","en":"Rinjani","rank":3,"m":3726,"elev":"3,726 m"},"geometry":{"type":"Point","coordinates":[116.459994,-8.409988]}},{"type":"Feature","id":"k76","properties":{"ko":"에트나산","en":"Mount Etna","rank":3,"m":3322,"elev":"3,322 m"},"geometry":{"type":"Point","coordinates":[14.99514,37.755121]}},{"type":"Feature","id":"k77","properties":{"ko":"이디산(크레타 최고봉)","en":"Mount Ida","rank":3,"m":2456,"elev":"2,456 m"},"geometry":{"type":"Point","coordinates":[24.769983,35.230001]}},{"type":"Feature","id":"k78","properties":{"ko":"푼착자야산","en":"Puncak Jaya","rank":1,"m":4884,"elev":"4,884 m"},"geometry":{"type":"Point","coordinates":[137.166252,-4.077668]}},{"type":"Feature","id":"k79","properties":{"ko":"쿡산(아오라키)","en":"Aoraki / Mount Cook","rank":2,"m":3754,"elev":"3,754 m"},"geometry":{"type":"Point","coordinates":[170.141128,-43.595657]}},{"type":"Feature","id":"k80","properties":{"ko":"타푸에누쿠산","en":"Tapuae-o-Uenuku","rank":3,"m":2885,"elev":"2,885 m"},"geometry":{"type":"Point","coordinates":[173.659961,-42.000028]}},{"type":"Feature","id":"k81","properties":{"ko":"빅벤산","en":"Big Ben","rank":3,"m":2745,"elev":"2,745 m"},"geometry":{"type":"Point","coordinates":[73.520032,-53.100037]}},{"type":"Feature","id":"k82","properties":{"ko":"일리마니산","en":"Illimani","rank":3,"m":6402,"elev":"6,402 m"},"geometry":{"type":"Point","coordinates":[-67.784732,-16.653828]}},{"type":"Feature","id":"k83","properties":{"ko":"우아스카란산","en":"Huascarán","rank":2,"m":6768,"elev":"6,768 m"},"geometry":{"type":"Point","coordinates":[-77.609014,-9.121364]}},{"type":"Feature","id":"k84","properties":{"ko":"침보라소산","en":"Chimborazo volcano","rank":2,"m":6267,"elev":"6,267 m"},"geometry":{"type":"Point","coordinates":[-78.817489,-1.469261]}},{"type":"Feature","id":"k85","properties":{"ko":"아콩카과산","en":"Aconcagua","rank":1,"m":6959,"elev":"6,959 m"},"geometry":{"type":"Point","coordinates":[-70.015801,-32.655679]}},{"type":"Feature","id":"k86","properties":{"ko":"리타쿠바블랑코","en":"Ritacuba Blanco","rank":3,"m":5410,"elev":"5,410 m"},"geometry":{"type":"Point","coordinates":[-72.300025,6.48998]}}]}