{"type":"FeatureCollection","features":[{"type":"Feature","id":"r0","properties":{"ko":"레바논산맥","en":"Mount Lebanon Range","rank":3},"geometry":{"type":"LineString","coordinates":[[35.426,33.262],[35.451,33.449],[35.478,33.665],[35.643,33.796],[35.931,33.847],[36.037,33.969],[35.993,34.136],[36.057,34.239],[36.167,34.321],[36.229,34.429],[36.247,34.565]]}},{"type":"Feature","id":"r1","properties":{"ko":"토로스산맥","en":"Taurus mountains","rank":3},"geometry":{"type":"LineString","coordinates":[[31.371,37.114],[31.634,37.217],[31.937,37.062],[32.279,36.728],[32.585,36.718],[32.887,36.659],[33.149,36.664],[33.343,37.03],[33.57,37.239],[33.861,37.171],[34.169,36.991],[34.455,37.107],[34.748,37.414],[35.004,37.626]]}},{"type":"Feature","id":"r2","properties":{"ko":"안티아틀라스산맥","en":"Anti-Atlas","rank":4},"geometry":{"type":"LineString","coordinates":[[-10.601,28.725],[-9.778,28.829],[-9.172,28.985],[-8.727,29.428],[-8.329,29.932],[-7.876,30.232],[-7.372,30.411],[-6.883,30.533],[-6.259,30.481],[-5.686,30.499],[-5.398,30.88],[-5.033,31.259],[-4.489,31.51]]}},{"type":"Feature","id":"r3","properties":{"ko":"세하두마르산맥","en":"Serra do Mar","rank":4},"geometry":{"type":"LineString","coordinates":[[-50.08,-29.796],[-50.045,-28.928],[-49.741,-28.428],[-49.376,-28.147],[-49.339,-27.799],[-49.186,-27.455],[-48.968,-27.084],[-48.91,-26.665],[-48.749,-26.28],[-48.689,-25.861],[-48.635,-25.466],[-48.352,-25.15],[-48.2,-24.783]]}},{"type":"Feature","id":"r4","properties":{"ko":"세하제라우산맥","en":"Serra Geral","rank":4},"geometry":{"type":"LineString","coordinates":[[-53.329,-29.647],[-51.826,-29.395],[-51.432,-28.87],[-51.268,-28.388],[-50.933,-27.969],[-50.635,-27.529],[-50.586,-27.038],[-51.057,-26.21],[-51.065,-25.377],[-50.658,-24.839],[-50.672,-24.291],[-50.765,-23.774],[-51.518,-23.18]]}},{"type":"Feature","id":"r5","properties":{"ko":"기아나고지","en":"Guiana Highlands","rank":4},"geometry":{"type":"LineString","coordinates":[[-67.465,5.685],[-66.689,6.006],[-65.987,5.655],[-65.256,5.137],[-64.528,5.489],[-63.913,5.305],[-63.054,5.158],[-61.946,5.318],[-60.945,5.441],[-60.127,5.46],[-59.393,5.047],[-58.564,5.034]]}},{"type":"Feature","id":"r6","properties":{"ko":"체르스키산맥","en":"Chersky Range","rank":4},"geometry":{"type":"LineString","coordinates":[[137.49,68.729],[137.445,68.065],[137.684,67.576],[138.631,67.293],[139.523,66.979],[139.569,66.45],[140.172,66.105],[141.594,65.967],[142.649,65.787],[143.859,65.691],[145.04,65.488],[145.517,65.069],[145.976,64.665],[146.579,64.186]]}},{"type":"Feature","id":"r7","properties":{"ko":"폰투스산맥","en":"Pontic Mountains","rank":4},"geometry":{"type":"LineString","coordinates":[[34.265,41.44],[34.999,41.624],[35.558,41.607],[36.022,41.486],[36.555,41.297],[37.178,41.115],[37.763,40.979],[38.307,40.87],[38.882,40.896],[39.451,40.954],[40.009,40.939],[40.586,40.973],[41.195,41.141],[41.805,41.521]]}},{"type":"Feature","id":"r8","properties":{"ko":"발칸산맥","en":"Balkan Mountains","rank":4},"geometry":{"type":"LineString","coordinates":[[22.436,43.681],[22.821,43.214],[23.23,43.205],[23.569,43.197],[24.089,42.924],[24.934,42.977],[25.645,43.186],[26.079,43.224],[26.463,43.305],[26.888,43.296],[27.335,43.232]]}},{"type":"Feature","id":"r9","properties":{"ko":"디나르알프스산맥","en":"Dinaric Alps","rank":4},"geometry":{"type":"LineString","coordinates":[[13.774,45.8],[14.291,45.468],[14.764,45.114],[15.171,44.734],[15.569,44.326],[15.956,43.894],[16.362,43.548],[16.912,43.274],[17.639,43.117],[18.391,43.099],[19.103,43.076],[19.71,42.909],[20.298,42.695],[21.341,42.963]]}},{"type":"Feature","id":"r10","properties":{"ko":"사하라아틀라스산맥","en":"Saharan Atlas","rank":3},"geometry":{"type":"LineString","coordinates":[[-2.159,32.016],[-1.584,32.288],[-0.975,32.495],[-0.484,32.859],[-0.021,33.198],[0.499,33.277],[0.965,33.503],[1.372,33.88],[1.897,34.047],[2.522,34.153],[3.081,34.323],[3.557,34.55],[3.997,34.888],[4.509,35.266]]}},{"type":"Feature","id":"r11","properties":{"ko":"오트아틀라스산맥","en":"High Atlas","rank":3},"geometry":{"type":"LineString","coordinates":[[-9.305,30.799],[-8.768,30.97],[-8.227,31.071],[-7.735,31.274],[-7.276,31.532],[-6.881,31.757],[-6.521,32.046],[-6.015,32.209],[-5.463,32.277],[-4.886,32.399],[-4.271,32.472],[-3.763,32.518],[-3.27,32.61],[-2.757,32.753]]}},{"type":"Feature","id":"r12","properties":{"ko":"드라켄즈버그산맥","en":"Drakensberg","rank":3},"geometry":{"type":"LineString","coordinates":[[24.93,-32.625],[25.518,-31.924],[26.379,-31.413],[27.469,-30.999],[28.43,-30.512],[29.196,-29.962],[29.791,-29.293],[30.358,-28.537],[30.908,-27.76],[31.163,-26.859],[30.87,-25.695],[30.459,-24.505],[30.456,-23.473],[31.0,-22.535]]}},{"type":"Feature","id":"r13","properties":{"ko":"크리스털산맥","en":"Crystal Mountain","rank":3},"geometry":{"type":"LineString","coordinates":[[10.323,0.929],[10.785,0.103],[11.177,-0.696],[11.517,-1.375],[11.43,-2.144],[11.443,-2.881],[12.252,-3.406],[13.007,-4.04],[13.253,-4.809],[13.387,-5.578],[13.57,-6.358],[13.975,-7.072],[14.478,-7.843],[14.781,-8.836]]}},{"type":"Feature","id":"r14","properties":{"ko":"티베스티산맥","en":"Tibesti Mountains","rank":3},"geometry":{"type":"LineString","coordinates":[[16.19,20.231],[16.779,20.319],[17.171,20.542],[17.229,21.005],[17.378,21.343],[17.968,21.369],[18.15,21.725],[18.055,22.218],[18.441,22.309],[18.806,22.503],[18.979,22.947],[19.05,23.419],[19.105,23.809],[19.557,23.931]]}},{"type":"Feature","id":"r15","properties":{"ko":"아하가르산맥","en":"Ahag","rank":3},"geometry":{"type":"LineString","coordinates":[[1.329,24.856],[2.404,25.416],[3.267,25.774],[4.031,25.985],[4.403,25.601],[4.532,24.741],[4.86,24.165],[5.277,23.863],[5.686,23.561],[5.991,23.074],[6.265,22.538],[6.994,22.67],[7.897,23.043],[8.475,22.852]]}},{"type":"Feature","id":"r16","properties":{"ko":"아이르산맥","en":"Aïr Mountains","rank":3},"geometry":{"type":"LineString","coordinates":[[8.288,20.252],[8.174,19.93],[8.529,19.771],[8.68,19.534],[8.56,19.209],[8.649,18.975],[9.022,18.848],[9.155,18.647],[8.978,18.382],[9.14,18.239],[9.219,18.035],[9.05,17.744],[9.081,17.517]]}},{"type":"Feature","id":"r17","properties":{"ko":"미툼바산맥","en":"Mitumba Mountains","rank":3},"geometry":{"type":"LineString","coordinates":[[28.956,-5.012],[28.831,-4.446],[28.739,-3.846],[28.648,-3.222],[28.556,-2.539],[28.612,-1.834],[28.872,-1.238],[29.232,-0.695],[29.488,-0.132],[29.667,0.396],[30.012,0.906],[30.423,1.444],[30.801,1.999],[31.17,2.545]]}},{"type":"Feature","id":"r18","properties":{"ko":"샤오싱안링산맥","en":"Lesser Khingan","rank":3},"geometry":{"type":"LineString","coordinates":[[125.055,51.291],[125.648,50.94],[125.746,50.433],[126.05,50.089],[126.774,49.914],[127.128,49.544],[127.386,49.219],[128.372,49.095],[129.71,48.971],[129.923,48.455],[129.511,47.693],[129.853,47.291],[130.083,46.946]]}},{"type":"Feature","id":"r19","properties":{"ko":"시호테알린산맥","en":"Sikhote-Alin","rank":3},"geometry":{"type":"LineString","coordinates":[[132.822,43.055],[133.833,43.648],[134.441,44.349],[134.954,44.892],[135.907,45.244],[136.795,45.69],[137.405,46.329],[137.767,47.207],[137.731,48.174],[138.198,48.72],[139.193,49.023],[139.652,49.647],[139.693,50.553],[140.146,51.37]]}},{"type":"Feature","id":"r20","properties":{"ko":"베르호얀스크산맥","en":"Verkhoyansk Range","rank":3},"geometry":{"type":"LineString","coordinates":[[128.124,70.314],[128.937,69.706],[128.844,68.873],[128.85,68.06],[128.846,67.3],[128.448,66.497],[128.349,65.744],[128.995,65.193],[130.464,64.79],[132.348,64.42],[134.149,64.146],[136.182,63.923],[138.11,63.554],[139.063,62.899]]}},{"type":"Feature","id":"r21","properties":{"ko":"치롄산맥","en":"Qilian Mountains","rank":3},"geometry":{"type":"LineString","coordinates":[[94.544,39.248],[95.24,39.102],[95.729,38.761],[96.125,38.211],[96.86,38.265],[97.62,38.41],[98.107,38.119],[98.726,37.858],[99.195,37.311],[99.69,37.144],[100.421,37.235],[101.085,37.038],[101.82,37.132],[102.4,36.731]]}},{"type":"Feature","id":"r22","properties":{"ko":"사얀산맥","en":"Eastern Sayan Mountains","rank":3},"geometry":{"type":"LineString","coordinates":[[92.071,55.309],[92.773,54.644],[93.908,54.669],[95.165,54.95],[95.818,54.631],[95.681,53.373],[96.315,52.81],[98.081,53.45],[99.076,53.372],[99.395,52.294],[100.65,51.751],[102.193,51.846],[103.31,51.928]]}},{"type":"Feature","id":"r23","properties":{"ko":"다볘산맥","en":"Dabie Mountains","rank":3},"geometry":{"type":"LineString","coordinates":[[112.969,32.461],[113.161,32.051],[113.26,31.642],[113.543,31.533],[114.037,31.565],[114.495,31.448],[114.749,31.176],[114.978,30.938],[115.221,30.724],[115.493,30.534],[115.779,30.358],[116.22,30.448],[117.174,31.26]]}},{"type":"Feature","id":"r24","properties":{"ko":"난링산맥","en":"Nanling Mountains","rank":3},"geometry":{"type":"LineString","coordinates":[[109.572,24.882],[109.891,24.959],[110.317,24.986],[110.801,24.203],[111.219,24.024],[111.588,24.681],[111.92,24.468],[112.311,23.712],[112.789,23.562],[113.217,23.951],[113.613,24.512],[114.011,24.932]]}},{"type":"Feature","id":"r25","properties":{"ko":"서고츠산맥","en":"Western Ghats","rank":3},"geometry":{"type":"LineString","coordinates":[[73.712,20.625],[73.113,19.524],[73.21,18.9],[73.682,17.995],[73.822,16.545],[73.917,15.504],[74.173,14.905],[74.47,14.297],[74.912,13.588],[75.476,12.835],[76.0,12.178],[76.337,11.525],[76.48,10.687]]}},{"type":"Feature","id":"r26","properties":{"ko":"동고츠산맥","en":"Eastern Ghats","rank":3},"geometry":{"type":"LineString","coordinates":[[78.316,11.471],[78.996,11.972],[79.448,12.656],[79.552,13.633],[79.422,14.648],[79.434,15.46],[79.75,16.158],[80.247,16.887],[81.055,17.461],[81.659,18.128],[81.841,19.002],[82.546,19.576],[83.632,19.903],[84.491,20.335]]}},{"type":"Feature","id":"r27","properties":{"ko":"알툰산맥","en":"Altyn-Tagh","rank":3},"geometry":{"type":"LineString","coordinates":[[86.64,37.932],[87.329,38.116],[88.067,38.195],[88.862,38.019],[89.514,38.075],[90.064,38.057],[90.605,38.001],[91.201,38.16],[91.904,38.294],[92.685,38.47],[93.405,38.628],[93.959,38.941]]}},{"type":"Feature","id":"r28","properties":{"ko":"헤자즈산맥","en":"Hejaz Mountains","rank":3},"geometry":{"type":"LineString","coordinates":[[35.934,28.7],[36.4,28.313],[36.672,27.84],[37.054,27.476],[37.508,27.124],[37.619,26.635],[37.723,26.024],[38.272,25.375],[38.954,24.884],[39.124,24.341],[39.082,23.75],[39.399,23.302],[39.785,22.824]]}},{"type":"Feature","id":"r29","properties":{"ko":"아시르산맥","en":"Asir Mountains","rank":3},"geometry":{"type":"LineString","coordinates":[[40.929,21.378],[41.265,21.054],[41.736,20.758],[42.085,20.451],[41.916,19.95],[41.867,19.48],[42.43,19.289],[43.041,19.152],[43.35,18.782],[43.38,18.101],[43.337,17.37],[43.508,16.894],[43.731,16.529]]}},{"type":"Feature","id":"r30","properties":{"ko":"엘부르즈산맥","en":"Elburz Mountains","rank":3},"geometry":{"type":"LineString","coordinates":[[48.395,37.574],[48.873,37.328],[49.436,37.24],[49.926,37.01],[50.325,36.597],[50.775,36.36],[51.252,36.23],[51.692,36.017],[52.126,35.828],[52.644,35.87],[53.224,36.118],[53.737,36.274],[54.26,36.317],[55.006,36.667]]}},{"type":"Feature","id":"r31","properties":{"ko":"스칸디나비아산맥","en":"Scandinavian Mountains","rank":3},"geometry":{"type":"LineString","coordinates":[[6.134,59.346],[6.365,60.328],[7.017,61.343],[8.127,62.296],[9.433,63.03],[10.789,63.872],[11.928,64.821],[12.739,65.53],[13.797,66.325],[15.216,67.284],[16.532,68.015],[18.076,68.617],[20.277,69.315],[22.696,69.943]]}},{"type":"Feature","id":"r32","properties":{"ko":"카르파티아산맥","en":"Carpathian Mountains","rank":3},"geometry":{"type":"LineString","coordinates":[[18.012,49.614],[18.87,49.431],[19.74,49.233],[20.299,48.816],[20.876,48.479],[21.906,48.504],[22.859,48.4],[23.313,47.881],[23.414,47.126],[23.396,46.348],[23.733,45.847],[24.667,45.708],[25.86,45.719],[26.457,45.32]]}},{"type":"Feature","id":"r33","properties":{"ko":"아펜니노산맥","en":"Appennino Ligure","rank":3},"geometry":{"type":"LineString","coordinates":[[9.105,44.814],[9.54,44.415],[10.226,44.136],[11.062,43.985],[11.771,43.811],[12.267,43.452],[12.652,42.955],[12.979,42.434],[13.35,41.992],[13.901,41.686],[14.513,41.39],[15.028,40.982],[15.517,40.537],[16.033,40.143]]}},{"type":"Feature","id":"r34","properties":{"ko":"피레네산맥","en":"Pyrenees","rank":3},"geometry":{"type":"LineString","coordinates":[[-2.22,43.265],[-1.736,43.201],[-1.384,42.958],[-0.919,42.88],[-0.183,42.903],[0.464,42.569],[0.926,42.243],[1.403,42.368],[1.918,42.732],[2.354,42.88],[2.729,42.672],[3.111,42.172]]}},{"type":"Feature","id":"r35","properties":{"ko":"코스트레인지","en":"Pacific Coast Ranges","rank":3},"geometry":{"type":"LineString","coordinates":[[-123.781,47.968],[-123.544,47.09],[-123.516,46.096],[-123.642,44.952],[-123.938,43.83],[-124.131,42.806],[-123.96,41.805],[-123.678,40.85],[-123.497,39.948],[-123.09,39.005],[-122.406,38.038],[-121.784,37.125],[-121.182,36.201],[-120.415,35.232]]}},{"type":"Feature","id":"r36","properties":{"ko":"동시에라마드레산맥","en":"Sierra Madre Oriental","rank":3},"geometry":{"type":"LineString","coordinates":[[-102.332,29.566],[-102.083,28.776],[-102.135,27.932],[-102.02,27.16],[-101.886,26.38],[-101.706,25.619],[-100.875,25.11],[-100.276,24.579],[-100.157,23.947],[-99.912,23.309],[-99.72,22.546],[-99.355,21.737],[-98.818,21.007],[-98.281,20.401]]}},{"type":"Feature","id":"r37","properties":{"ko":"시에라네바다산맥","en":"Sierra Nevada","rank":3},"geometry":{"type":"LineString","coordinates":[[-121.31,40.262],[-121.146,39.77],[-120.921,39.377],[-120.882,38.98],[-120.958,38.54],[-120.833,38.12],[-120.431,37.816],[-119.999,37.538],[-119.732,37.152],[-119.33,36.835],[-118.878,36.506],[-118.666,36.032],[-118.515,35.574],[-118.481,35.088]]}},{"type":"Feature","id":"r38","properties":{"ko":"서시에라마드레산맥","en":"Sierra Madre Occidental","rank":3},"geometry":{"type":"LineString","coordinates":[[-110.228,30.878],[-109.67,30.029],[-109.273,29.345],[-108.735,28.621],[-108.286,27.735],[-107.737,27.037],[-107.039,26.487],[-106.547,25.782],[-105.889,25.148],[-105.242,24.535],[-105.038,23.669],[-104.889,22.669],[-104.656,21.747],[-104.316,21.061]]}},{"type":"Feature","id":"r39","properties":{"ko":"추가치산맥","en":"Chugach Mountains","rank":3},"geometry":{"type":"LineString","coordinates":[[-149.651,61.221],[-148.94,61.169],[-148.273,61.042],[-147.565,61.045],[-146.82,61.072],[-146.195,60.948],[-145.601,60.777],[-145.052,60.585],[-144.558,60.446],[-143.912,60.483],[-143.203,60.529],[-142.474,60.615],[-141.715,60.712],[-141.21,60.339]]}},{"type":"Feature","id":"r40","properties":{"ko":"매켄지산맥","en":"Mackenzie Mountains","rank":3},"geometry":{"type":"LineString","coordinates":[[-136.028,65.426],[-135.357,64.827],[-134.079,64.524],[-132.603,64.331],[-131.433,64.068],[-130.312,63.812],[-129.519,63.398],[-128.619,63.056],[-126.976,62.989],[-126.209,62.423],[-126.716,61.291],[-126.43,60.574],[-125.179,60.325],[-124.439,59.844]]}},{"type":"Feature","id":"r41","properties":{"ko":"에티오피아고원","en":"Ethiopian Highlands","rank":2},"geometry":{"type":"LineString","coordinates":[[37.891,17.672],[38.249,16.571],[38.488,15.539],[38.329,14.459],[38.001,13.439],[37.662,12.48],[37.121,11.441],[37.671,10.454],[39.64,9.608],[40.774,8.814],[40.172,7.89],[39.12,6.758],[38.785,5.672],[38.596,4.733]]}},{"type":"Feature","id":"r42","properties":{"ko":"자그로스산맥","en":"Zagros Mountains","rank":2},"geometry":{"type":"LineString","coordinates":[[46.398,35.528],[46.879,34.482],[47.513,33.762],[48.22,33.131],[48.924,32.573],[49.559,31.982],[50.006,31.138],[50.32,30.302],[50.897,29.721],[51.871,29.288],[52.835,28.81],[53.666,28.216],[54.528,27.686],[55.524,27.286]]}},{"type":"Feature","id":"r43","properties":{"ko":"알타이산맥","en":"Altai Mountains","rank":2},"geometry":{"type":"LineString","coordinates":[[82.452,51.389],[83.795,50.506],[85.637,50.295],[87.476,50.435],[88.514,49.918],[89.302,48.923],[90.258,47.939],[90.998,46.724],[91.797,45.612],[93.515,45.241],[95.06,44.842],[95.921,44.181],[97.664,44.014],[100.455,44.448]]}},{"type":"Feature","id":"r44","properties":{"ko":"대싱안링산맥","en":"Greater Khingan","rank":2},"geometry":{"type":"LineString","coordinates":[[118.212,43.301],[119.668,43.758],[120.713,44.511],[120.79,45.431],[121.228,46.174],[122.466,46.858],[122.991,47.632],[122.758,48.352],[122.483,49.133],[122.55,50.024],[122.353,50.953],[121.718,51.844],[122.187,52.567],[123.938,53.112]]}},{"type":"Feature","id":"r45","properties":{"ko":"스타노보이산맥","en":"Stanovoy Range","rank":2},"geometry":{"type":"LineString","coordinates":[[123.499,56.606],[124.719,55.871],[125.939,56.245],[127.018,56.251],[127.926,55.71],[128.929,55.425],[130.122,55.455],[131.103,55.778],[132.306,56.296],[133.962,55.964],[135.234,55.634],[136.414,56.357],[137.905,56.792]]}},{"type":"Feature","id":"r46","properties":{"ko":"안남산맥","en":"Annamite Range","rank":2},"geometry":{"type":"LineString","coordinates":[[103.654,21.439],[104.478,20.599],[104.575,19.733],[104.592,18.878],[105.47,18.275],[106.364,17.72],[106.447,16.709],[106.389,15.381],[106.999,14.464],[107.883,13.855],[108.218,13.048],[108.08,12.071],[108.287,11.177]]}},{"type":"Feature","id":"r47","properties":{"ko":"시왈리크구릉","en":"Siwalik Hills","rank":2},"geometry":{"type":"LineString","coordinates":[[79.243,29.726],[79.773,29.482],[80.329,29.257],[80.876,28.803],[81.473,28.318],[82.242,27.914],[83.166,27.588],[83.91,27.406],[84.755,27.165],[85.969,26.93],[86.951,26.841],[87.561,26.594]]}},{"type":"Feature","id":"r48","properties":{"ko":"파미르고원","en":"Pamir mountains","rank":2},"geometry":{"type":"LineString","coordinates":[[71.36,37.993],[71.795,37.947],[72.225,38.011],[72.682,37.666],[73.277,37.684],[74.144,38.332],[74.958,38.467],[75.5,38.206],[75.895,38.339],[76.342,38.378],[76.939,38.131]]}},{"type":"Feature","id":"r49","properties":{"ko":"힌두쿠시산맥","en":"Hindu Kush","rank":2},"geometry":{"type":"LineString","coordinates":[[66.872,35.366],[67.823,35.713],[69.465,35.656],[70.872,36.207],[71.585,36.196],[72.149,35.968],[72.851,35.706],[73.567,34.893],[74.151,35.09],[74.746,36.037],[75.506,35.806]]}},{"type":"Feature","id":"r50","properties":{"ko":"카라코람산맥","en":"Karakoram","rank":2},"geometry":{"type":"LineString","coordinates":[[75.558,37.489],[75.698,37.181],[75.803,36.717],[75.769,36.202],[76.258,36.052],[77.118,36.117],[77.372,35.874],[77.771,35.706],[78.397,35.611],[78.691,35.324],[79.191,35.201],[79.296,34.792],[78.962,34.028],[79.304,33.71]]}},{"type":"Feature","id":"r51","properties":{"ko":"쿤룬산맥","en":"Kunlun Mountains","rank":2},"geometry":{"type":"LineString","coordinates":[[78.427,36.495],[80.29,36.228],[81.832,36.245],[83.772,36.712],[85.955,36.964],[87.677,36.982],[89.39,37.29],[91.227,37.311],[92.854,36.83],[94.276,36.471],[95.739,36.228],[97.422,35.909],[98.94,35.728]]}},{"type":"Feature","id":"r52","properties":{"ko":"아틀라스산맥","en":"Atlas Mountains","rank":2},"geometry":{"type":"LineString","coordinates":[[-10.426,28.811],[-9.232,30.33],[-7.727,31.182],[-6.315,32.328],[-5.121,33.847],[-3.741,34.546],[-2.149,34.756],[-0.504,35.166],[1.162,35.58],[2.882,35.878],[4.582,36.194],[6.232,36.346],[7.975,36.399],[9.854,36.809]]}},{"type":"Feature","id":"r53","properties":{"ko":"애팔래치아산맥","en":"Appalachian Mountains","rank":2},"geometry":{"type":"LineString","coordinates":[[-87.753,33.533],[-87.412,36.166],[-86.098,37.752],[-83.943,38.513],[-81.753,39.21],[-80.139,40.424],[-78.352,41.594],[-75.933,42.218],[-74.113,43.052],[-72.702,44.264],[-71.042,45.569],[-69.401,46.934],[-67.515,47.95],[-65.364,48.548]]}},{"type":"Feature","id":"r54","properties":{"ko":"브룩스산맥","en":"Brooks Range","rank":2},"geometry":{"type":"LineString","coordinates":[[-166.15,68.487],[-163.522,68.186],[-161.591,68.798],[-159.701,69.699],[-157.656,70.082],[-155.607,70.177],[-153.539,70.029],[-151.422,69.869],[-149.164,69.631],[-146.924,69.336],[-144.81,69.384],[-142.792,69.408],[-140.755,69.262],[-138.586,69.207]]}},{"type":"Feature","id":"r55","properties":{"ko":"코스트산맥","en":"Coast Mountains","rank":2},"geometry":{"type":"LineString","coordinates":[[-135.662,60.539],[-134.914,59.513],[-134.147,58.597],[-133.263,57.763],[-132.242,56.905],[-131.158,56.072],[-130.12,55.254],[-129.289,54.353],[-128.507,53.453],[-127.632,52.586],[-126.598,51.725],[-125.247,50.886],[-123.926,50.134],[-122.839,49.482]]}},{"type":"Feature","id":"r56","properties":{"ko":"캐스케이드산맥","en":"Cascade Range","rank":2},"geometry":{"type":"LineString","coordinates":[[-121.476,40.456],[-121.622,41.248],[-121.861,42.058],[-122.143,42.917],[-122.322,43.728],[-122.247,44.509],[-122.128,45.305],[-122.086,46.051],[-121.64,46.82],[-121.193,47.665],[-121.533,48.472],[-121.607,49.184],[-120.767,49.91],[-119.999,50.694]]}},{"type":"Feature","id":"r57","properties":{"ko":"알래스카산맥","en":"Alaska Range","rank":2},"geometry":{"type":"LineString","coordinates":[[-154.338,61.341],[-153.371,61.4],[-152.289,61.353],[-151.479,61.501],[-150.938,61.934],[-150.423,62.481],[-149.871,62.962],[-149.127,63.179],[-148.048,63.106],[-146.943,63.048],[-146.044,63.192],[-145.218,63.364],[-144.335,63.442],[-143.201,63.344]]}},{"type":"Feature","id":"r58","properties":{"ko":"그레이트디바이딩산맥","en":"Great Dividing Range","rank":1},"geometry":{"type":"LineString","coordinates":[[143.065,-13.311],[143.962,-15.122],[144.706,-17.107],[145.321,-18.803],[146.777,-20.257],[148.188,-21.856],[148.607,-23.807],[149.766,-25.648],[151.472,-27.216],[151.731,-29.041],[150.933,-30.981],[150.217,-32.849],[148.952,-34.927],[146.69,-37.309]]}},{"type":"Feature","id":"r59","properties":{"ko":"알프스산맥","en":"Alps","rank":1},"geometry":{"type":"LineString","coordinates":[[5.645,44.236],[6.317,44.677],[7.078,45.049],[7.613,45.754],[8.176,46.399],[8.777,46.865],[9.607,46.881],[10.844,46.384],[11.573,46.727],[12.177,47.257],[13.472,46.78],[14.647,46.479],[15.345,46.976],[15.967,47.833]]}},{"type":"Feature","id":"r60","properties":{"ko":"톈산산맥","en":"Tian Shan","rank":1},"geometry":{"type":"LineString","coordinates":[[73.219,41.385],[74.853,41.963],[77.597,41.805],[81.157,42.116],[83.426,42.956],[84.764,43.062],[86.531,42.805],[88.303,42.839],[89.643,42.949],[91.032,43.028],[92.894,43.114],[94.845,43.211]]}},{"type":"Feature","id":"r61","properties":{"ko":"우랄산맥","en":"Ural Mountains","rank":1},"geometry":{"type":"LineString","coordinates":[[57.308,51.903],[57.702,53.267],[58.605,54.561],[59.441,55.802],[59.238,57.013],[58.776,58.236],[58.698,59.611],[58.753,60.983],[58.842,62.254],[59.283,63.517],[60.399,64.663],[62.118,65.68],[64.117,66.739],[65.874,67.926]]}},{"type":"Feature","id":"r62","properties":{"ko":"캅카스산맥","en":"Caucasus Mountains","rank":1},"geometry":{"type":"LineString","coordinates":[[37.563,44.928],[38.606,44.741],[39.58,44.542],[40.39,44.279],[41.107,43.868],[41.937,43.298],[43.058,43.117],[44.174,43.2],[45.034,42.956],[45.918,42.646],[46.815,42.334],[47.62,41.967],[48.428,41.567],[49.174,40.759]]}},{"type":"Feature","id":"r63","properties":{"ko":"히말라야산맥","en":"Himalayas","rank":1},"geometry":{"type":"LineString","coordinates":[[75.95,33.105],[77.657,32.349],[79.711,30.296],[82.174,28.631],[84.12,28.033],[85.63,27.912],[87.236,27.937],[88.506,27.448],[89.874,27.239],[91.783,27.964],[93.571,28.724],[95.163,29.022]]}},{"type":"Feature","id":"r64","properties":{"ko":"안데스산맥","en":"Andes","rank":1},"geometry":{"type":"LineString","coordinates":[[-71.412,9.913],[-75.632,3.841],[-78.645,-1.226],[-78.656,-5.358],[-76.358,-10.165],[-73.077,-15.022],[-70.2,-19.36],[-69.331,-24.094],[-69.736,-28.998],[-70.49,-33.613],[-71.582,-38.46],[-72.786,-43.58],[-73.018,-48.577],[-71.24,-53.537]]}},{"type":"Feature","id":"r65","properties":{"ko":"로키산맥","en":"Rocky Mountains","rank":1},"geometry":{"type":"LineString","coordinates":[[-125.693,59.158],[-123.904,57.507],[-122.153,55.67],[-119.866,53.934],[-117.725,52.429],[-116.706,50.639],[-116.157,48.394],[-115.349,46.315],[-113.958,44.617],[-111.934,43.061],[-110.651,41.237],[-109.696,39.264],[-107.695,37.684],[-105.942,36.024]]}},{"type":"Feature","id":"r66","properties":{"ko":"남극횡단산맥","en":"Transantarctic Mountains","rank":1},"geometry":{"type":"LineString","coordinates":[[169.676,-71.684],[167.724,-72.702],[165.121,-73.809],[163.032,-74.974],[162.255,-76.065],[161.934,-77.226],[161.491,-78.51],[160.778,-79.631],[160.694,-80.726],[162.848,-81.912],[167.567,-82.958],[168.753,-83.888],[167.757,-85.002],[176.782,-86.392]]}},{"type":"Feature","id":"r67","properties":{"ko":"서던알프스산맥","en":"Southern Alps/Kā Tiritiri o te Moana","rank":3},"geometry":{"type":"LineString","coordinates":[[166.924,-45.765],[167.154,-45.241],[167.52,-44.86],[168.015,-44.572],[168.586,-44.288],[169.166,-44.005],[169.666,-43.708],[170.1,-43.411],[170.591,-43.145],[171.313,-42.832],[172.091,-42.412],[172.612,-41.97],[173.146,-41.544]]}}]}