{"type":"FeatureCollection","features":[{"type":"Feature","id":"lr0","properties":{"ko":"Widyan ar Rushaydah","en":"Widyan ar Rushaydah","km":271.9,"rank":1},"geometry":{"type":"Point","coordinates":[39.106,30.569]}},{"type":"Feature","id":"lr1","properties":{"ko":"Wadi al Ruaq","en":"Wadi al Ruaq","km":195.7,"rank":1},"geometry":{"type":"Point","coordinates":[33.594,29.738]}},{"type":"Feature","id":"lr2","properties":{"ko":"SHIʻBĀN JAʻALAH","en":"SHIʻBĀN JAʻALAH","km":195.4,"rank":1},"geometry":{"type":"Point","coordinates":[38.404,29.786]}},{"type":"Feature","id":"lr3","properties":{"ko":"아라바 시내","en":"Nahal Arava","km":180.6,"rank":1},"geometry":{"type":"Point","coordinates":[35.431,31.019]}},{"type":"Feature","id":"lr4","properties":{"ko":"리타니강","en":"Litani River","km":161.2,"rank":1},"geometry":{"type":"Point","coordinates":[35.569,33.382]}},{"type":"Feature","id":"lr5","properties":{"ko":"Wadi al U`ayli","en":"Wadi al U`ayli","km":141.0,"rank":1},"geometry":{"type":"Point","coordinates":[38.776,30.899]}},{"type":"Feature","id":"lr6","properties":{"ko":"Wadi Umm Nukhaylah","en":"Wadi Umm Nukhaylah","km":131.9,"rank":1},"geometry":{"type":"Point","coordinates":[39.035,30.226]}},{"type":"Feature","id":"lr7","properties":{"ko":"Wadi Ba'ir","en":"Wadi Ba'ir","km":130.5,"rank":1},"geometry":{"type":"Point","coordinates":[37.447,31.134]}},{"type":"Feature","id":"lr8","properties":{"ko":"신 시내","en":"Nahal Zin","km":129.1,"rank":1},"geometry":{"type":"Point","coordinates":[34.906,30.826]}},{"type":"Feature","id":"lr9","properties":{"ko":"Wadi Abu Sulaylat","en":"Wadi Abu Sulaylat","km":118.8,"rank":1},"geometry":{"type":"Point","coordinates":[37.84,29.928]}},{"type":"Feature","id":"lr10","properties":{"ko":"와디 기라","en":"Wadi Gira","km":115.7,"rank":1},"geometry":{"type":"Point","coordinates":[33.932,29.768]}},{"type":"Feature","id":"lr11","properties":{"ko":"Göksu Nehri","en":"Göksu Nehri","km":113.0,"rank":1},"geometry":{"type":"Point","coordinates":[33.529,36.509]}},{"type":"Feature","id":"lr12","properties":{"ko":"WĀDī ABŪ H̱AWĀYAH","en":"WĀDī ABŪ H̱AWĀYAH","km":106.8,"rank":1},"geometry":{"type":"Point","coordinates":[37.781,30.141]}},{"type":"Feature","id":"lr13","properties":{"ko":"Jashat al Adla","en":"Jashat al Adla","km":106.5,"rank":1},"geometry":{"type":"Point","coordinates":[36.955,31.482]}},{"type":"Feature","id":"lr14","properties":{"ko":"Wadi al Buruk","en":"Wadi al Buruk","km":106.3,"rank":1},"geometry":{"type":"Point","coordinates":[33.446,29.924]}},{"type":"Feature","id":"lr15","properties":{"ko":"Wadi Umm Arta","en":"Wadi Umm Arta","km":101.1,"rank":1},"geometry":{"type":"Point","coordinates":[38.159,29.925]}},{"type":"Feature","id":"lr16","properties":{"ko":"Wadi Ghada","en":"Wadi Ghada","km":99.3,"rank":1},"geometry":{"type":"Point","coordinates":[38.079,29.691]}},{"type":"Feature","id":"lr17","properties":{"ko":"Wadi al Ghinah","en":"Wadi al Ghinah","km":95.5,"rank":1},"geometry":{"type":"Point","coordinates":[38.222,30.278]}},{"type":"Feature","id":"lr18","properties":{"ko":"Wadi al Ghudaywiyat","en":"Wadi al Ghudaywiyat","km":93.9,"rank":1},"geometry":{"type":"Point","coordinates":[36.71,29.81]}},{"type":"Feature","id":"lr19","properties":{"ko":"Wadi ad Dumaythah Umm Mahfur","en":"Wadi ad Dumaythah Umm Mahfur","km":92.8,"rank":1},"geometry":{"type":"Point","coordinates":[38.378,31.914]}},{"type":"Feature","id":"lr20","properties":{"ko":"Gharisat Umm Ghudran","en":"Gharisat Umm Ghudran","km":92.0,"rank":1},"geometry":{"type":"Point","coordinates":[39.157,30.175]}},{"type":"Feature","id":"lr21","properties":{"ko":"Wadi Fakk Abu Dureisa","en":"Wadi Fakk Abu Dureisa","km":89.2,"rank":1},"geometry":{"type":"Point","coordinates":[37.48,30.653]}},{"type":"Feature","id":"lr22","properties":{"ko":"바란 시내","en":"Nahal Paran","km":85.8,"rank":1},"geometry":{"type":"Point","coordinates":[34.922,30.34]}},{"type":"Feature","id":"lr23","properties":{"ko":"네카롯 시내","en":"Nahal Nekarot","km":82.5,"rank":1},"geometry":{"type":"Point","coordinates":[34.982,30.587]}},{"type":"Feature","id":"lr24","properties":{"ko":"Wadi al Qaltah","en":"Wadi al Qaltah","km":81.7,"rank":1},"geometry":{"type":"Point","coordinates":[38.415,30.815]}},{"type":"Feature","id":"lr25","properties":{"ko":"Duwaykhilat Turayf","en":"Duwaykhilat Turayf","km":79.0,"rank":1},"geometry":{"type":"Point","coordinates":[38.544,31.628]}},{"type":"Feature","id":"lr26","properties":{"ko":"Wadi at Tarbah","en":"Wadi at Tarbah","km":78.1,"rank":1},"geometry":{"type":"Point","coordinates":[39.007,30.836]}},{"type":"Feature","id":"lr27","properties":{"ko":"Wadi as Sandalah","en":"Wadi as Sandalah","km":77.7,"rank":1},"geometry":{"type":"Point","coordinates":[38.865,30.628]}},{"type":"Feature","id":"lr28","properties":{"ko":"Wadi Suada al Barsa","en":"Wadi Suada al Barsa","km":76.8,"rank":1},"geometry":{"type":"Point","coordinates":[36.451,29.592]}},{"type":"Feature","id":"lr29","properties":{"ko":"Wadi Mudaysis","en":"Wadi Mudaysis","km":75.5,"rank":1},"geometry":{"type":"Point","coordinates":[36.894,31.205]}},{"type":"Feature","id":"lr30","properties":{"ko":"Wadi Abu Muzrayqat","en":"Wadi Abu Muzrayqat","km":73.0,"rank":1},"geometry":{"type":"Point","coordinates":[34.01,30.449]}},{"type":"Feature","id":"lr31","properties":{"ko":"Wadi al Hasah","en":"Wadi al Hasah","km":69.9,"rank":1},"geometry":{"type":"Point","coordinates":[37.505,30.778]}},{"type":"Feature","id":"lr32","properties":{"ko":"Wadi Abu Treifia","en":"Wadi Abu Treifia","km":69.4,"rank":1},"geometry":{"type":"Point","coordinates":[33.769,29.686]}},{"type":"Feature","id":"lr33","properties":{"ko":"An Najili","en":"An Najili","km":67.0,"rank":1},"geometry":{"type":"Point","coordinates":[37.672,29.423]}},{"type":"Feature","id":"lr34","properties":{"ko":"와디 우카바","en":"Wadi Uqabah","km":66.8,"rank":1},"geometry":{"type":"Point","coordinates":[34.027,29.949]}},{"type":"Feature","id":"lr35","properties":{"ko":"WĀDī GHUḎAYY","en":"WĀDī GHUḎAYY","km":65.8,"rank":1},"geometry":{"type":"Point","coordinates":[37.773,29.534]}},{"type":"Feature","id":"lr36","properties":{"ko":"Wadi ad Dasm","en":"Wadi ad Dasm","km":65.5,"rank":1},"geometry":{"type":"Point","coordinates":[38.621,30.875]}},{"type":"Feature","id":"lr37","properties":{"ko":"와디 페이란","en":"Wadi Feiran","km":64.5,"rank":1},"geometry":{"type":"Point","coordinates":[33.522,28.778]}},{"type":"Feature","id":"lr38","properties":{"ko":"하스바니강","en":"Hasbani River","km":64.4,"rank":1},"geometry":{"type":"Point","coordinates":[35.718,33.447]}},{"type":"Feature","id":"lr39","properties":{"ko":"Wadi al Mushawwah","en":"Wadi al Mushawwah","km":63.2,"rank":1},"geometry":{"type":"Point","coordinates":[37.686,30.581]}},{"type":"Feature","id":"lr40","properties":{"ko":"Wadi al Qariya","en":"Wadi al Qariya","km":63.1,"rank":1},"geometry":{"type":"Point","coordinates":[34.122,30.29]}},{"type":"Feature","id":"lr41","properties":{"ko":"WĀDī ABŪ BA‘AYTHARĀN","en":"WĀDī ABŪ BA‘AYTHARĀN","km":61.3,"rank":1},"geometry":{"type":"Point","coordinates":[38.817,29.428]}},{"type":"Feature","id":"lr42","properties":{"ko":"SHIʻBĀN UMM JATHJĀTH","en":"SHIʻBĀN UMM JATHJĀTH","km":60.0,"rank":2},"geometry":{"type":"Point","coordinates":[38.602,29.484]}},{"type":"Feature","id":"lr43","properties":{"ko":"Wadi al Uitm","en":"Wadi al Uitm","km":58.0,"rank":2},"geometry":{"type":"Point","coordinates":[35.077,29.571]}},{"type":"Feature","id":"lr44","properties":{"ko":"Wadi Abu Qarazif","en":"Wadi Abu Qarazif","km":58.0,"rank":2},"geometry":{"type":"Point","coordinates":[37.303,29.797]}},{"type":"Feature","id":"lr45","properties":{"ko":"Wadi Umm Zuwayr","en":"Wadi Umm Zuwayr","km":57.0,"rank":2},"geometry":{"type":"Point","coordinates":[38.486,30.696]}},{"type":"Feature","id":"lr46","properties":{"ko":"Wadi Aheimar","en":"Wadi Aheimar","km":56.3,"rank":2},"geometry":{"type":"Point","coordinates":[35.276,29.985]}},{"type":"Feature","id":"lr47","properties":{"ko":"야르묵강","en":"Nahal Yarmukh","km":54.0,"rank":2},"geometry":{"type":"Point","coordinates":[35.724,32.724]}},{"type":"Feature","id":"lr48","properties":{"ko":"Wadi Umm Hamth","en":"Wadi Umm Hamth","km":53.5,"rank":2},"geometry":{"type":"Point","coordinates":[33.091,29.568]}},{"type":"Feature","id":"lr49","properties":{"ko":"Wadi al Mu`ayy","en":"Wadi al Mu`ayy","km":53.4,"rank":2},"geometry":{"type":"Point","coordinates":[39.307,29.413]}},{"type":"Feature","id":"lr50","properties":{"ko":"Xeros","en":"Xeros","km":52.6,"rank":2},"geometry":{"type":"Point","coordinates":[32.615,34.81]}},{"type":"Feature","id":"lr51","properties":{"ko":"Wadi Garf al Diyuf","en":"Wadi Garf al Diyuf","km":51.6,"rank":2},"geometry":{"type":"Point","coordinates":[33.973,29.344]}},{"type":"Feature","id":"lr52","properties":{"ko":"Gialias","en":"Gialias","km":50.9,"rank":2},"geometry":{"type":"Point","coordinates":[33.429,35.036]}},{"type":"Feature","id":"lr53","properties":{"ko":"Wadi al Jirani","en":"Wadi al Jirani","km":50.2,"rank":2},"geometry":{"type":"Point","coordinates":[38.328,31.85]}},{"type":"Feature","id":"lr54","properties":{"ko":"Wadi Umm Zulaykhah","en":"Wadi Umm Zulaykhah","km":49.5,"rank":2},"geometry":{"type":"Point","coordinates":[33.806,29.374]}},{"type":"Feature","id":"lr55","properties":{"ko":"Wadi Fakk Abu Thiran","en":"Wadi Fakk Abu Thiran","km":49.4,"rank":2},"geometry":{"type":"Point","coordinates":[37.588,30.656]}},{"type":"Feature","id":"lr56","properties":{"ko":"Wadi al Hajj","en":"Wadi al Hajj","km":49.2,"rank":2},"geometry":{"type":"Point","coordinates":[32.863,30.093]}},{"type":"Feature","id":"lr57","properties":{"ko":"WUDAY ‘AMR","en":"WUDAY ‘AMR","km":48.3,"rank":2},"geometry":{"type":"Point","coordinates":[39.203,31.028]}},{"type":"Feature","id":"lr58","properties":{"ko":"Diarizos","en":"Diarizos","km":48.1,"rank":2},"geometry":{"type":"Point","coordinates":[32.676,34.78]}},{"type":"Feature","id":"lr59","properties":{"ko":"SHIʻBĀN JAʻALAH","en":"SHIʻBĀN JAʻALAH","km":47.9,"rank":2},"geometry":{"type":"Point","coordinates":[38.332,29.791]}},{"type":"Feature","id":"lr60","properties":{"ko":"Wadi Hiyayyan","en":"Wadi Hiyayyan","km":46.4,"rank":2},"geometry":{"type":"Point","coordinates":[39.166,31.224]}},{"type":"Feature","id":"lr61","properties":{"ko":"Wadi Tubarjal","en":"Wadi Tubarjal","km":46.0,"rank":2},"geometry":{"type":"Point","coordinates":[38.094,30.246]}},{"type":"Feature","id":"lr62","properties":{"ko":"Wadi Sayh","en":"Wadi Sayh","km":45.9,"rank":2},"geometry":{"type":"Point","coordinates":[33.567,28.955]}},{"type":"Feature","id":"lr63","properties":{"ko":"Ezousa","en":"Ezousa","km":45.9,"rank":2},"geometry":{"type":"Point","coordinates":[32.529,34.799]}},{"type":"Feature","id":"lr64","properties":{"ko":"Nahr Abou Aali","en":"Nahr Abou Aali","km":45.4,"rank":2},"geometry":{"type":"Point","coordinates":[35.857,34.337]}},{"type":"Feature","id":"lr65","properties":{"ko":"Far Wadi al Abyad","en":"Far Wadi al Abyad","km":44.9,"rank":2},"geometry":{"type":"Point","coordinates":[37.697,30.407]}},{"type":"Feature","id":"lr66","properties":{"ko":"Chapotami","en":"Chapotami","km":44.9,"rank":2},"geometry":{"type":"Point","coordinates":[32.736,34.756]}},{"type":"Feature","id":"lr67","properties":{"ko":"페디에오스강","en":"Pedieos","km":44.6,"rank":2},"geometry":{"type":"Point","coordinates":[33.29,35.095]}},{"type":"Feature","id":"lr68","properties":{"ko":"Wadi Tawqah","en":"Wadi Tawqah","km":44.5,"rank":2},"geometry":{"type":"Point","coordinates":[38.946,30.966]}},{"type":"Feature","id":"lr69","properties":{"ko":"WĀDī SI‘D AL BARS̱Ā’","en":"WĀDī SI‘D AL BARS̱Ā’","km":44.4,"rank":2},"geometry":{"type":"Point","coordinates":[36.531,29.525]}},{"type":"Feature","id":"lr70","properties":{"ko":"Wādī aş Şawt","en":"Wādī aş Şawt","km":44.0,"rank":2},"geometry":{"type":"Point","coordinates":[37.869,33.99]}},{"type":"Feature","id":"lr71","properties":{"ko":"TALʻAT AL KH̱AṮĪMAH̱","en":"TALʻAT AL KH̱AṮĪMAH̱","km":43.9,"rank":2},"geometry":{"type":"Point","coordinates":[39.12,31.871]}},{"type":"Feature","id":"lr72","properties":{"ko":"Wadi Abu Buthayran","en":"Wadi Abu Buthayran","km":43.5,"rank":2},"geometry":{"type":"Point","coordinates":[34.666,29.786]}},{"type":"Feature","id":"lr73","properties":{"ko":"WĀDī AL ‘ARAY‘ARAYYĀT","en":"WĀDī AL ‘ARAY‘ARAYYĀT","km":43.1,"rank":2},"geometry":{"type":"Point","coordinates":[37.352,29.149]}},{"type":"Feature","id":"lr74","properties":{"ko":"Al Mabiyah","en":"Al Mabiyah","km":42.9,"rank":2},"geometry":{"type":"Point","coordinates":[37.938,31.007]}},{"type":"Feature","id":"lr75","properties":{"ko":"Wadi al Ghuwayl","en":"Wadi al Ghuwayl","km":42.8,"rank":2},"geometry":{"type":"Point","coordinates":[38.155,30.343]}},{"type":"Feature","id":"lr76","properties":{"ko":"Wadi Hamra","en":"Wadi Hamra","km":42.2,"rank":2},"geometry":{"type":"Point","coordinates":[34.397,29.031]}},{"type":"Feature","id":"lr77","properties":{"ko":"Fir Wadi Ghadir al Sheikh","en":"Fir Wadi Ghadir al Sheikh","km":42.0,"rank":2},"geometry":{"type":"Point","coordinates":[38.869,32.065]}},{"type":"Feature","id":"lr78","properties":{"ko":"WĀDī AL FīHAH","en":"WĀDī AL FīHAH","km":41.8,"rank":2},"geometry":{"type":"Point","coordinates":[36.926,29.741]}},{"type":"Feature","id":"lr79","properties":{"ko":"WĀDī DĀBIS","en":"WĀDī DĀBIS","km":40.9,"rank":2},"geometry":{"type":"Point","coordinates":[37.369,29.245]}},{"type":"Feature","id":"lr80","properties":{"ko":"WĀDī ABŪ ṮURAYFīYAH","en":"WĀDī ABŪ ṮURAYFīYAH","km":40.6,"rank":2},"geometry":{"type":"Point","coordinates":[37.099,29.63]}},{"type":"Feature","id":"lr81","properties":{"ko":"Wadi Zaghrah","en":"Wadi Zaghrah","km":40.1,"rank":2},"geometry":{"type":"Point","coordinates":[34.187,28.624]}},{"type":"Feature","id":"lr82","properties":{"ko":"Umm Nukhaylah","en":"Umm Nukhaylah","km":39.9,"rank":2},"geometry":{"type":"Point","coordinates":[38.582,29.577]}},{"type":"Feature","id":"lr83","properties":{"ko":"와디 앗사라","en":"Wadi al Sarah","km":39.5,"rank":2},"geometry":{"type":"Point","coordinates":[35.828,30.845]}},{"type":"Feature","id":"lr84","properties":{"ko":"Wadi al Luwayziyah","en":"Wadi al Luwayziyah","km":39.2,"rank":2},"geometry":{"type":"Point","coordinates":[39.0,31.041]}},{"type":"Feature","id":"lr85","properties":{"ko":"WĀDī SI‘D AL H̱AMRĀ’","en":"WĀDī SI‘D AL H̱AMRĀ’","km":38.7,"rank":2},"geometry":{"type":"Point","coordinates":[36.783,29.528]}},{"type":"Feature","id":"lr86","properties":{"ko":"Wadi al Hasana","en":"Wadi al Hasana","km":38.5,"rank":2},"geometry":{"type":"Point","coordinates":[33.786,30.835]}},{"type":"Feature","id":"lr87","properties":{"ko":"WĀDī AL BUWAYB","en":"WĀDī AL BUWAYB","km":38.0,"rank":2},"geometry":{"type":"Point","coordinates":[36.443,29.383]}},{"type":"Feature","id":"lr88","properties":{"ko":"WĀDī ASH SHAHABĀ’","en":"WĀDī ASH SHAHABĀ’","km":37.8,"rank":2},"geometry":{"type":"Point","coordinates":[38.509,29.074]}},{"type":"Feature","id":"lr89","properties":{"ko":"Wadi Abu Gharisah","en":"Wadi Abu Gharisah","km":37.4,"rank":2},"geometry":{"type":"Point","coordinates":[37.738,31.443]}},{"type":"Feature","id":"lr90","properties":{"ko":"자흐라니강","en":"Nahr ez Zahrani","km":36.2,"rank":2},"geometry":{"type":"Point","coordinates":[35.472,33.437]}},{"type":"Feature","id":"lr91","properties":{"ko":"Aloupós","en":"Aloupós","km":35.9,"rank":2},"geometry":{"type":"Point","coordinates":[33.091,35.254]}},{"type":"Feature","id":"lr92","properties":{"ko":"Wadi Ghurundel","en":"Wadi Ghurundel","km":35.8,"rank":2},"geometry":{"type":"Point","coordinates":[33.01,29.333]}},{"type":"Feature","id":"lr93","properties":{"ko":"WĀDī AS SĀ’ILAH","en":"WĀDī AS SĀ’ILAH","km":35.6,"rank":2},"geometry":{"type":"Point","coordinates":[38.398,28.341]}},{"type":"Feature","id":"lr94","properties":{"ko":"WĀDī ABŪ ‘ALDĀ","en":"WĀDī ABŪ ‘ALDĀ","km":35.3,"rank":2},"geometry":{"type":"Point","coordinates":[37.408,29.487]}},{"type":"Feature","id":"lr95","properties":{"ko":"Skylloúra","en":"Skylloúra","km":35.3,"rank":2},"geometry":{"type":"Point","coordinates":[33.136,35.182]}},{"type":"Feature","id":"lr96","properties":{"ko":"Wadi Zulaykhah","en":"Wadi Zulaykhah","km":35.0,"rank":2},"geometry":{"type":"Point","coordinates":[34.058,28.907]}},{"type":"Feature","id":"lr97","properties":{"ko":"Wadi al Qureis","en":"Wadi al Qureis","km":33.6,"rank":2},"geometry":{"type":"Point","coordinates":[34.215,29.631]}},{"type":"Feature","id":"lr98","properties":{"ko":"Nahr El Kabir","en":"Nahr El Kabir","km":31.9,"rank":2},"geometry":{"type":"Point","coordinates":[36.245,34.636]}},{"type":"Feature","id":"lr99","properties":{"ko":"Wadi Birrah","en":"Wadi Birrah","km":30.9,"rank":2},"geometry":{"type":"Point","coordinates":[33.802,28.766]}},{"type":"Feature","id":"lr100","properties":{"ko":"WĀDī FAKK","en":"WĀDī FAKK","km":30.8,"rank":2},"geometry":{"type":"Point","coordinates":[37.781,30.807]}},{"type":"Feature","id":"lr101","properties":{"ko":"Rijlat ash Sharari","en":"Rijlat ash Sharari","km":30.7,"rank":2},"geometry":{"type":"Point","coordinates":[37.867,31.309]}},{"type":"Feature","id":"lr102","properties":{"ko":"다무르강","en":"Nahr ed Damour","km":30.7,"rank":2},"geometry":{"type":"Point","coordinates":[35.523,33.707]}},{"type":"Feature","id":"lr103","properties":{"ko":"Wadi el-Sheikh","en":"Wadi el-Sheikh","km":30.5,"rank":2},"geometry":{"type":"Point","coordinates":[33.805,28.629]}},{"type":"Feature","id":"lr104","properties":{"ko":"Wadi Ghudayy","en":"Wadi Ghudayy","km":30.3,"rank":2},"geometry":{"type":"Point","coordinates":[37.754,29.561]}},{"type":"Feature","id":"lr105","properties":{"ko":"Wadi al Demtha","en":"Wadi al Demtha","km":30.1,"rank":2},"geometry":{"type":"Point","coordinates":[33.67,29.499]}},{"type":"Feature","id":"lr106","properties":{"ko":"Wadi Abu Najaylah","en":"Wadi Abu Najaylah","km":30.0,"rank":2},"geometry":{"type":"Point","coordinates":[38.031,31.097]}},{"type":"Feature","id":"lr107","properties":{"ko":"그자옐강","en":"Ghzayyel River","km":29.9,"rank":2},"geometry":{"type":"Point","coordinates":[35.862,33.733]}},{"type":"Feature","id":"lr108","properties":{"ko":"Wadi Samra","en":"Wadi Samra","km":29.7,"rank":2},"geometry":{"type":"Point","coordinates":[33.307,28.981]}},{"type":"Feature","id":"lr109","properties":{"ko":"Wadi Umm Asheirah","en":"Wadi Umm Asheirah","km":29.6,"rank":2},"geometry":{"type":"Point","coordinates":[33.806,28.486]}},{"type":"Feature","id":"lr110","properties":{"ko":"Wadi Abu Sharib","en":"Wadi Abu Sharib","km":29.6,"rank":2},"geometry":{"type":"Point","coordinates":[37.082,29.467]}},{"type":"Feature","id":"lr111","properties":{"ko":"Wadi Kulwah","en":"Wadi Kulwah","km":29.5,"rank":2},"geometry":{"type":"Point","coordinates":[37.562,29.778]}},{"type":"Feature","id":"lr112","properties":{"ko":"Wadi Abu Mutamir","en":"Wadi Abu Mutamir","km":29.3,"rank":2},"geometry":{"type":"Point","coordinates":[34.227,30.236]}},{"type":"Feature","id":"lr113","properties":{"ko":"WĀDī AL QĀSIMAH","en":"WĀDī AL QĀSIMAH","km":28.9,"rank":2},"geometry":{"type":"Point","coordinates":[37.838,29.807]}},{"type":"Feature","id":"lr114","properties":{"ko":"Wadi Husaydat Umm Ghurubat","en":"Wadi Husaydat Umm Ghurubat","km":28.4,"rank":2},"geometry":{"type":"Point","coordinates":[37.104,31.35]}},{"type":"Feature","id":"lr115","properties":{"ko":"Wadi al Rutami","en":"Wadi al Rutami","km":28.4,"rank":2},"geometry":{"type":"Point","coordinates":[37.34,31.556]}},{"type":"Feature","id":"lr116","properties":{"ko":"Wadi al Fiyad","en":"Wadi al Fiyad","km":28.2,"rank":2},"geometry":{"type":"Point","coordinates":[38.036,30.485]}},{"type":"Feature","id":"lr117","properties":{"ko":"DABIL ʻĀS̱Ī","en":"DABIL ʻĀS̱Ī","km":28.0,"rank":2},"geometry":{"type":"Point","coordinates":[38.027,31.794]}},{"type":"Feature","id":"lr118","properties":{"ko":"Wadi al Qasimah","en":"Wadi al Qasimah","km":27.9,"rank":2},"geometry":{"type":"Point","coordinates":[37.822,29.607]}},{"type":"Feature","id":"lr119","properties":{"ko":"Wadi al Mindassah","en":"Wadi al Mindassah","km":27.9,"rank":2},"geometry":{"type":"Point","coordinates":[37.821,30.794]}},{"type":"Feature","id":"lr120","properties":{"ko":"WĀDī AL H̱IMĀRAH","en":"WĀDī AL H̱IMĀRAH","km":27.7,"rank":2},"geometry":{"type":"Point","coordinates":[36.735,29.689]}},{"type":"Feature","id":"lr121","properties":{"ko":"Wadi ar Ratami","en":"Wadi ar Ratami","km":27.7,"rank":2},"geometry":{"type":"Point","coordinates":[37.922,31.131]}},{"type":"Feature","id":"lr122","properties":{"ko":"시크마 시내","en":"Nahal Shikma","km":27.4,"rank":2},"geometry":{"type":"Point","coordinates":[34.682,31.561]}},{"type":"Feature","id":"lr123","properties":{"ko":"케비르강","en":"Nahr El Kebir","km":27.4,"rank":2},"geometry":{"type":"Point","coordinates":[36.38,34.565]}},{"type":"Feature","id":"lr124","properties":{"ko":"Wadi al Sij","en":"Wadi al Sij","km":27.0,"rank":2},"geometry":{"type":"Point","coordinates":[32.972,29.482]}},{"type":"Feature","id":"lr125","properties":{"ko":"Wadi al Gaifi","en":"Wadi al Gaifi","km":26.7,"rank":2},"geometry":{"type":"Point","coordinates":[34.354,30.602]}},{"type":"Feature","id":"lr126","properties":{"ko":"Wadi Al-Seeq","en":"Wadi Al-Seeq","km":26.6,"rank":2},"geometry":{"type":"Point","coordinates":[35.234,30.061]}},{"type":"Feature","id":"lr127","properties":{"ko":"루카드 시내","en":"Wadi Ruqqad","km":26.1,"rank":2},"geometry":{"type":"Point","coordinates":[35.818,32.793]}},{"type":"Feature","id":"lr128","properties":{"ko":"Wadi Umm Qubur","en":"Wadi Umm Qubur","km":25.0,"rank":2},"geometry":{"type":"Point","coordinates":[37.59,30.925]}},{"type":"Feature","id":"lr129","properties":{"ko":"Karkotis","en":"Karkotis","km":25.0,"rank":3},"geometry":{"type":"Point","coordinates":[32.886,35.051]}},{"type":"Feature","id":"lr130","properties":{"ko":"WĀDī ASH SHAHAYBĀ'","en":"WĀDī ASH SHAHAYBĀ'","km":24.8,"rank":3},"geometry":{"type":"Point","coordinates":[37.311,29.266]}},{"type":"Feature","id":"lr131","properties":{"ko":"브엘세바 시내","en":"Nahal Beersheba","km":24.2,"rank":3},"geometry":{"type":"Point","coordinates":[34.67,31.206]}},{"type":"Feature","id":"lr132","properties":{"ko":"Wadi al Mabiyah","en":"Wadi al Mabiyah","km":24.2,"rank":3},"geometry":{"type":"Point","coordinates":[38.1,31.107]}},{"type":"Feature","id":"lr133","properties":{"ko":"WĀDī AL ASMAR","en":"WĀDī AL ASMAR","km":23.9,"rank":3},"geometry":{"type":"Point","coordinates":[37.175,29.888]}},{"type":"Feature","id":"lr134","properties":{"ko":"자이르강","en":"Nahr Jaair","km":23.5,"rank":3},"geometry":{"type":"Point","coordinates":[35.843,33.752]}},{"type":"Feature","id":"lr135","properties":{"ko":"Wadi al Kuwaykabah","en":"Wadi al Kuwaykabah","km":23.1,"rank":3},"geometry":{"type":"Point","coordinates":[37.647,29.936]}},{"type":"Feature","id":"lr136","properties":{"ko":"Kanlı Dere","en":"Kanlı Dere","km":23.0,"rank":3},"geometry":{"type":"Point","coordinates":[33.167,35.235]}},{"type":"Feature","id":"lr137","properties":{"ko":"Setrachos","en":"Setrachos","km":22.6,"rank":3},"geometry":{"type":"Point","coordinates":[32.835,35.052]}},{"type":"Feature","id":"lr138","properties":{"ko":"SHAʻĪB AL MIQYĀL","en":"SHAʻĪB AL MIQYĀL","km":22.4,"rank":3},"geometry":{"type":"Point","coordinates":[37.569,29.535]}},{"type":"Feature","id":"lr139","properties":{"ko":"Akaki","en":"Akaki","km":22.3,"rank":3},"geometry":{"type":"Point","coordinates":[33.175,35.088]}},{"type":"Feature","id":"lr140","properties":{"ko":"Hala-Yahfoufa River","en":"Hala-Yahfoufa River","km":22.2,"rank":3},"geometry":{"type":"Point","coordinates":[36.075,33.857]}},{"type":"Feature","id":"lr141","properties":{"ko":"Wadi Witr","en":"Wadi Witr","km":22.1,"rank":3},"geometry":{"type":"Point","coordinates":[33.345,28.866]}},{"type":"Feature","id":"lr142","properties":{"ko":"Berdawni River","en":"Berdawni River","km":22.0,"rank":3},"geometry":{"type":"Point","coordinates":[35.896,33.852]}},{"type":"Feature","id":"lr143","properties":{"ko":"SHAʻĪB ABŪ NAJM","en":"SHAʻĪB ABŪ NAJM","km":21.8,"rank":3},"geometry":{"type":"Point","coordinates":[37.65,30.777]}},{"type":"Feature","id":"lr144","properties":{"ko":"Wadi Abu Handal","en":"Wadi Abu Handal","km":21.5,"rank":3},"geometry":{"type":"Point","coordinates":[37.518,29.851]}},{"type":"Feature","id":"lr145","properties":{"ko":"SHAʻĪB AS̱ S̱AFĀWĪ","en":"SHAʻĪB AS̱ S̱AFĀWĪ","km":21.4,"rank":3},"geometry":{"type":"Point","coordinates":[38.861,31.919]}},{"type":"Feature","id":"lr146","properties":{"ko":"Wadi Tayiba","en":"Wadi Tayiba","km":21.0,"rank":3},"geometry":{"type":"Point","coordinates":[33.102,29.122]}},{"type":"Feature","id":"lr147","properties":{"ko":"Wadi Abu Gada","en":"Wadi Abu Gada","km":20.6,"rank":3},"geometry":{"type":"Point","coordinates":[33.214,29.335]}},{"type":"Feature","id":"lr148","properties":{"ko":"Chtoura River","en":"Chtoura River","km":20.4,"rank":3},"geometry":{"type":"Point","coordinates":[35.849,33.853]}},{"type":"Feature","id":"lr149","properties":{"ko":"SHAʻĪB DĀFINAH","en":"SHAʻĪB DĀFINAH","km":19.8,"rank":3},"geometry":{"type":"Point","coordinates":[37.838,30.577]}},{"type":"Feature","id":"lr150","properties":{"ko":"Peristerona","en":"Peristerona","km":19.7,"rank":3},"geometry":{"type":"Point","coordinates":[33.091,35.091]}},{"type":"Feature","id":"lr151","properties":{"ko":"Wadi al Masak","en":"Wadi al Masak","km":19.4,"rank":3},"geometry":{"type":"Point","coordinates":[34.604,29.029]}},{"type":"Feature","id":"lr152","properties":{"ko":"WĀDī ABŪ GHAḎĀ’","en":"WĀDī ABŪ GHAḎĀ’","km":19.4,"rank":3},"geometry":{"type":"Point","coordinates":[36.798,29.528]}},{"type":"Feature","id":"lr153","properties":{"ko":"Wadi Semyer","en":"Wadi Semyer","km":19.2,"rank":3},"geometry":{"type":"Point","coordinates":[32.763,29.528]}},{"type":"Feature","id":"lr154","properties":{"ko":"Tremythos","en":"Tremythos","km":19.1,"rank":3},"geometry":{"type":"Point","coordinates":[33.522,34.914]}},{"type":"Feature","id":"lr155","properties":{"ko":"사파강","en":"Nahr El Safa","km":18.9,"rank":3},"geometry":{"type":"Point","coordinates":[35.626,33.713]}},{"type":"Feature","id":"lr156","properties":{"ko":"Wadi al Khawr","en":"Wadi al Khawr","km":18.8,"rank":3},"geometry":{"type":"Point","coordinates":[39.121,32.022]}},{"type":"Feature","id":"lr157","properties":{"ko":"Garyllis","en":"Garyllis","km":18.7,"rank":3},"geometry":{"type":"Point","coordinates":[32.983,34.722]}},{"type":"Feature","id":"lr158","properties":{"ko":"와디 자이스","en":"Wadi Jais","km":18.6,"rank":3},"geometry":{"type":"Point","coordinates":[35.742,30.903]}},{"type":"Feature","id":"lr159","properties":{"ko":"SHAʻĪB ABŪ ṮURAYFĪYAH","en":"SHAʻĪB ABŪ ṮURAYFĪYAH","km":18.3,"rank":3},"geometry":{"type":"Point","coordinates":[37.437,29.685]}},{"type":"Feature","id":"lr160","properties":{"ko":"Wadi Umm Laban","en":"Wadi Umm Laban","km":18.3,"rank":3},"geometry":{"type":"Point","coordinates":[36.924,29.684]}},{"type":"Feature","id":"lr161","properties":{"ko":"바루크강","en":"Nahr El Barouk","km":18.0,"rank":3},"geometry":{"type":"Point","coordinates":[35.621,33.667]}},{"type":"Feature","id":"lr162","properties":{"ko":"Pyrgos","en":"Pyrgos","km":18.0,"rank":3},"geometry":{"type":"Point","coordinates":[32.69,35.114]}},{"type":"Feature","id":"lr163","properties":{"ko":"야르콘강","en":"Nahal Yarkon","km":17.9,"rank":3},"geometry":{"type":"Point","coordinates":[34.875,32.121]}},{"type":"Feature","id":"lr164","properties":{"ko":"Wadi al Bayda","en":"Wadi al Bayda","km":17.5,"rank":3},"geometry":{"type":"Point","coordinates":[34.345,30.036]}},{"type":"Feature","id":"lr165","properties":{"ko":"Sha`ib Quraymiz","en":"Sha`ib Quraymiz","km":17.4,"rank":3},"geometry":{"type":"Point","coordinates":[39.305,29.946]}},{"type":"Feature","id":"lr166","properties":{"ko":"Akhasi","en":"Akhasi","km":17.4,"rank":3},"geometry":{"type":"Point","coordinates":[33.038,35.003]}},{"type":"Feature","id":"lr167","properties":{"ko":"SHAʻĪB AL MAʻDĀ","en":"SHAʻĪB AL MAʻDĀ","km":17.2,"rank":3},"geometry":{"type":"Point","coordinates":[39.311,31.376]}},{"type":"Feature","id":"lr168","properties":{"ko":"Wadi Umm Rujm","en":"Wadi Umm Rujm","km":16.5,"rank":3},"geometry":{"type":"Point","coordinates":[34.286,29.512]}},{"type":"Feature","id":"lr169","properties":{"ko":"Wadi Wadeiyet al Kabir","en":"Wadi Wadeiyet al Kabir","km":16.3,"rank":3},"geometry":{"type":"Point","coordinates":[33.721,28.955]}},{"type":"Feature","id":"lr170","properties":{"ko":"DABIL WUʻAYLAH","en":"DABIL WUʻAYLAH","km":16.3,"rank":3},"geometry":{"type":"Point","coordinates":[38.947,31.72]}},{"type":"Feature","id":"lr171","properties":{"ko":"Wadi al Aradah","en":"Wadi al Aradah","km":16.2,"rank":3},"geometry":{"type":"Point","coordinates":[34.527,29.089]}},{"type":"Feature","id":"lr172","properties":{"ko":"Wadi al Homur","en":"Wadi al Homur","km":16.2,"rank":3},"geometry":{"type":"Point","coordinates":[33.32,29.143]}},{"type":"Feature","id":"lr173","properties":{"ko":"아왈리강","en":"Nahr El Awali","km":16.0,"rank":3},"geometry":{"type":"Point","coordinates":[35.521,33.582]}},{"type":"Feature","id":"lr174","properties":{"ko":"Likythia","en":"Likythia","km":16.0,"rank":3},"geometry":{"type":"Point","coordinates":[33.124,35.09]}},{"type":"Feature","id":"lr175","properties":{"ko":"Rou","en":"Rou","km":15.8,"rank":3},"geometry":{"type":"Point","coordinates":[33.06,34.979]}},{"type":"Feature","id":"lr176","properties":{"ko":"Nahr `Abbah","en":"Nahr `Abbah","km":15.8,"rank":3},"geometry":{"type":"Point","coordinates":[35.93,34.953]}},{"type":"Feature","id":"lr177","properties":{"ko":"Serrachis","en":"Serrachis","km":15.6,"rank":3},"geometry":{"type":"Point","coordinates":[33.014,35.194]}},{"type":"Feature","id":"lr178","properties":{"ko":"WĀDī H̱US̱AYYIDAH UMM NAKHLAH","en":"WĀDī H̱US̱AYYIDAH UMM NAKHLAH","km":15.4,"rank":3},"geometry":{"type":"Point","coordinates":[37.367,31.194]}},{"type":"Feature","id":"lr179","properties":{"ko":"WĀDī AL MALĀWīH̱","en":"WĀDī AL MALĀWīH̱","km":15.0,"rank":3},"geometry":{"type":"Point","coordinates":[37.462,29.362]}},{"type":"Feature","id":"lr180","properties":{"ko":"하피르강","en":"Hafir River","km":15.0,"rank":3},"geometry":{"type":"Point","coordinates":[35.823,33.762]}},{"type":"Feature","id":"lr181","properties":{"ko":"WĀDī ABŪ ‘AWĀDHIR","en":"WĀDī ABŪ ‘AWĀDHIR","km":14.9,"rank":3},"geometry":{"type":"Point","coordinates":[36.789,29.789]}},{"type":"Feature","id":"lr182","properties":{"ko":"사이니크강","en":"Sayniq River","km":14.8,"rank":3},"geometry":{"type":"Point","coordinates":[35.43,33.523]}},{"type":"Feature","id":"lr183","properties":{"ko":"와디 사프라","en":"Wadi Safra","km":14.7,"rank":3},"geometry":{"type":"Point","coordinates":[35.708,30.918]}},{"type":"Feature","id":"lr184","properties":{"ko":"Wadi Umm Urtah","en":"Wadi Umm Urtah","km":14.6,"rank":3},"geometry":{"type":"Point","coordinates":[37.678,30.128]}},{"type":"Feature","id":"lr185","properties":{"ko":"Kyparissia","en":"Kyparissia","km":14.6,"rank":3},"geometry":{"type":"Point","coordinates":[33.112,34.81]}},{"type":"Feature","id":"lr186","properties":{"ko":"Wadi Khalla","en":"Wadi Khalla","km":14.5,"rank":3},"geometry":{"type":"Point","coordinates":[34.476,28.772]}},{"type":"Feature","id":"lr187","properties":{"ko":"Wadi Mabar","en":"Wadi Mabar","km":14.2,"rank":3},"geometry":{"type":"Point","coordinates":[33.586,28.355]}},{"type":"Feature","id":"lr188","properties":{"ko":"알렉산더 시내","en":"Nahal Alexander","km":14.2,"rank":3},"geometry":{"type":"Point","coordinates":[34.911,32.37]}},{"type":"Feature","id":"lr189","properties":{"ko":"Krios","en":"Krios","km":14.0,"rank":3},"geometry":{"type":"Point","coordinates":[32.889,34.768]}},{"type":"Feature","id":"lr190","properties":{"ko":"Jaouz River","en":"Jaouz River","km":13.7,"rank":3},"geometry":{"type":"Point","coordinates":[35.786,34.249]}},{"type":"Feature","id":"lr191","properties":{"ko":"Al Khashshabiyah","en":"Al Khashshabiyah","km":13.6,"rank":3},"geometry":{"type":"Point","coordinates":[38.513,30.628]}},{"type":"Feature","id":"lr192","properties":{"ko":"SHAʻĪB AD DUMAYTHAH","en":"SHAʻĪB AD DUMAYTHAH","km":13.6,"rank":3},"geometry":{"type":"Point","coordinates":[38.486,31.863]}},{"type":"Feature","id":"lr193","properties":{"ko":"Asinou","en":"Asinou","km":13.5,"rank":3},"geometry":{"type":"Point","coordinates":[32.971,35.046]}},{"type":"Feature","id":"lr194","properties":{"ko":"Koutis","en":"Koutis","km":13.3,"rank":3},"geometry":{"type":"Point","coordinates":[33.211,35.058]}},{"type":"Feature","id":"lr195","properties":{"ko":"Wadi Taiyiba","en":"Wadi Taiyiba","km":13.2,"rank":3},"geometry":{"type":"Point","coordinates":[33.352,29.369]}},{"type":"Feature","id":"lr196","properties":{"ko":"Limnitis","en":"Limnitis","km":13.2,"rank":3},"geometry":{"type":"Point","coordinates":[32.713,35.087]}},{"type":"Feature","id":"lr197","properties":{"ko":"WĀDī QARĀQIR","en":"WĀDī QARĀQIR","km":13.0,"rank":3},"geometry":{"type":"Point","coordinates":[37.728,31.311]}},{"type":"Feature","id":"lr198","properties":{"ko":"Maroulenas","en":"Maroulenas","km":12.8,"rank":3},"geometry":{"type":"Point","coordinates":[33.127,34.954]}},{"type":"Feature","id":"lr199","properties":{"ko":"Vasilikos","en":"Vasilikos","km":12.7,"rank":3},"geometry":{"type":"Point","coordinates":[33.299,34.769]}},{"type":"Feature","id":"lr200","properties":{"ko":"Potami","en":"Potami","km":12.7,"rank":3},"geometry":{"type":"Point","coordinates":[33.028,35.107]}},{"type":"Feature","id":"lr201","properties":{"ko":"Teratsos River","en":"Teratsos River","km":12.6,"rank":3},"geometry":{"type":"Point","coordinates":[32.583,35.127]}},{"type":"Feature","id":"lr202","properties":{"ko":"Wadi Umm Jufayn","en":"Wadi Umm Jufayn","km":12.5,"rank":3},"geometry":{"type":"Point","coordinates":[37.594,29.566]}},{"type":"Feature","id":"lr203","properties":{"ko":"SHAGHĪYAT SHIṮNAH","en":"SHAGHĪYAT SHIṮNAH","km":12.5,"rank":3},"geometry":{"type":"Point","coordinates":[37.89,30.651]}},{"type":"Feature","id":"lr204","properties":{"ko":"WĀDī ABŪ NUKHAYLAH","en":"WĀDī ABŪ NUKHAYLAH","km":12.5,"rank":3},"geometry":{"type":"Point","coordinates":[38.631,31.006]}},{"type":"Feature","id":"lr205","properties":{"ko":"Wadi al Shallala","en":"Wadi al Shallala","km":12.1,"rank":3},"geometry":{"type":"Point","coordinates":[33.147,29.476]}},{"type":"Feature","id":"lr206","properties":{"ko":"와디 둘라일","en":"Wadi Dhulayl","km":12.1,"rank":3},"geometry":{"type":"Point","coordinates":[36.104,32.145]}},{"type":"Feature","id":"lr207","properties":{"ko":"Mylouri","en":"Mylouri","km":12.1,"rank":3},"geometry":{"type":"Point","coordinates":[33.098,34.938]}},{"type":"Feature","id":"lr208","properties":{"ko":"Kannavia","en":"Kannavia","km":12.0,"rank":3},"geometry":{"type":"Point","coordinates":[33.004,35.011]}},{"type":"Feature","id":"lr209","properties":{"ko":"Wadi Shamma","en":"Wadi Shamma","km":11.7,"rank":3},"geometry":{"type":"Point","coordinates":[39.201,30.638]}},{"type":"Feature","id":"lr210","properties":{"ko":"Troditissa","en":"Troditissa","km":11.7,"rank":3},"geometry":{"type":"Point","coordinates":[32.823,34.893]}},{"type":"Feature","id":"lr211","properties":{"ko":"ar Riqtan","en":"ar Riqtan","km":11.6,"rank":3},"geometry":{"type":"Point","coordinates":[39.318,31.964]}},{"type":"Feature","id":"lr212","properties":{"ko":"아얄론 시내","en":"Ayalon River","km":11.6,"rank":3},"geometry":{"type":"Point","coordinates":[34.785,32.051]}},{"type":"Feature","id":"lr213","properties":{"ko":"와디 제르카 마인","en":"Wadi Zerka Ma'in","km":11.5,"rank":3},"geometry":{"type":"Point","coordinates":[35.616,31.608]}},{"type":"Feature","id":"lr214","properties":{"ko":"Kambou","en":"Kambou","km":11.3,"rank":3},"geometry":{"type":"Point","coordinates":[32.754,35.083]}},{"type":"Feature","id":"lr215","properties":{"ko":"Wadi Marzi","en":"Wadi Marzi","km":11.2,"rank":3},"geometry":{"type":"Point","coordinates":[33.946,29.157]}},{"type":"Feature","id":"lr216","properties":{"ko":"Nahr El Bared","en":"Nahr El Bared","km":11.0,"rank":3},"geometry":{"type":"Point","coordinates":[35.987,34.477]}},{"type":"Feature","id":"lr217","properties":{"ko":"Wadi al Juhfah","en":"Wadi al Juhfah","km":10.6,"rank":3},"geometry":{"type":"Point","coordinates":[37.342,29.612]}},{"type":"Feature","id":"lr218","properties":{"ko":"Tria Yepyhria","en":"Tria Yepyhria","km":10.6,"rank":3},"geometry":{"type":"Point","coordinates":[33.148,34.962]}},{"type":"Feature","id":"lr219","properties":{"ko":"Kourris","en":"Kourris","km":10.5,"rank":3},"geometry":{"type":"Point","coordinates":[32.91,34.685]}},{"type":"Feature","id":"lr220","properties":{"ko":"Wadi Mirhash","en":"Wadi Mirhash","km":10.2,"rank":3},"geometry":{"type":"Point","coordinates":[34.178,28.306]}},{"type":"Feature","id":"lr221","properties":{"ko":"Atsas","en":"Atsas","km":10.2,"rank":3},"geometry":{"type":"Point","coordinates":[32.917,35.061]}},{"type":"Feature","id":"lr222","properties":{"ko":"SHAʻĪB AL BŪBIHĪ","en":"SHAʻĪB AL BŪBIHĪ","km":10.1,"rank":3},"geometry":{"type":"Point","coordinates":[39.367,31.397]}},{"type":"Feature","id":"lr223","properties":{"ko":"Wuday Mawt","en":"Wuday Mawt","km":10.0,"rank":3},"geometry":{"type":"Point","coordinates":[39.377,30.579]}},{"type":"Feature","id":"lr224","properties":{"ko":"Pouzis","en":"Pouzis","km":10.0,"rank":4},"geometry":{"type":"Point","coordinates":[33.506,34.837]}},{"type":"Feature","id":"lr225","properties":{"ko":"Wadi al Jarani","en":"Wadi al Jarani","km":9.9,"rank":4},"geometry":{"type":"Point","coordinates":[38.124,31.832]}},{"type":"Feature","id":"lr226","properties":{"ko":"WĀDī S̱IRMADĀ","en":"WĀDī S̱IRMADĀ","km":9.8,"rank":4},"geometry":{"type":"Point","coordinates":[36.975,29.424]}},{"type":"Feature","id":"lr227","properties":{"ko":"Partis","en":"Partis","km":9.8,"rank":4},"geometry":{"type":"Point","coordinates":[33.091,34.975]}},{"type":"Feature","id":"lr228","properties":{"ko":"Merika","en":"Merika","km":9.8,"rank":4},"geometry":{"type":"Point","coordinates":[33.185,35.134]}},{"type":"Feature","id":"lr229","properties":{"ko":"Wadi al Burj","en":"Wadi al Burj","km":9.6,"rank":4},"geometry":{"type":"Point","coordinates":[34.244,28.32]}},{"type":"Feature","id":"lr230","properties":{"ko":"Wadi Arada","en":"Wadi Arada","km":9.6,"rank":4},"geometry":{"type":"Point","coordinates":[34.261,28.993]}},{"type":"Feature","id":"lr231","properties":{"ko":"WĀDī AḎ ḎĀH̱IKīYAH","en":"WĀDī AḎ ḎĀH̱IKīYAH","km":9.6,"rank":4},"geometry":{"type":"Point","coordinates":[37.165,31.542]}},{"type":"Feature","id":"lr232","properties":{"ko":"아라이강","en":"Nahr Aray","km":9.6,"rank":4},"geometry":{"type":"Point","coordinates":[35.584,33.559]}},{"type":"Feature","id":"lr233","properties":{"ko":"라기스 시내","en":"Nahal Lakhish","km":9.3,"rank":4},"geometry":{"type":"Point","coordinates":[34.677,31.82]}},{"type":"Feature","id":"lr234","properties":{"ko":"Mylos","en":"Mylos","km":9.3,"rank":4},"geometry":{"type":"Point","coordinates":[33.365,34.877]}},{"type":"Feature","id":"lr235","properties":{"ko":"Wadi Mardi","en":"Wadi Mardi","km":9.2,"rank":4},"geometry":{"type":"Point","coordinates":[37.373,29.654]}},{"type":"Feature","id":"lr236","properties":{"ko":"WĀDī AL BA‘īTHARĀN","en":"WĀDī AL BA‘īTHARĀN","km":9.1,"rank":4},"geometry":{"type":"Point","coordinates":[38.087,29.846]}},{"type":"Feature","id":"lr237","properties":{"ko":"Kurtali Deresi","en":"Kurtali Deresi","km":8.7,"rank":4},"geometry":{"type":"Point","coordinates":[32.897,35.135]}},{"type":"Feature","id":"lr238","properties":{"ko":"Wadi al Qabr","en":"Wadi al Qabr","km":8.5,"rank":4},"geometry":{"type":"Point","coordinates":[38.703,31.527]}},{"type":"Feature","id":"lr239","properties":{"ko":"Palaiókastro","en":"Palaiókastro","km":8.5,"rank":4},"geometry":{"type":"Point","coordinates":[32.977,35.32]}},{"type":"Feature","id":"lr240","properties":{"ko":"SHAʻĪB UMM AL LUQĀʼ","en":"SHAʻĪB UMM AL LUQĀʼ","km":8.4,"rank":4},"geometry":{"type":"Point","coordinates":[37.211,29.158]}},{"type":"Feature","id":"lr241","properties":{"ko":"Vyzakia","en":"Vyzakia","km":8.4,"rank":4},"geometry":{"type":"Point","coordinates":[33.003,35.086]}},{"type":"Feature","id":"lr242","properties":{"ko":"Wadi al Hasha","en":"Wadi al Hasha","km":8.2,"rank":4},"geometry":{"type":"Point","coordinates":[34.675,29.988]}},{"type":"Feature","id":"lr243","properties":{"ko":"Dağ Deresi","en":"Dağ Deresi","km":8.2,"rank":4},"geometry":{"type":"Point","coordinates":[33.106,35.314]}},{"type":"Feature","id":"lr244","properties":{"ko":"Wadi al Jayfi","en":"Wadi al Jayfi","km":8.0,"rank":4},"geometry":{"type":"Point","coordinates":[34.197,30.655]}},{"type":"Feature","id":"lr245","properties":{"ko":"Jirani Abu Ghadir","en":"Jirani Abu Ghadir","km":8.0,"rank":4},"geometry":{"type":"Point","coordinates":[38.323,31.705]}},{"type":"Feature","id":"lr246","properties":{"ko":"Elia","en":"Elia","km":7.9,"rank":4},"geometry":{"type":"Point","coordinates":[32.937,35.128]}},{"type":"Feature","id":"lr247","properties":{"ko":"WIDYĀN ASH SHUṮṮīYĀT","en":"WIDYĀN ASH SHUṮṮīYĀT","km":7.8,"rank":4},"geometry":{"type":"Point","coordinates":[37.358,29.637]}},{"type":"Feature","id":"lr248","properties":{"ko":"Abraham River","en":"Abraham River","km":7.8,"rank":4},"geometry":{"type":"Point","coordinates":[35.692,34.085]}},{"type":"Feature","id":"lr249","properties":{"ko":"Sumr Abu Talhah","en":"Sumr Abu Talhah","km":7.7,"rank":4},"geometry":{"type":"Point","coordinates":[37.429,31.59]}},{"type":"Feature","id":"lr250","properties":{"ko":"스닐 시내","en":"Nahal Snir (Hatsbani)","km":7.7,"rank":4},"geometry":{"type":"Point","coordinates":[35.61,33.215]}},{"type":"Feature","id":"lr251","properties":{"ko":"단 시내","en":"Nahal Dan","km":7.7,"rank":4},"geometry":{"type":"Point","coordinates":[35.639,33.221]}},{"type":"Feature","id":"lr252","properties":{"ko":"와디 맛수스","en":"Wadi Madsus ash shamali","km":7.6,"rank":4},"geometry":{"type":"Point","coordinates":[35.481,30.977]}},{"type":"Feature","id":"lr253","properties":{"ko":"Wadi Butayn al Misma'","en":"Wadi Butayn al Misma'","km":7.6,"rank":4},"geometry":{"type":"Point","coordinates":[38.027,30.929]}},{"type":"Feature","id":"lr254","properties":{"ko":"WĀDī ATH THUMAYD","en":"WĀDī ATH THUMAYD","km":7.1,"rank":4},"geometry":{"type":"Point","coordinates":[37.417,29.832]}},{"type":"Feature","id":"lr255","properties":{"ko":"TALʻAT ZĀYID","en":"TALʻAT ZĀYID","km":7.0,"rank":4},"geometry":{"type":"Point","coordinates":[37.052,29.48]}},{"type":"Feature","id":"lr256","properties":{"ko":"JIḎAYʻAT H̱IDRIJ","en":"JIḎAYʻAT H̱IDRIJ","km":7.0,"rank":4},"geometry":{"type":"Point","coordinates":[37.712,30.327]}},{"type":"Feature","id":"lr257","properties":{"ko":"가지리강","en":"Nahr el Ghaziri","km":7.0,"rank":4},"geometry":{"type":"Point","coordinates":[35.661,33.776]}},{"type":"Feature","id":"lr258","properties":{"ko":"와디 리합","en":"Wadi Rihab","km":6.6,"rank":4},"geometry":{"type":"Point","coordinates":[35.623,30.962]}},{"type":"Feature","id":"lr259","properties":{"ko":"Ceyhan","en":"Ceyhan","km":6.6,"rank":4},"geometry":{"type":"Point","coordinates":[35.573,36.594]}},{"type":"Feature","id":"lr260","properties":{"ko":"Nahr es Salîb","en":"Nahr es Salîb","km":6.5,"rank":4},"geometry":{"type":"Point","coordinates":[35.789,34.01]}},{"type":"Feature","id":"lr261","properties":{"ko":"Al Wadi","en":"Al Wadi","km":3.6,"rank":4},"geometry":{"type":"Point","coordinates":[33.611,28.305]}},{"type":"Feature","id":"lr262","properties":{"ko":"WĀDī AL ‘UDHAYRīYAH","en":"WĀDī AL ‘UDHAYRīYAH","km":1.9,"rank":4},"geometry":{"type":"Point","coordinates":[39.382,29.555]}},{"type":"Feature","id":"lr263","properties":{"ko":"Wadi Shuwayhit","en":"Wadi Shuwayhit","km":1.1,"rank":4},"geometry":{"type":"Point","coordinates":[39.387,30.818]}}]}