{"type":"FeatureCollection","features":[{"type":"Feature","id":"w0","properties":{"ko":"나일강","en":"Nile","rank":1,"parts":2},"geometry":{"type":"MultiLineString","coordinates":[[[31.768,-0.936],[32.744,-0.545],[33.259,0.379],[33.085,0.589],[32.835,1.405],[32.104,1.665],[32.344,1.914],[32.295,2.199],[31.948,2.333],[31.367,2.193],[31.515,2.476],[31.404,2.951],[31.724,3.499],[32.016,3.614],[31.588,4.101],[31.517,4.326],[31.525,4.606],[31.77,5.3],[31.774,5.702],[31.329,6.582],[30.77,7.153],[30.547,7.521],[30.508,7.88],[30.329,8.141],[30.339,8.485],[30.2,8.933],[30.46,9.489],[30.846,9.52],[31.518,9.376],[32.267,10.148],[32.244,10.369],[32.106,10.51],[32.645,11.103],[32.764,11.795],[32.796,13.004],[32.586,13.424],[32.587,13.638],[32.205,14.264],[32.196,14.637],[32.44,15.13],[32.629,16.256],[32.929,16.508],[33.635,16.825],[33.969,17.792],[33.9,18.278],[33.59,18.741],[33.539,19.173],[33.38,19.423],[33.138,19.503],[32.938,19.474],[32.306,18.89],[32.076,18.812],[32.005,18.606],[31.642,18.223],[31.296,18.015],[30.809,18.154],[30.511,18.794],[30.348,19.822],[30.575,19.967],[30.6,20.098],[30.571,20.291],[30.321,20.527],[30.37,20.774],[30.576,20.9],[30.699,21.177],[30.97,21.399],[31.544,22.252],[32.042,22.699],[32.326,22.653],[32.514,22.74],[32.855,23.208],[32.921,24.77],[32.848,25.082],[32.629,25.239],[32.502,25.483],[32.764,25.879],[32.734,26.129],[32.229,26.077],[32.015,26.2],[31.341,27.057],[30.868,27.5],[30.863,27.985],[30.74,28.23],[30.899,28.791],[31.219,29.282],[31.254,30.08],[30.855,30.354],[30.747,31.011],[30.395,31.458]],[[31.163,30.151],[31.078,30.325],[31.25,30.623],[31.245,30.932],[31.839,31.526]]]}},{"type":"Feature","id":"w1","properties":{"ko":"청나일강","en":"El Bahr el Azraq","rank":3,"parts":1},"geometry":{"type":"MultiLineString","coordinates":[[[37.179,11.036],[36.981,11.287],[37.18,11.755],[37.113,11.855],[37.197,11.906],[37.32,11.834],[37.393,11.571],[37.812,11.288],[38.462,11.037],[38.503,10.505],[38.376,10.136],[37.66,9.884],[37.308,10.04],[37.159,10.266],[36.483,10.469],[36.207,10.155],[35.72,9.998],[35.353,10.155],[35.242,10.517],[35.147,10.573],[35.161,11.14],[34.778,11.296],[34.409,11.639],[34.301,12.403],[34.157,12.534],[33.93,13.258],[33.692,13.381],[33.593,13.573],[33.657,14.109],[33.566,14.344],[33.134,15.16],[32.49,15.635]]]}},{"type":"Feature","id":"w2","properties":{"ko":"콩고강","en":"Congo","rank":2,"parts":1},"geometry":{"type":"MultiLineString","coordinates":[[[26.249,-11.743],[25.886,-11.623],[25.602,-11.247],[25.566,-11.054],[25.684,-10.969],[25.735,-10.731],[25.61,-10.507],[25.417,-10.462],[25.413,-10.137],[25.547,-9.811],[25.489,-9.587],[25.561,-9.266],[25.901,-9.204],[26.037,-8.996],[26.031,-8.792],[26.284,-8.544],[26.341,-8.313],[26.742,-8.193],[26.973,-7.9],[26.839,-7.72],[27.049,-6.991],[26.906,-6.173],[27.014,-5.286],[26.927,-4.885],[26.813,-4.662],[26.199,-4.25],[26.012,-3.958],[25.904,-3.363],[25.946,-2.89],[25.788,-2.457],[25.818,-1.286],[25.423,-0.545],[25.554,-0.036],[25.489,0.235],[25.255,0.459],[24.292,0.782],[24.178,0.924],[23.734,1.123],[22.968,1.873],[22.557,2.101],[21.721,2.158],[19.902,1.864],[19.143,1.574],[18.714,1.223],[18.436,0.944],[18.109,-0.124],[17.543,-0.775],[16.88,-1.226],[16.541,-1.84],[16.215,-2.178],[16.147,-3.464],[15.872,-3.934],[15.526,-4.088],[14.779,-4.846],[14.133,-4.945],[13.832,-5.301],[13.574,-5.316],[13.564,-5.655],[13.399,-5.841],[13.068,-5.865]]]}},{"type":"Feature","id":"w3","properties":{"ko":"우방기강","en":"Ubangi","rank":3,"parts":1},"geometry":{"type":"MultiLineString","coordinates":[[[28.586,3.596],[28.08,3.74],[27.56,3.643],[27.228,3.851],[27.089,3.544],[26.879,3.515],[26.656,4.012],[26.235,3.68],[25.916,3.705],[25.762,3.543],[25.313,3.531],[25.031,3.402],[23.545,3.845],[22.85,3.851],[22.422,4.135],[20.647,4.436],[19.807,5.089],[19.323,5.071],[19.069,4.891],[18.567,4.258],[18.622,3.304],[18.072,2.013],[18.058,1.535],[17.902,1.118],[17.888,0.234],[17.724,-0.278],[17.753,-0.549]]]}},{"type":"Feature","id":"w4","properties":{"ko":"카사이강","en":"Kasai","rank":3,"parts":1},"geometry":{"type":"MultiLineString","coordinates":[[[22.237,-11.249],[22.178,-10.892],[22.307,-10.691],[22.275,-10.259],[21.813,-9.469],[21.905,-8.693],[21.78,-7.865],[21.842,-7.421],[21.547,-6.964],[20.783,-6.366],[20.58,-5.993],[21.038,-5.339],[21.055,-4.8],[20.966,-4.611],[20.522,-4.309],[20.285,-4.39],[18.74,-3.626],[18.13,-3.412],[17.796,-3.391],[17.06,-3.059],[16.364,-3.073],[16.191,-3.194]]]}},{"type":"Feature","id":"w5","properties":{"ko":"니제르강","en":"Niger","rank":3,"parts":6},"geometry":{"type":"MultiLineString","coordinates":[[[-3.98,15.281],[-4.247,15.421],[-4.317,15.683],[-4.138,15.892],[-3.467,16.161],[-3.028,16.65],[-1.25,17.057],[-0.346,16.873],[0.003,16.17],[0.548,15.51],[0.739,15.41],[0.675,14.988],[1.362,14.28],[1.671,13.747],[2.31,13.299],[2.515,12.552],[2.718,12.519],[3.299,11.927],[4.688,10.957],[4.529,10.239],[4.654,9.312],[4.764,9.18],[5.057,9.15],[5.802,8.742],[6.291,8.71],[6.716,8.144],[6.776,7.793],[6.66,6.743],[6.741,6.202],[6.556,5.541],[6.49,5.388],[6.09,5.124],[5.476,5.154]],[[6.077,4.291],[6.078,4.71],[6.266,4.991],[6.271,4.432]],[[6.455,5.363],[6.266,4.991]],[[6.557,5.542],[6.587,5.301],[6.443,5.065],[6.709,4.607],[6.715,4.342]],[[-10.732,9.09],[-10.583,9.453],[-10.796,10.294],[-10.433,10.503],[-10.174,10.472],[-9.658,10.678],[-9.343,11.065],[-9.136,11.154],[-9.089,11.419],[-8.852,11.505],[-8.433,11.905],[-7.964,12.627],[-7.666,12.747],[-6.949,13.325],[-6.367,13.409],[-6.021,13.71],[-4.414,14.313],[-3.948,14.964],[-3.979,15.281],[-3.818,15.432],[-3.923,15.504],[-3.467,16.161]],[[-3.222,16.408],[-3.206,16.225],[-3.503,16.047]]]}},{"type":"Feature","id":"w6","properties":{"ko":"베누에강","en":"Benue","rank":4,"parts":1},"geometry":{"type":"MultiLineString","coordinates":[[[11.924,9.491],[11.249,9.23],[10.788,8.745],[10.218,8.59],[9.977,8.327],[9.141,7.892],[8.437,7.799],[7.422,8.019],[6.776,7.793]]]}},{"type":"Feature","id":"w7","properties":{"ko":"잠베지강","en":"Zambezi","rank":3,"parts":2},"geometry":{"type":"MultiLineString","coordinates":[[[24.266,-11.379],[24.308,-11.141],[24.022,-11.126],[22.915,-11.823],[22.588,-12.227],[22.544,-12.522],[22.687,-13.038],[23.023,-13.355],[23.221,-13.747],[23.218,-14.324],[22.969,-15.077],[23.292,-16.264],[24.077,-17.14],[24.238,-17.478],[24.932,-17.543],[25.259,-17.794],[25.64,-17.824],[25.863,-17.952],[26.333,-17.929],[26.78,-18.042],[27.131,-17.849],[27.932,-16.896],[28.761,-16.532],[28.913,-15.988],[29.487,-15.697],[30.796,-15.642],[31.213,-15.704],[32.925,-15.586],[33.984,-16.599],[34.844,-16.964],[35.187,-17.636],[36.105,-18.424],[36.125,-18.842]],[[36.039,-18.337],[36.498,-18.576]]]}},{"type":"Feature","id":"w8","properties":{"ko":"오렌지강","en":"Orange","rank":4,"parts":1},"geometry":{"type":"MultiLineString","coordinates":[[[29.057,-29.082],[28.721,-29.55],[28.773,-29.802],[28.645,-30.018],[28.025,-30.049],[27.657,-30.374],[27.39,-30.326],[27.283,-30.476],[26.796,-30.678],[26.103,-30.5],[25.67,-30.664],[25.212,-30.473],[24.358,-29.678],[23.984,-29.506],[23.628,-29.074],[23.539,-29.205],[23.014,-29.431],[22.812,-29.669],[22.266,-29.268],[22.122,-28.918],[21.908,-28.825],[21.586,-28.408],[21.362,-28.417],[20.827,-28.748],[20.602,-28.747],[20.21,-28.514],[19.878,-28.449],[19.54,-28.575],[19.162,-28.939],[18.103,-28.872],[17.448,-28.698],[17.359,-28.269],[17.056,-28.031],[16.875,-28.128],[16.756,-28.452],[16.448,-28.618]]]}},{"type":"Feature","id":"w9","properties":{"ko":"바알강","en":"Vaal","rank":4,"parts":1},"geometry":{"type":"MultiLineString","coordinates":[[[30.135,-26.383],[30.188,-26.56],[30.049,-26.709],[29.104,-27.042],[28.665,-26.976],[28.531,-27.043],[27.909,-26.694],[27.212,-26.936],[26.825,-26.935],[26.507,-27.115],[26.466,-27.362],[26.228,-27.46],[26.06,-27.69],[25.771,-27.601],[25.366,-27.758],[24.774,-28.149],[24.582,-28.581],[24.297,-28.432],[24.216,-28.473],[23.992,-28.882],[23.628,-29.073]]]}},{"type":"Feature","id":"w10","properties":{"ko":"림포포강","en":"Limpopo","rank":6,"parts":1},"geometry":{"type":"MultiLineString","coordinates":[[[26.962,-23.737],[27.146,-23.524],[27.758,-23.197],[28.21,-22.694],[28.84,-22.481],[29.13,-22.213],[29.663,-22.146],[30.46,-22.329],[31.073,-22.308],[31.63,-22.506],[32.188,-23.076],[32.871,-24.404],[33.431,-24.751],[33.568,-24.751],[33.631,-24.949],[33.53,-25.189]]]}},{"type":"Feature","id":"w11","properties":{"ko":"세네갈강","en":"Sénégal","rank":4,"parts":1},"geometry":{"type":"MultiLineString","coordinates":[[[-10.892,13.778],[-11.246,14.105],[-11.371,14.418],[-12.409,14.889],[-12.859,15.243],[-12.931,15.453],[-13.206,15.617],[-13.41,16.059],[-13.868,16.148],[-14.3,16.58],[-14.96,16.679],[-15.768,16.485],[-16.239,16.531],[-16.535,15.838]]]}},{"type":"Feature","id":"w12","properties":{"ko":"볼타강","en":"Volta","rank":5,"parts":1},"geometry":{"type":"MultiLineString","coordinates":[[[-0.976,8.662],[-0.726,8.362],[-0.153,7.945],[0.209,7.36],[0.099,6.188],[0.544,6.021],[0.672,5.76]]]}},{"type":"Feature","id":"w13","properties":{"ko":"차리강","en":"Chari","rank":6,"parts":2},"geometry":{"type":"MultiLineString","coordinates":[[[18.886,8.836],[18.476,9.041],[17.791,9.722],[17.372,10.296],[17.004,10.564],[16.611,10.481],[15.521,10.957],[15.322,11.495],[15.283,11.895],[15.075,12.085],[14.843,12.073],[14.519,12.298],[14.197,12.384],[14.176,12.471]],[[15.075,12.085],[14.957,12.13],[14.847,12.502],[14.545,12.82],[14.516,12.98]]]}},{"type":"Feature","id":"w14","properties":{"ko":"오카방고강","en":"Okavango","rank":6,"parts":3},"geometry":{"type":"MultiLineString","coordinates":[[[24.739,-21.265],[24.367,-20.944],[24.484,-20.406],[24.212,-20.248],[23.881,-20.282],[23.37,-20.103],[23.595,-19.735],[23.237,-19.338],[23.526,-19.521],[23.579,-19.683]],[[23.354,-19.556],[22.892,-19.473],[22.542,-19.072],[22.527,-18.942],[22.663,-19.082],[23.023,-19.111],[23.237,-19.338]],[[16.145,-12.654],[16.328,-12.821],[16.431,-13.436],[16.294,-14.493],[16.568,-14.699],[16.75,-15.166],[16.944,-15.395],[17.379,-15.555],[17.664,-16.019],[17.876,-16.637],[18.718,-17.703],[19.076,-17.818],[20.393,-17.887],[20.746,-18.02],[21.288,-17.963],[21.637,-18.097],[22.527,-18.942]]]}},{"type":"Feature","id":"w15","properties":{"ko":"주바강","en":"Jubba","rank":6,"parts":1},"geometry":{"type":"MultiLineString","coordinates":[[[41.966,4.324],[42.49,3.943],[42.542,3.795],[42.473,3.28],[42.562,3.02],[42.346,2.749],[42.316,2.388],[42.126,2.312],[42.738,0.581],[42.73,0.135],[42.585,-0.148],[42.634,-0.251]]]}},{"type":"Feature","id":"w16","properties":{"ko":"유프라테스강","en":"Euphrates","rank":3,"parts":1},"geometry":{"type":"MultiLineString","coordinates":[[[47.468,30.968],[46.483,30.903],[44.77,31.479],[44.475,31.762],[44.255,32.496],[44.254,32.828],[44.122,33.053],[43.65,33.384],[42.877,33.577],[42.73,33.865],[42.563,33.87],[42.375,34.114],[42.366,34.329],[42.122,34.302],[41.827,34.509],[40.993,34.428],[40.377,35.225],[39.833,35.683],[39.227,35.881],[38.365,35.903],[38.079,36.074],[38.272,36.558],[38.056,36.741],[37.855,37.292],[37.966,37.425],[38.813,37.645],[39.248,38.154],[39.075,38.34],[38.367,38.551],[38.45,38.714],[38.813,38.875],[38.718,39.144],[38.426,39.342],[38.488,39.445],[39.415,39.683],[40.122,39.568],[40.24,39.694],[40.169,39.895],[41.328,40.016],[41.455,40.18]]]}},{"type":"Feature","id":"w17","properties":{"ko":"티그리스강","en":"Tigris","rank":3,"parts":1},"geometry":{"type":"MultiLineString","coordinates":[[[42.377,37.062],[42.559,36.832],[42.895,36.691],[42.771,36.54],[43.258,36.205],[43.346,35.946],[43.262,35.47],[43.568,35.006],[43.854,34.194],[44.403,33.974],[44.417,33.739],[44.31,33.531],[44.397,33.293],[44.675,33.024],[45.225,32.778],[45.384,32.604],[45.809,32.502],[46.137,32.632],[46.692,32.443],[46.713,32.149],[47.139,31.826],[47.363,31.459],[47.441,30.999]]]}},{"type":"Feature","id":"w18","properties":{"ko":"샤트알아랍","en":"Shatt al Arab","rank":4,"parts":1},"geometry":{"type":"MultiLineString","coordinates":[[[47.468,30.968],[47.845,30.512],[48.331,30.285],[48.547,29.962]]]}},{"type":"Feature","id":"w19","properties":{"ko":"요단강","en":"Jordan","rank":3,"parts":1},"geometry":{"type":"MultiLineString","coordinates":[[[35.864,33.596],[35.619,33.244],[35.559,31.766],[35.401,31.23]]]}},{"type":"Feature","id":"w20","properties":{"ko":"인더스강","en":"Indus","rank":3,"parts":4},"geometry":{"type":"MultiLineString","coordinates":[[[79.735,32.444],[79.044,33.133],[78.245,33.398],[77.66,34.011],[76.388,34.639],[75.863,35.297],[75.568,35.357],[75.333,35.561],[74.83,35.694],[74.701,35.836],[74.575,35.5],[74.461,35.445],[73.423,35.538],[73.302,35.471],[73.175,35.204],[72.885,35.004],[72.955,34.845],[72.782,34.623],[72.838,34.198],[72.652,34.032],[72.297,33.959],[72.197,33.772],[72.038,33.757],[71.762,33.372],[71.651,32.994],[71.425,32.838],[71.273,32.311],[70.861,31.569],[70.77,30.811],[70.827,30.004],[70.657,29.55],[70.702,29.353],[70.612,29.023],[69.535,28.246],[68.942,27.981],[68.938,27.719],[68.826,27.678],[68.669,27.771],[68.337,27.603],[68.297,27.371],[68.194,27.342],[67.911,26.91],[67.926,26.302],[68.379,25.795],[68.352,25.139],[68.068,24.87],[67.787,24.239],[67.454,24.04]],[[67.86,23.903],[68.0,24.007],[68.037,23.848]],[[67.646,23.92],[67.713,24.066],[67.925,24.001]],[[67.713,24.066],[67.661,24.105]]]}},{"type":"Feature","id":"w21","properties":{"ko":"갠지스강","en":"Ganges","rank":3,"parts":7},"geometry":{"type":"MultiLineString","coordinates":[[[89.483,22.276],[89.372,22.581],[89.261,22.574],[89.379,22.058],[89.354,21.721]],[[88.087,22.218],[88.118,22.41],[88.344,22.629],[88.44,22.986],[88.598,22.975],[88.82,22.858],[89.051,22.093]],[[90.074,23.573],[90.127,23.252],[90.299,23.088],[90.435,22.752]],[[89.985,22.466],[90.008,22.685],[89.598,23.443],[89.109,23.992],[89.749,23.848]],[[89.3,22.619],[89.113,22.893],[88.989,23.333],[88.764,23.531],[88.864,23.856],[88.636,24.012],[88.397,24.389],[88.642,24.326],[88.77,24.144],[88.926,24.155],[89.109,23.992]],[[88.44,22.986],[88.486,23.134],[88.375,23.255],[88.345,23.53],[88.183,23.7],[88.238,24.234],[87.92,24.825],[88.145,24.486],[88.397,24.389]],[[79.841,30.888],[79.865,30.679],[79.745,30.543],[79.47,30.516],[79.232,30.301],[78.281,30.093],[78.022,29.492],[78.098,28.882],[78.43,28.146],[79.519,27.568],[80.652,26.138],[81.123,25.989],[81.458,25.646],[81.907,25.487],[82.042,25.312],[82.513,25.184],[82.879,25.142],[83.139,25.344],[83.17,25.51],[83.489,25.444],[83.6,25.584],[83.866,25.522],[84.171,25.722],[84.827,25.747],[86.237,25.303],[86.571,25.448],[86.668,25.276],[87.219,25.267],[87.444,25.394],[87.779,25.193],[87.942,24.956],[87.92,24.825]]]}},{"type":"Feature","id":"w22","properties":{"ko":"브라마푸트라강","en":"Brahmaputra","rank":2,"parts":2},"geometry":{"type":"MultiLineString","coordinates":[[[90.267,23.459],[89.744,23.859],[89.739,24.33],[89.809,24.172],[90.214,23.869],[90.244,23.735],[90.562,23.537]],[[82.4,30.411],[82.825,30.371],[83.925,29.761],[84.063,29.586],[84.392,29.525],[84.634,29.254],[84.854,29.209],[85.226,29.313],[85.592,29.204],[87.472,29.126],[87.66,29.152],[87.917,29.38],[90.082,29.36],[90.392,29.274],[90.746,29.34],[92.076,29.281],[92.465,29.231],[92.695,29.101],[93.117,29.107],[93.25,29.013],[93.568,29.178],[94.224,29.24],[94.844,29.521],[94.909,29.689],[95.171,29.876],[95.294,29.85],[95.395,29.691],[95.385,29.41],[94.944,29.09],[94.809,28.846],[95.097,28.506],[95.022,28.202],[95.291,28.127],[95.444,27.884],[95.369,27.806],[94.801,27.487],[94.443,27.014],[93.752,26.732],[93.245,26.718],[92.312,26.495],[91.644,26.164],[90.58,26.204],[90.088,26.065],[89.89,25.901],[89.699,25.49],[89.613,24.948],[89.739,24.33]]]}},{"type":"Feature","id":"w23","properties":{"ko":"야무나강","en":"Yamuna","rank":6,"parts":1},"geometry":{"type":"MultiLineString","coordinates":[[[78.34,30.915],[78.072,30.738],[77.942,30.518],[77.574,30.391],[77.528,30.203],[77.187,29.871],[77.074,29.538],[77.249,28.647],[77.489,28.374],[77.496,27.985],[77.662,27.797],[77.765,27.371],[78.986,26.762],[79.28,26.433],[79.473,26.416],[79.712,26.156],[80.524,25.87],[80.63,25.723],[80.897,25.696],[81.222,25.367],[81.399,25.289],[81.903,25.415]]]}},{"type":"Feature","id":"w24","properties":{"ko":"나르마다강","en":"Narmada","rank":6,"parts":1},"geometry":{"type":"MultiLineString","coordinates":[[[81.574,22.754],[80.832,23.04],[80.509,22.925],[80.486,22.611],[80.411,22.584],[80.29,22.75],[79.963,22.852],[79.938,23.047],[79.834,23.112],[78.672,23.038],[78.075,22.794],[77.79,22.825],[76.884,22.458],[76.615,22.248],[76.306,22.299],[73.832,21.862],[73.469,21.985],[73.235,21.908],[73.112,21.75]]]}},{"type":"Feature","id":"w25","properties":{"ko":"크리슈나강","en":"Krishna","rank":6,"parts":1},"geometry":{"type":"MultiLineString","coordinates":[[[73.796,17.992],[74.118,17.633],[74.193,17.203],[74.659,16.766],[74.66,16.602],[74.907,16.649],[75.126,16.54],[75.317,16.608],[75.443,16.448],[76.213,16.167],[77.057,16.528],[77.616,16.349],[78.193,15.956],[78.361,16.072],[78.805,16.064],[78.997,16.23],[79.157,16.235],[79.313,16.579],[79.657,16.69],[79.912,16.655],[80.121,16.768],[80.784,16.307],[80.865,15.782]]]}},{"type":"Feature","id":"w26","properties":{"ko":"메콩강","en":"Mekong","rank":2,"parts":2},"geometry":{"type":"MultiLineString","coordinates":[[[105.831,10.001],[105.311,10.535],[105.105,10.879],[104.951,11.591],[105.266,11.356],[105.21,10.89],[105.377,10.641],[105.697,10.39],[106.136,10.222]],[[96.941,31.966],[97.207,31.463],[97.188,31.134],[97.378,30.785],[97.963,30.162],[98.619,29.126],[99.175,27.071],[99.139,26.021],[99.31,25.644],[99.341,25.315],[99.939,24.762],[100.106,24.687],[100.332,24.75],[100.511,24.545],[100.529,24.211],[100.067,23.278],[100.77,22.047],[101.166,21.789],[101.147,21.582],[100.703,21.251],[100.536,20.992],[100.623,20.86],[100.249,20.73],[100.115,20.258],[100.318,20.386],[100.553,20.17],[100.653,19.825],[101.484,19.823],[102.205,20.058],[101.823,19.604],[101.886,19.372],[101.826,18.698],[101.408,18.119],[101.459,17.902],[101.564,17.821],[102.101,18.211],[102.661,17.818],[103.051,18.029],[103.288,18.408],[103.95,18.319],[104.816,17.3],[104.744,16.884],[104.819,16.466],[105.047,16.16],[105.406,15.987],[105.399,15.83],[105.641,15.657],[105.52,15.331],[105.868,15.033],[105.926,14.826],[105.832,14.158],[106.021,13.698],[105.918,13.405],[106.023,13.196],[106.018,12.428],[105.985,12.289],[105.636,12.284],[105.389,11.936],[105.025,11.845],[104.951,11.591]]]}},{"type":"Feature","id":"w27","properties":{"ko":"살윈강","en":"Salween","rank":4,"parts":1},"geometry":{"type":"MultiLineString","coordinates":[[[91.518,31.943],[91.794,31.478],[92.134,31.299],[92.428,31.486],[92.869,31.563],[94.106,31.523],[94.575,31.443],[94.531,31.251],[94.71,31.091],[95.181,31.188],[95.563,30.985],[96.283,30.873],[96.554,30.437],[96.675,30.443],[96.717,30.333],[97.29,30.032],[97.546,29.536],[97.819,29.367],[98.343,28.715],[98.474,28.22],[98.816,27.581],[98.889,27.059],[98.856,25.173],[99.089,24.317],[98.42,23.933],[98.721,23.357],[98.474,23.173],[98.513,22.988],[98.628,22.918],[98.558,22.812],[98.587,22.251],[98.742,22.065],[98.574,21.79],[98.595,21.483],[98.773,21.077],[98.508,20.951],[98.679,20.272],[97.771,19.85],[97.531,19.331],[97.457,18.852],[97.332,18.778],[97.381,18.494],[97.524,18.296],[97.632,18.29],[97.74,17.935],[97.749,17.444],[97.609,16.947],[97.668,16.552]]]}},{"type":"Feature","id":"w28","properties":{"ko":"이라와디강","en":"Ayeyarwady","rank":2,"parts":5},"geometry":{"type":"MultiLineString","coordinates":[[[97.983,28.425],[98.335,28.008],[98.302,27.73],[98.04,27.707],[98.373,26.85],[98.096,25.867],[97.86,25.641],[97.519,25.701],[97.449,25.417],[97.292,25.31],[97.29,25.1],[97.055,24.835],[97.183,24.214],[96.991,24.145],[96.561,24.344],[96.331,24.148],[96.006,23.359],[95.917,22.723],[96.009,21.907],[95.481,21.871],[95.315,21.458],[94.9,21.232],[94.74,20.854],[94.912,20.184],[95.169,19.71],[95.189,18.852],[95.067,18.588],[95.4,18.181],[95.485,17.698],[95.655,17.39],[95.6,16.902],[95.331,16.721],[94.893,16.183]],[[94.703,16.512],[94.742,16.908],[94.948,17.315],[95.52,17.908],[96.189,16.768]],[[95.481,16.814],[95.078,15.839]],[[95.6,16.902],[95.872,16.593],[95.867,16.44],[96.043,16.34]],[[95.472,17.744],[95.296,17.554],[95.335,17.379],[95.186,17.078],[95.176,16.674],[94.656,15.989]]]}},{"type":"Feature","id":"w29","properties":{"ko":"창장(양쯔강)","en":"Chang Jiang","rank":1,"parts":1},"geometry":{"type":"MultiLineString","coordinates":[[[90.795,34.3],[91.647,34.281],[92.037,34.165],[92.309,34.24],[92.993,34.1],[93.095,34.195],[93.707,34.239],[94.117,34.567],[94.661,34.741],[95.398,34.442],[96.023,33.824],[96.418,33.715],[96.702,33.516],[96.757,33.373],[97.011,33.31],[97.413,32.749],[98.209,32.33],[98.454,31.782],[98.855,31.323],[98.615,31.206],[98.947,30.711],[99.146,28.641],[99.6,27.426],[99.996,26.904],[100.232,27.399],[100.298,27.795],[100.39,27.837],[100.55,27.301],[100.45,27.169],[100.408,26.797],[100.459,26.236],[100.961,26.211],[101.734,26.599],[101.912,26.46],[101.847,26.098],[101.912,25.981],[102.489,26.341],[102.583,26.37],[102.686,26.237],[102.99,26.395],[103.042,26.523],[102.903,27.313],[103.147,27.434],[103.479,27.814],[103.484,28.161],[103.841,28.298],[103.851,28.668],[104.335,28.636],[104.753,28.817],[105.091,28.724],[105.577,28.922],[105.861,28.837],[105.865,29.025],[106.146,29.125],[106.518,29.426],[106.572,29.589],[106.802,29.588],[107.084,29.787],[107.345,29.718],[107.458,29.856],[107.634,29.873],[108.496,30.892],[109.984,31.061],[111.159,30.829],[111.538,30.287],[111.818,30.426],[112.247,30.278],[112.215,30.125],[112.363,30.018],[112.41,29.738],[112.942,29.74],[112.924,29.53],[113.097,29.456],[113.696,29.949],[113.995,30.05],[113.885,30.246],[114.032,30.253],[114.396,30.664],[114.841,30.565],[114.885,30.423],[115.504,29.879],[115.983,29.746],[116.327,29.815],[116.776,30.097],[116.9,30.399],[117.212,30.552],[117.247,30.674],[117.605,30.776],[117.844,31.124],[118.312,31.341],[118.395,31.653],[118.692,32.074],[118.961,32.203],[119.643,32.235],[120.074,31.96]]]}},{"type":"Feature","id":"w30","properties":{"ko":"황허","en":"Huang","rank":2,"parts":2},"geometry":{"type":"MultiLineString","coordinates":[[[96.164,35.13],[96.748,35.053],[97.288,34.835],[97.659,34.909],[97.763,35.088],[97.934,35.082],[98.382,34.798],[98.348,34.593],[98.469,34.445],[98.661,34.367],[98.809,34.473],[99.001,34.428],[99.123,33.915],[99.324,33.748],[99.721,33.791],[100.191,33.604],[100.33,33.757],[100.74,33.928],[100.942,33.777],[101.123,33.827],[101.663,33.679],[102.066,33.356],[102.385,33.434],[102.482,33.521],[102.206,33.897],[101.328,34.273],[100.878,34.677],[100.376,34.827],[100.166,35.424],[100.255,35.695],[100.898,36.142],[101.343,36.065],[101.763,36.152],[102.185,35.845],[102.948,35.806],[103.299,35.878],[103.232,35.97],[103.388,36.139],[103.995,36.075],[104.179,36.322],[104.713,36.628],[104.625,36.798],[104.327,36.946],[104.353,37.174],[104.998,37.461],[105.649,37.522],[105.905,37.661],[106.871,39.075],[106.718,40.016],[107.149,40.396],[107.239,40.592],[107.862,40.865],[108.389,40.816],[108.884,40.547],[110.303,40.484],[110.675,40.302],[111.125,40.235],[111.407,40.013],[111.433,39.576],[111.168,39.4],[111.199,39.24],[110.98,38.956],[110.891,38.557],[110.503,38.113],[110.782,37.614],[110.61,37.217],[110.384,37.005],[110.579,35.534],[110.316,35.135],[110.27,34.637],[110.795,34.645],[111.589,34.899],[111.844,35.074],[112.857,34.809],[113.399,34.974],[113.9,34.895],[114.681,34.928],[115.014,35.33],[115.871,35.88],[117.352,37.082],[118.128,37.347],[118.385,37.604],[119.036,37.809]],[[94.084,33.156],[94.916,33.14],[95.882,32.587],[96.183,32.562],[96.585,32.155],[96.941,31.966]]]}},{"type":"Feature","id":"w31","properties":{"ko":"시장강","en":"Xi","rank":4,"parts":4},"geometry":{"type":"MultiLineString","coordinates":[[[113.416,22.178],[113.035,22.795],[113.552,22.587]],[[112.98,23.041],[113.445,23.055]],[[113.035,22.795],[112.805,23.148],[113.09,22.907],[113.338,22.889]],[[111.301,23.481],[111.707,23.161],[112.427,23.076],[112.805,23.148]]]}},{"type":"Feature","id":"w32","properties":{"ko":"쑹화강","en":"Songhua","rank":6,"parts":1},"geometry":{"type":"MultiLineString","coordinates":[[[124.675,45.45],[124.947,45.523],[125.156,45.389],[125.745,45.495],[126.107,45.702],[126.534,45.741],[126.923,45.997],[129.036,45.899],[130.003,46.764],[130.449,46.867],[130.81,47.151],[132.007,47.28],[132.562,47.769]]]}},{"type":"Feature","id":"w33","properties":{"ko":"아무르강","en":"Amur","rank":3,"parts":1},"geometry":{"type":"MultiLineString","coordinates":[[[140.84,53.088],[140.176,53.22],[139.863,53.153],[139.757,53.032],[139.801,52.922],[140.405,52.468],[140.385,52.226],[140.182,51.964],[140.206,51.814],[139.902,51.597],[139.378,51.405],[138.918,51.35],[138.068,50.856],[137.187,50.607],[137.054,50.493],[137.057,50.216],[136.771,49.915],[136.825,49.595],[136.394,49.367],[136.162,48.987],[135.745,48.764],[135.185,48.705],[134.965,48.421],[134.206,48.36],[133.468,48.097],[133.02,48.064],[132.707,47.947],[132.476,47.715],[131.003,47.691],[130.733,48.019],[130.804,48.341],[130.552,48.603],[130.617,48.773],[130.553,48.861],[130.196,48.892],[129.498,49.389],[129.12,49.362],[128.819,49.464],[128.704,49.6],[128.0,49.569],[127.711,49.672],[127.502,49.873],[127.59,50.209],[127.337,50.35],[127.307,50.708],[126.925,51.1],[126.805,51.506],[126.342,52.362],[126.016,52.61],[126.048,52.739],[125.728,52.891],[125.649,53.042],[125.075,53.204],[124.812,53.134],[123.608,53.547],[122.338,53.485],[120.985,53.285],[120.095,52.787],[120.068,52.633],[120.656,52.567],[120.75,52.097],[120.682,51.973],[120.067,51.601],[119.164,50.406],[119.346,50.279],[119.26,50.066],[118.452,49.845],[117.873,49.513],[118.057,49.319],[118.44,49.437],[118.747,49.212],[120.118,49.225],[120.911,49.368],[122.287,49.849]]]}},{"type":"Feature","id":"w34","properties":{"ko":"셀렝가강","en":"Selenge (Selenga)","rank":2,"parts":2},"geometry":{"type":"MultiLineString","coordinates":[[[98.007,47.999],[97.413,48.202],[97.443,48.435],[97.711,48.673],[98.547,48.73],[99.179,48.638],[100.613,49.098],[100.7,49.263],[101.256,49.439],[103.444,49.361],[104.342,49.513],[105.6,49.958],[106.155,50.254],[106.083,50.375],[106.271,50.559],[106.3,50.929],[106.679,51.091],[107.512,51.763],[107.462,52.125],[106.753,52.055],[106.583,52.214],[106.752,52.316]],[[106.615,52.145],[106.499,52.234],[106.497,52.383]]]}},{"type":"Feature","id":"w35","properties":{"ko":"레나강","en":"Lena","rank":1,"parts":1},"geometry":{"type":"MultiLineString","coordinates":[[[126.69,72.294],[127.168,71.845],[127.25,71.294],[127.507,70.999],[127.414,70.742],[126.789,70.541],[125.801,70.449],[125.99,70.309],[125.919,70.145],[125.201,69.904],[124.722,69.4],[124.026,69.03],[123.774,68.349],[123.15,67.929],[123.057,67.685],[123.095,67.455],[123.588,66.581],[124.211,65.873],[124.268,65.504],[124.593,65.098],[125.359,64.818],[125.503,64.665],[126.506,64.378],[128.291,63.561],[129.38,63.49],[129.586,63.305],[129.622,63.034],[130.051,62.396],[129.788,61.893],[129.216,61.499],[128.481,61.266],[126.322,61.071],[124.147,60.599],[121.162,60.622],[120.069,60.262],[119.355,60.191],[118.323,59.725],[117.447,59.986],[117.129,60.134],[116.884,60.381],[115.798,60.717],[115.146,60.773],[114.743,60.692],[113.519,59.912],[112.836,59.674],[112.394,59.274],[111.846,59.187],[111.117,58.739],[109.97,58.606],[109.498,58.231],[109.085,58.264],[108.332,57.825],[108.034,57.759],[107.872,57.523],[107.471,57.292],[106.989,57.31],[106.865,57.083],[106.348,57.051],[105.672,56.742],[106.173,56.671],[106.292,56.56],[106.201,56.411],[105.695,56.266],[105.852,55.976],[105.811,55.869],[105.45,55.326],[105.076,55.008],[105.234,54.754],[105.221,54.384],[105.665,54.022],[106.056,53.858],[107.119,53.858],[107.783,54.294],[108.107,54.2],[107.98,54.004]]]}},{"type":"Feature","id":"w36","properties":{"ko":"예니세이강","en":"Yenisey","rank":4,"parts":1},"geometry":{"type":"MultiLineString","coordinates":[[[83.11,70.11],[84.183,69.67],[84.487,69.647],[85.098,69.788],[85.953,69.49],[86.051,69.119],[85.992,68.841],[86.287,68.666],[86.345,68.456],[86.524,68.302],[86.437,68.114],[86.48,67.928],[86.288,67.573],[86.618,67.359],[86.73,66.845],[86.286,66.585],[87.032,66.557],[87.458,66.387],[87.514,66.32],[87.275,66.19],[87.914,66.062],[87.772,65.854],[88.029,65.694],[87.822,64.878],[87.54,64.516],[87.602,63.975],[87.347,63.678],[87.277,63.357],[88.434,62.854],[88.595,62.635],[89.014,62.388],[89.325,61.894],[89.706,61.751],[89.843,61.586],[90.15,61.573],[89.637,61.244],[90.172,60.307],[90.495,60.115],[90.882,59.597],[91.678,59.051],[91.718,58.919],[92.045,58.835],[91.982,58.727],[92.139,58.498],[92.539,58.199],[92.998,58.1],[93.22,57.897],[93.305,57.637],[93.262,57.419],[93.453,57.183],[93.383,56.993],[93.657,56.726],[93.735,56.48],[93.148,56.085],[92.3,55.923],[92.301,55.813],[92.493,55.658],[92.182,55.291],[91.062,55.004],[90.947,54.832],[90.939,54.722],[91.269,54.479],[91.551,54.079],[91.454,53.83],[91.575,53.621],[91.955,53.398],[91.788,53.23],[91.468,53.136],[91.501,53.012],[91.367,52.714],[92.307,52.565],[92.444,52.303],[92.035,51.905],[92.35,51.701],[92.769,51.581],[93.646,51.566],[94.465,51.734],[95.558,51.476],[95.78,51.295]]]}},{"type":"Feature","id":"w37","properties":{"ko":"앙가라강","en":"Angara","rank":2,"parts":2},"geometry":{"type":"MultiLineString","coordinates":[[[106.497,52.383],[106.221,52.36],[105.556,51.908],[104.99,51.819],[103.39,53.032],[103.384,53.594],[103.058,54.218],[103.251,54.481],[103.107,54.774],[103.329,55.18],[103.151,55.777],[102.965,56.057],[102.751,56.173],[101.8,56.107],[101.77,56.687],[101.391,56.848],[101.387,56.919],[101.612,57.002],[102.316,56.92],[102.371,57.446],[102.651,57.789],[102.837,58.245],[102.659,58.698],[102.101,58.933],[102.462,58.836]],[[92.998,58.1],[94.599,58.14],[95.777,58.522],[96.514,58.527],[96.984,58.393],[98.322,58.446],[99.113,58.717],[100.251,58.346],[100.441,58.439],[100.437,58.627],[100.98,58.899],[101.948,58.973]]]}},{"type":"Feature","id":"w38","properties":{"ko":"오브강","en":"Ob","rank":2,"parts":2},"geometry":{"type":"MultiLineString","coordinates":[[[85.056,52.434],[83.831,52.362],[83.694,52.489],[83.658,53.04],[83.86,53.175],[83.838,53.353],[83.228,53.503],[82.581,53.446],[82.237,53.684],[81.334,53.886],[81.391,54.052],[81.741,54.269],[83.025,54.845],[83.053,54.915],[82.837,55.129],[82.888,55.404],[83.645,55.629],[83.879,55.929],[84.064,56.458],[84.401,56.792],[84.344,57.21],[83.997,57.306],[83.777,57.699],[83.41,57.776],[83.16,58.127],[82.884,58.313],[82.435,58.369],[81.775,58.736],[81.554,58.718],[81.568,58.831],[81.256,59.118],[80.802,59.108],[80.467,59.328],[80.228,59.265],[80.093,59.424],[79.665,59.412],[79.283,59.558],[78.836,60.141],[78.563,60.196],[78.293,60.405],[77.949,60.422],[77.602,60.662],[77.215,60.674],[75.994,61.04],[75.714,61.01],[74.645,61.215],[74.002,61.177],[72.347,61.293],[71.257,61.195],[70.979,61.298],[70.354,61.301],[69.408,61.272],[68.589,61.095],[68.348,61.181],[68.325,61.451],[67.586,61.712],[67.292,62.087],[65.988,62.482],[65.258,62.879],[65.149,63.131],[65.767,63.584],[65.709,63.734],[65.805,63.809],[65.806,64.076],[66.031,64.154],[65.895,64.262],[65.876,64.426],[65.69,64.537],[65.688,64.659],[65.501,64.756],[65.565,64.982],[65.257,65.099],[65.831,65.842],[65.839,66.157],[66.663,66.627],[68.197,66.538],[68.655,66.752],[67.692,66.783],[67.315,66.641]],[[68.655,66.752],[69.013,66.788]]]}},{"type":"Feature","id":"w39","properties":{"ko":"이르티시강","en":"Irtysh","rank":2,"parts":1},"geometry":{"type":"MultiLineString","coordinates":[[[68.861,61.124],[69.516,60.885],[69.83,60.65],[69.778,60.38],[69.874,60.259],[69.721,60.126],[69.888,60.005],[69.888,59.866],[68.925,59.451],[68.799,59.24],[68.882,59.161],[68.812,58.935],[68.569,58.753],[68.549,58.521],[68.219,58.328],[68.226,58.168],[68.818,58.014],[70.294,57.977],[70.468,57.847],[71.108,57.71],[72.903,57.458],[74.049,57.163],[74.117,57.053],[74.511,56.893],[74.749,56.396],[74.672,56.011],[74.272,55.739],[73.662,55.618],[72.993,55.266],[73.17,55.193],[73.347,54.85],[74.617,54.36],[74.918,54.003],[75.062,53.953],[75.101,53.654],[75.855,53.078],[76.485,52.885],[76.775,52.552],[76.96,52.108],[77.334,51.886],[77.521,51.56],[77.96,51.335],[78.348,50.858],[78.9,50.651],[79.313,50.662],[80.426,50.373],[81.089,50.382],[82.15,50.219],[83.128,49.682],[83.826,49.454],[84.204,49.162],[83.533,48.889],[83.45,48.668],[83.587,48.404],[83.516,48.222],[84.285,47.734],[84.6,47.744],[85.267,47.994],[85.792,47.98],[86.607,47.832],[87.559,47.427],[89.406,46.99],[90.253,47.43],[90.325,47.65]]]}},{"type":"Feature","id":"w40","properties":{"ko":"콜리마강","en":"Kolyma","rank":4,"parts":1},"geometry":{"type":"MultiLineString","coordinates":[[[145.216,61.856],[145.801,61.877],[146.657,61.455],[147.119,61.497],[147.371,61.59],[147.433,61.708],[147.255,62.14],[147.464,62.331],[148.12,62.095],[148.524,62.107],[148.663,61.98],[148.758,61.659],[149.379,61.66],[149.915,62.02],[150.714,62.197],[150.845,62.672],[151.41,62.619],[151.742,62.454],[151.942,62.565],[152.084,62.427],[152.271,62.435],[152.505,62.823],[152.461,62.929],[152.583,63.312],[153.437,63.819],[154.315,64.033],[154.542,64.213],[154.372,64.227],[154.031,64.671],[153.835,64.734],[153.222,64.716],[152.487,64.839],[151.964,65.042],[150.768,65.887],[150.798,66.149],[151.634,66.232],[151.778,66.447],[152.4,66.647],[152.392,66.751],[153.025,67.109],[153.625,67.214],[153.52,67.346],[153.644,67.463],[154.865,67.62],[156.217,67.657],[156.354,67.753],[156.132,67.874],[156.146,67.944],[156.667,67.939],[157.432,68.093],[157.654,68.175],[157.956,68.46],[158.015,68.656],[158.446,68.771],[159.157,68.783],[159.215,68.67],[159.395,68.632],[160.856,68.538]]]}},{"type":"Feature","id":"w41","properties":{"ko":"인디기르카강","en":"Indigirka","rank":5,"parts":1},"geometry":{"type":"MultiLineString","coordinates":[[[150.098,71.227],[149.561,70.925],[147.867,70.595],[147.538,70.425],[147.352,70.144],[147.519,70.004],[147.423,69.668],[147.638,69.44],[147.392,69.295],[147.483,68.942],[147.327,68.93],[147.346,68.855],[147.144,68.801],[146.94,68.573],[146.071,68.547],[145.856,68.304],[145.358,68.179],[145.282,68.023],[145.025,67.871],[144.507,67.785],[144.708,67.692],[144.65,67.639],[143.337,67.6],[142.655,67.452],[142.578,67.363],[142.754,66.813],[143.068,66.574],[143.223,66.309],[143.147,66.017],[142.68,65.692],[142.603,65.515],[143.23,65.371],[143.092,65.088],[143.356,64.793],[143.267,64.633],[142.862,64.501],[142.789,64.303],[142.012,64.215],[141.915,63.954],[142.446,63.599],[144.316,63.091],[145.009,62.507]]]}},{"type":"Feature","id":"w42","properties":{"ko":"페초라강","en":"Pechora","rank":4,"parts":3},"geometry":{"type":"MultiLineString","coordinates":[[[59.287,62.058],[58.777,61.996],[58.234,62.067],[57.828,61.806],[57.229,61.699],[56.857,61.803],[56.641,62.1],[56.706,62.489],[56.213,62.753],[55.941,63.191],[56.419,63.313],[56.541,63.442],[56.467,63.539],[56.712,63.763],[57.47,63.912],[57.879,64.74],[57.068,65.147],[57.047,65.421],[56.744,65.789],[56.837,65.971],[56.491,66.257],[55.998,66.326],[55.412,66.2],[54.836,65.752],[54.103,65.458],[52.959,65.332],[52.153,65.466],[52.239,65.759],[52.567,66.02],[52.451,66.354],[52.484,66.599],[52.373,66.71],[52.381,67.115],[52.132,67.318],[52.234,67.43],[52.128,67.557],[53.107,67.864],[53.215,67.933],[53.043,68.069],[53.262,68.27]],[[52.627,67.699],[53.184,67.734],[54.067,68.081],[54.233,68.266]],[[53.914,68.231],[53.107,67.864]]]}},{"type":"Feature","id":"w43","properties":{"ko":"북드비나강","en":"Severnaya Dvina","rank":4,"parts":1},"geometry":{"type":"MultiLineString","coordinates":[[[46.34,60.749],[46.547,60.982],[46.591,61.287],[45.291,61.84],[44.826,62.29],[43.907,62.442],[42.077,63.141],[41.885,63.553],[41.448,63.732],[41.856,64.244],[40.53,64.555],[40.408,64.755]]]}},{"type":"Feature","id":"w44","properties":{"ko":"시르다리야강","en":"Syr Darya","rank":5,"parts":1},"geometry":{"type":"MultiLineString","coordinates":[[[70.355,40.435],[70.186,40.331],[69.299,40.225],[69.152,40.338],[69.082,40.599],[68.61,41.022],[68.003,41.212],[68.067,41.834],[68.285,42.302],[68.245,42.735],[68.089,42.991],[67.838,43.121],[67.789,43.341],[67.548,43.421],[67.107,43.949],[66.561,44.009],[66.382,44.268],[66.019,44.457],[65.791,44.723],[65.23,44.993],[64.784,45.002],[64.466,45.113],[64.198,45.394],[63.883,45.511],[63.907,45.595],[63.752,45.713],[63.124,45.633],[62.733,45.691],[62.565,45.813],[61.897,45.705],[61.703,45.833],[61.823,45.949],[61.562,46.11],[61.093,46.058],[60.878,46.137]]]}},{"type":"Feature","id":"w45","properties":{"ko":"아무다리야강","en":"Amu  Darya","rank":5,"parts":2},"geometry":{"type":"MultiLineString","coordinates":[[[68.212,37.022],[67.958,36.972],[67.753,37.2],[67.517,37.267],[67.32,37.21],[67.069,37.335],[66.108,37.415],[65.337,37.712],[65.131,37.938],[64.272,38.432],[63.724,39.049],[63.081,39.344],[62.442,40.036],[62.375,40.332],[61.903,41.094],[61.263,41.3],[60.102,42.232],[59.322,42.591],[59.036,43.498],[59.26,43.716],[59.082,43.971],[59.541,44.148]],[[59.097,43.294],[59.005,43.423],[59.019,43.732],[58.57,43.948],[58.512,44.202],[58.316,44.426]]]}},{"type":"Feature","id":"w46","properties":{"ko":"볼가강","en":"Volga","rank":3,"parts":2},"geometry":{"type":"MultiLineString","coordinates":[[[47.65,45.657],[47.561,45.79],[47.998,46.37],[48.002,46.506],[47.8,46.773],[46.193,47.918],[46.078,48.218],[45.865,48.353],[45.559,48.451],[44.865,48.466],[44.528,48.598],[44.976,49.195],[45.414,50.056],[45.831,50.357],[45.675,50.696],[46.03,50.866],[46.023,51.0],[45.836,51.188],[45.979,51.465],[46.365,51.746],[46.775,51.748],[47.273,51.981],[47.901,52.125],[48.505,52.816],[48.524,53.105],[49.119,53.23],[49.428,53.152],[50.129,53.236],[50.042,53.455],[49.104,53.483],[48.964,53.827],[48.458,54.257],[48.507,54.489],[48.782,54.617],[49.023,55.036],[49.248,55.113],[49.285,55.234],[49.059,55.483],[49.003,55.693],[48.067,55.925],[47.829,56.145],[47.166,56.151],[46.492,56.336],[46.025,56.172],[44.566,56.086],[43.657,56.496],[43.344,56.733],[43.089,57.119],[43.178,57.329],[41.206,57.517],[40.838,57.799],[40.007,57.567],[39.697,57.831],[38.704,58.113],[38.408,58.288],[38.319,58.15],[38.437,58.018],[38.446,57.761],[38.079,57.382],[37.761,57.291],[37.392,56.862],[36.52,56.643],[36.245,56.799],[35.773,56.861],[34.937,56.546],[34.903,56.337],[34.668,56.209],[33.857,56.423],[33.956,56.565],[33.528,56.829],[32.729,56.945],[32.598,57.25]],[[47.842,46.735],[48.22,46.605],[48.314,46.401],[48.684,46.086]]]}},{"type":"Feature","id":"w47","properties":{"ko":"우랄강","en":"Ural","rank":4,"parts":1},"geometry":{"type":"MultiLineString","coordinates":[[[59.426,54.52],[59.194,54.325],[59.095,54.093],[59.254,53.64],[59.021,53.464],[59.13,53.217],[58.905,52.936],[59.08,52.47],[58.834,52.196],[58.74,51.786],[58.631,51.695],[58.751,51.425],[58.657,51.247],[58.181,51.072],[57.801,51.096],[56.224,51.472],[55.709,51.696],[55.119,51.766],[53.038,51.464],[52.728,51.498],[52.512,51.391],[52.012,51.391],[51.395,51.148],[51.183,50.826],[51.11,50.312],[51.948,49.206],[51.804,48.623],[51.606,48.469],[51.569,48.167],[51.674,47.579],[51.879,47.397],[51.934,47.204],[51.724,46.944]]]}},{"type":"Feature","id":"w48","properties":{"ko":"돈강","en":"Don","rank":6,"parts":1},"geometry":{"type":"MultiLineString","coordinates":[[[39.293,47.106],[40.112,47.222],[40.97,47.61],[42.015,47.56],[42.832,47.838],[43.132,48.294],[43.528,48.614],[43.474,48.769],[43.896,48.968],[43.985,49.136],[43.749,49.207],[43.549,49.507],[43.095,49.324],[42.731,49.582],[41.314,49.587],[41.235,49.734],[40.921,49.827],[40.849,49.956],[40.644,49.953],[40.502,50.12],[40.001,50.133],[40.064,50.408],[39.757,50.733],[39.778,50.952],[39.143,51.024],[39.262,51.173],[39.012,51.597],[39.164,52.084],[38.905,52.438],[38.911,52.703],[39.155,53.118],[39.112,53.449],[38.998,53.576],[38.531,53.754],[38.529,53.861],[38.306,54.064]]]}},{"type":"Feature","id":"w49","properties":{"ko":"드네프르강","en":"Dnipro","rank":4,"parts":1},"geometry":{"type":"MultiLineString","coordinates":[[[32.578,46.616],[33.54,46.831],[33.998,47.411],[34.155,47.49],[35.088,47.528],[35.149,47.657],[35.077,48.081],[35.185,48.15],[35.17,48.28],[34.959,48.477],[31.691,49.636],[31.462,49.757],[31.44,50.0],[31.071,50.023],[30.707,50.222],[30.567,50.417],[30.478,50.904],[30.508,51.217],[30.611,51.33],[30.551,51.658],[30.796,51.996],[30.279,52.507],[30.038,53.051],[30.251,53.12],[30.371,53.297],[30.261,53.666],[30.324,53.879],[30.407,53.899],[30.304,54.326],[30.463,54.537],[32.006,54.777],[32.512,54.694],[32.738,54.916],[32.978,55.001],[33.391,54.917]]]}},{"type":"Feature","id":"w50","properties":{"ko":"도나우강(다뉴브)","en":"Danube","rank":2,"parts":1},"geometry":{"type":"MultiLineString","coordinates":[[[28.761,45.234],[28.212,45.45],[28.011,45.358],[27.83,44.796],[28.083,44.476],[28.022,44.343],[27.412,44.138],[26.489,44.084],[25.686,43.712],[22.919,43.834],[22.868,43.948],[23.028,44.078],[22.495,44.435],[22.554,44.54],[22.734,44.57],[22.642,44.651],[22.498,44.706],[22.093,44.542],[21.36,44.827],[20.731,44.693],[20.636,44.828],[20.353,44.911],[20.253,45.15],[19.863,45.269],[19.273,45.278],[19.005,45.4],[19.064,45.515],[18.918,45.601],[18.727,46.014],[18.916,46.271],[18.874,46.586],[18.983,46.74],[18.884,47.151],[19.06,47.481],[19.071,47.807],[17.762,47.77],[17.111,48.146],[16.659,48.161],[16.209,48.38],[15.573,48.424],[15.147,48.198],[14.583,48.219],[13.2,48.636],[12.909,48.836],[12.033,49.027],[11.684,48.794],[10.712,48.679],[9.295,48.078],[8.696,47.936],[8.22,48.047]]]}},{"type":"Feature","id":"w51","properties":{"ko":"라인강","en":"Rhine","rank":4,"parts":2},"geometry":{"type":"MultiLineString","coordinates":[[[8.23,48.965],[8.498,49.397],[8.357,49.911],[8.243,50.023],[7.803,50.042],[7.607,50.222],[7.608,50.367],[7.257,50.559],[6.758,51.187],[6.596,51.637],[6.08,51.869],[4.985,51.824]],[[8.881,47.656],[9.183,47.671],[9.626,47.467],[9.484,47.173],[9.517,46.907],[8.751,46.676]]]}},{"type":"Feature","id":"w52","properties":{"ko":"엘베강","en":"Elbe","rank":5,"parts":1},"geometry":{"type":"MultiLineString","coordinates":[[[15.583,50.693],[15.884,50.372],[15.817,50.107],[15.236,50.035],[15.088,50.152],[14.631,50.222],[14.388,50.438],[14.039,50.567],[14.203,50.75],[14.136,50.918],[13.443,51.19],[12.829,51.79],[11.995,51.909],[11.691,52.072],[11.692,52.21],[11.978,52.438],[12.014,52.77],[11.921,52.918],[10.682,53.369],[10.082,53.44],[9.9,53.552],[10.082,53.44]]]}},{"type":"Feature","id":"w53","properties":{"ko":"오데르강","en":"Oder","rank":4,"parts":1},"geometry":{"type":"MultiLineString","coordinates":[[[17.618,49.739],[17.946,49.637],[18.307,49.886],[18.252,50.22],[17.88,50.722],[16.869,51.229],[16.475,51.245],[16.408,51.595],[15.847,51.743],[15.682,52.011],[14.705,52.11],[14.555,52.36],[14.619,52.528],[14.129,52.878],[14.581,53.445],[14.584,53.639]]]}},{"type":"Feature","id":"w54","properties":{"ko":"비스와강","en":"Vistula","rank":5,"parts":1},"geometry":{"type":"MultiLineString","coordinates":[[[18.879,49.644],[18.81,49.925],[19.2,50.042],[19.852,50.006],[20.522,50.137],[21.505,50.485],[21.784,50.689],[21.784,51.188],[21.961,51.386],[21.452,51.705],[21.241,51.918],[21.221,52.067],[20.842,52.384],[19.964,52.421],[19.202,52.644],[18.538,53.038],[18.274,53.089],[18.2,53.174],[18.315,53.293],[18.739,53.519],[18.976,54.349]]]}},{"type":"Feature","id":"w55","properties":{"ko":"센강","en":"Seine","rank":4,"parts":1},"geometry":{"type":"MultiLineString","coordinates":[[[4.708,47.578],[4.408,48.082],[3.858,48.517],[2.819,48.409],[2.499,48.582],[2.404,48.811],[2.25,48.908],[1.718,48.992],[0.785,49.471],[0.439,49.473]]]}},{"type":"Feature","id":"w56","properties":{"ko":"루아르강","en":"Loire","rank":5,"parts":1},"geometry":{"type":"MultiLineString","coordinates":[[[-1.743,47.216],[-1.056,47.375],[-0.418,47.402],[0.075,47.218],[1.158,47.474],[1.845,47.893],[2.36,47.804],[2.883,47.499],[3.083,46.985],[3.49,46.829],[3.749,46.558],[3.984,46.46],[4.101,46.166],[4.033,45.977],[4.213,45.745],[4.256,45.477],[3.953,45.199],[3.904,44.972],[3.928,44.871],[4.2,44.823]]]}},{"type":"Feature","id":"w57","properties":{"ko":"론강","en":"Rhône","rank":6,"parts":2},"geometry":{"type":"MultiLineString","coordinates":[[[8.25,46.482],[7.955,46.335],[7.089,46.152],[6.866,46.403],[6.429,46.431],[5.902,46.123],[5.676,45.676],[5.35,45.847],[4.871,45.771],[4.784,45.439],[4.864,44.911],[4.674,44.35],[4.711,44.133],[4.843,44.012],[4.619,43.715],[4.787,43.401]],[[4.617,43.71],[4.44,43.65],[4.41,43.447]]]}},{"type":"Feature","id":"w58","properties":{"ko":"에브로강","en":"Ebro","rank":5,"parts":1},"geometry":{"type":"MultiLineString","coordinates":[[[-4.189,43.011],[-3.963,42.825],[-3.627,42.898],[-3.011,42.755],[-2.641,42.518],[-1.994,42.391],[-0.301,41.309],[0.263,41.399],[0.364,41.256],[0.632,41.165],[0.551,40.802],[0.891,40.722]]]}},{"type":"Feature","id":"w59","properties":{"ko":"포강","en":"Po","rank":6,"parts":1},"geometry":{"type":"MultiLineString","coordinates":[[[7.11,44.706],[7.424,44.687],[7.619,44.849],[7.731,45.129],[7.976,45.22],[8.36,45.199],[8.644,45.054],[9.96,45.13],[10.557,44.928],[10.871,45.072],[11.188,45.065],[11.574,44.906],[12.085,45.02],[12.523,44.968]]]}},{"type":"Feature","id":"w60","properties":{"ko":"미시시피강","en":"Mississippi","rank":1,"parts":2},"geometry":{"type":"MultiLineString","coordinates":[[[-89.181,29.336],[-89.289,29.178],[-89.666,29.416],[-89.973,29.689],[-89.933,29.914],[-90.99,30.126],[-91.179,30.285],[-91.338,30.706],[-91.529,30.756],[-91.546,30.908],[-91.66,30.972],[-91.618,31.277],[-91.373,31.774],[-90.938,32.277],[-91.15,32.625],[-91.107,33.218],[-91.207,33.676],[-91.053,33.828],[-91.06,33.989],[-90.915,34.049],[-90.91,34.189],[-90.635,34.414],[-90.539,34.728],[-90.142,35.114],[-89.943,35.679],[-89.689,35.921],[-89.55,36.553],[-89.471,36.489],[-89.203,36.626],[-89.13,36.811],[-89.154,36.992],[-89.272,37.08],[-89.352,37.036],[-89.487,37.213],[-89.523,37.645],[-90.366,38.254],[-90.134,38.847],[-90.664,38.987],[-90.919,39.387],[-91.379,39.749],[-91.502,40.098],[-91.394,40.537],[-91.102,40.75],[-90.954,41.016],[-91.048,41.369],[-90.437,41.56],[-90.177,41.884],[-90.149,42.054],[-90.688,42.61],[-91.07,42.789],[-91.161,43.102],[-91.117,43.331],[-91.238,43.44],[-91.32,43.936],[-92.055,44.4],[-93.175,44.913],[-93.408,45.202],[-94.063,45.439],[-94.371,45.853],[-94.333,46.284],[-94.057,46.543],[-93.692,46.586],[-93.486,46.725],[-93.309,47.023],[-93.509,47.211],[-93.798,47.242],[-94.144,47.464],[-94.326,47.406],[-94.794,47.482],[-95.026,47.156]],[[-89.376,28.981],[-89.257,29.155],[-89.016,29.203]]]}},{"type":"Feature","id":"w61","properties":{"ko":"미주리강","en":"Missouri","rank":1,"parts":1},"geometry":{"type":"MultiLineString","coordinates":[[[-90.133,38.819],[-90.404,38.835],[-90.872,38.579],[-91.433,38.707],[-92.124,38.586],[-92.654,38.976],[-92.909,39.03],[-92.877,39.192],[-93.108,39.359],[-94.028,39.154],[-94.334,39.204],[-94.622,39.124],[-94.778,39.194],[-95.058,39.509],[-95.075,39.597],[-94.899,39.741],[-94.93,39.861],[-95.362,40.01],[-95.826,40.676],[-95.892,41.316],[-96.451,42.506],[-97.239,42.861],[-97.965,42.806],[-98.798,43.146],[-99.442,43.674],[-99.328,43.894],[-99.626,44.208],[-99.685,44.113],[-99.883,44.142],[-99.922,44.245],[-100.536,44.476],[-100.697,44.776],[-100.444,44.854],[-100.297,45.316],[-100.433,45.535],[-100.4,45.822],[-100.614,46.196],[-100.569,46.513],[-100.892,46.904],[-100.979,47.231],[-101.362,47.339],[-101.428,47.552],[-102.161,47.598],[-102.345,47.799],[-102.59,47.824],[-102.614,48.038],[-102.724,48.1],[-103.06,48.151],[-103.414,48.036],[-103.631,48.115],[-103.835,47.994],[-104.75,48.15],[-106.367,48.058],[-106.6,47.822],[-106.879,47.707],[-107.385,47.694],[-107.888,47.502],[-108.02,47.598],[-108.788,47.677],[-108.935,47.795],[-109.886,47.762],[-110.167,48.043],[-110.856,47.784],[-111.293,47.439],[-111.616,47.342],[-111.959,47.096],[-111.885,46.786],[-111.585,46.544],[-111.516,46.362]]]}},{"type":"Feature","id":"w62","properties":{"ko":"오하이오강","en":"Ohio","rank":3,"parts":1},"geometry":{"type":"MultiLineString","coordinates":[[[-79.991,40.448],[-80.344,40.686],[-80.638,40.603],[-80.602,40.364],[-80.874,39.664],[-81.263,39.387],[-81.657,39.272],[-81.803,39.086],[-81.78,38.947],[-82.072,38.963],[-82.204,38.768],[-82.18,38.638],[-82.387,38.434],[-82.621,38.451],[-82.88,38.71],[-83.69,38.65],[-84.227,38.865],[-84.43,39.091],[-84.766,39.125],[-84.861,39.04],[-84.801,38.819],[-85.17,38.69],[-85.405,38.73],[-85.459,38.53],[-86.021,37.984],[-86.361,38.179],[-86.599,37.875],[-86.869,37.976],[-87.141,37.805],[-87.457,37.938],[-87.587,37.956],[-87.643,37.833],[-87.892,37.913],[-88.129,37.7],[-88.108,37.534],[-88.495,37.364],[-88.472,37.088],[-89.046,37.183],[-89.154,36.992]]]}},{"type":"Feature","id":"w63","properties":{"ko":"아칸소강","en":"Arkansas","rank":4,"parts":1},"geometry":{"type":"MultiLineString","coordinates":[[[-91.077,33.797],[-91.217,33.955],[-91.973,34.275],[-92.155,34.673],[-92.447,34.877],[-92.595,35.119],[-93.958,35.494],[-94.162,35.373],[-94.358,35.43],[-94.666,35.3],[-95.229,35.605],[-95.29,35.78],[-95.63,35.816],[-96.004,36.11],[-96.521,36.312],[-96.742,36.539],[-96.986,36.486],[-96.94,36.579],[-97.053,36.664],[-96.838,36.782],[-97.135,37.189],[-97.344,37.69],[-98.633,38.346],[-99.011,38.223],[-99.698,37.697],[-100.776,37.935],[-101.627,37.95],[-102.559,38.118],[-103.594,38.048],[-105.283,38.459],[-105.832,38.425],[-106.089,38.611],[-106.381,39.222]]]}},{"type":"Feature","id":"w64","properties":{"ko":"콜로라도강","en":"Colorado","rank":5,"parts":2},"geometry":{"type":"MultiLineString","coordinates":[[[-114.934,31.901],[-115.199,32.124],[-114.721,32.724],[-114.478,32.842],[-114.491,32.984],[-114.704,33.17],[-114.702,33.418],[-114.522,33.608],[-114.418,34.051],[-114.126,34.287],[-114.371,34.488],[-114.611,34.907],[-114.716,36.085],[-114.406,36.148],[-114.183,36.03],[-114.005,36.195],[-113.636,35.831],[-113.422,35.762],[-113.206,36.124],[-112.598,36.402],[-112.467,36.366],[-112.459,36.229],[-111.891,36.081],[-111.852,36.488],[-111.591,36.85],[-111.431,37.003],[-110.916,37.157],[-110.399,37.883],[-110.248,37.895],[-109.897,38.165],[-109.051,39.141],[-108.867,39.201],[-108.434,39.099],[-107.847,39.557],[-107.235,39.602],[-106.877,39.902],[-106.638,39.894],[-106.401,40.062],[-105.861,40.165],[-105.846,40.404]],[[-70.302,-35.288],[-70.166,-35.722],[-69.865,-35.86],[-69.694,-36.14],[-69.676,-36.508],[-69.806,-36.925],[-69.699,-37.106],[-67.783,-37.659],[-67.824,-38.056],[-67.599,-38.215],[-67.15,-38.269],[-66.52,-38.71],[-64.39,-38.878],[-63.456,-39.316],[-62.517,-39.608],[-62.254,-39.88]]]}},{"type":"Feature","id":"w65","properties":{"ko":"리오그란데강","en":"Rio Grande","rank":4,"parts":1},"geometry":{"type":"MultiLineString","coordinates":[[[-97.146,25.961],[-97.376,25.872],[-99.108,26.447],[-99.457,27.057],[-99.505,27.548],[-100.296,28.328],[-100.755,29.183],[-101.38,29.743],[-102.343,29.865],[-102.734,29.644],[-102.892,29.216],[-103.258,29.001],[-104.401,29.574],[-104.622,29.854],[-104.918,30.583],[-106.566,31.82],[-106.889,32.479],[-107.24,32.743],[-107.281,33.114],[-107.181,33.173],[-107.123,33.494],[-106.874,33.928],[-106.692,35.089],[-106.073,36.048],[-105.761,36.339],[-105.735,37.335],[-105.879,37.525],[-106.196,37.647],[-106.924,37.809],[-107.427,37.776]]]}},{"type":"Feature","id":"w66","properties":{"ko":"컬럼비아강","en":"Columbia","rank":3,"parts":1},"geometry":{"type":"MultiLineString","coordinates":[[[-123.221,46.154],[-122.942,46.115],[-122.65,45.627],[-122.203,45.591],[-121.663,45.718],[-121.045,45.639],[-120.351,45.725],[-118.931,46.063],[-119.201,46.269],[-119.417,46.679],[-119.838,46.674],[-119.939,46.78],[-120.01,47.219],[-120.273,47.487],[-120.214,47.693],[-119.969,47.813],[-119.801,48.085],[-119.052,48.082],[-118.854,47.93],[-118.375,47.849],[-118.368,47.996],[-118.168,48.232],[-118.174,48.512],[-118.021,48.766],[-117.648,49.055],[-117.721,49.331],[-118.014,49.404],[-118.128,49.574],[-118.074,49.881],[-117.827,50.159],[-117.906,50.683],[-118.672,51.696],[-118.527,52.102],[-117.873,51.87],[-117.052,51.383],[-116.365,50.89],[-115.865,50.287]]]}},{"type":"Feature","id":"w67","properties":{"ko":"스네이크강","en":"Snake","rank":4,"parts":1},"geometry":{"type":"MultiLineString","coordinates":[[[-119.036,46.206],[-118.386,46.59],[-117.615,46.715],[-117.029,46.433],[-116.869,45.958],[-116.477,45.641],[-117.202,44.436],[-117.14,44.29],[-116.912,44.199],[-117.064,43.734],[-115.974,42.978],[-115.176,42.985],[-114.614,42.635],[-113.785,42.538],[-113.472,42.675],[-113.022,42.686],[-112.159,43.343],[-112.043,43.708],[-111.586,43.635],[-111.048,43.207],[-110.837,43.226],[-110.725,43.336],[-110.837,43.478],[-110.631,43.837]]]}},{"type":"Feature","id":"w68","properties":{"ko":"유콘강","en":"Yukon","rank":3,"parts":3},"geometry":{"type":"MultiLineString","coordinates":[[[-134.916,61.568],[-134.961,61.912],[-136.307,62.121],[-136.354,62.275],[-136.583,62.428],[-137.356,62.781],[-138.398,62.801],[-139.418,63.011],[-139.564,63.161],[-139.506,63.353],[-139.76,63.609],[-139.721,63.932],[-139.482,64.057],[-139.587,64.227],[-140.453,64.405],[-140.479,64.526],[-141.065,64.726],[-141.164,64.802],[-141.129,64.888],[-141.373,64.966],[-141.404,65.086],[-142.002,65.3],[-143.589,65.427],[-144.085,65.655],[-144.048,65.914],[-144.874,66.386],[-145.219,66.537],[-145.828,66.611],[-148.364,66.225],[-149.284,65.905],[-149.92,65.89],[-150.058,65.83],[-149.827,65.755],[-149.93,65.65],[-152.048,65.165],[-153.007,65.191],[-155.575,64.756],[-156.733,64.664],[-157.036,64.795],[-157.913,64.858],[-158.679,64.343],[-158.734,64.058],[-159.203,63.848],[-159.458,63.575],[-159.502,63.372],[-160.019,62.916],[-160.17,62.586],[-159.956,62.28],[-159.744,62.214],[-159.782,62.114],[-160.093,61.973],[-161.067,61.907],[-161.339,61.805],[-161.401,61.673],[-161.92,61.576],[-162.249,61.923],[-162.527,62.006],[-163.043,61.908],[-163.259,62.016],[-163.242,61.886],[-163.388,61.829],[-163.774,61.777],[-164.026,61.891],[-164.831,61.739],[-164.869,61.665],[-164.743,61.591],[-165.188,61.392],[-165.244,61.269]],[[-163.259,62.016],[-163.904,62.134],[-163.861,62.448],[-163.93,62.532],[-164.222,62.71],[-164.589,62.709]],[[-145.828,66.611],[-145.828,66.611]]]}},{"type":"Feature","id":"w69","properties":{"ko":"매켄지강","en":"Mackenzie","rank":2,"parts":3},"geometry":{"type":"MultiLineString","coordinates":[[[-135.638,68.892],[-134.836,68.964],[-134.244,68.706],[-134.103,68.576],[-134.099,68.429],[-134.366,68.292],[-134.448,68.073],[-134.199,67.718],[-133.887,67.526],[-133.02,67.245],[-131.16,67.489],[-130.375,67.296],[-130.118,66.86],[-128.678,66.327],[-129.102,66.04],[-128.715,65.681],[-128.03,65.608],[-126.459,65.177],[-126.027,64.956],[-125.153,64.826],[-124.943,64.707],[-124.789,64.405],[-124.448,64.232],[-124.39,63.999],[-124.084,63.897],[-123.683,63.379],[-123.311,63.113],[-123.204,62.709],[-123.402,62.326],[-123.139,62.204],[-122.235,62.118],[-120.713,61.792],[-120.673,61.567],[-119.773,61.304],[-119.22,61.248],[-118.143,61.47],[-117.221,61.15],[-116.335,61.051],[-115.81,61.073],[-115.072,61.299],[-114.569,61.339],[-113.252,61.249],[-113.134,61.054],[-113.247,60.911],[-113.186,60.784],[-112.978,60.801],[-112.838,60.643],[-112.511,60.52],[-112.456,60.381],[-112.56,60.346],[-112.206,60.097],[-111.631,59.922],[-111.45,59.683],[-111.394,59.346],[-111.474,59.234],[-111.384,59.153],[-111.411,59.005],[-111.539,58.927],[-112.03,58.941],[-111.944,59.099],[-112.692,59.152],[-113.271,58.779],[-114.086,58.664],[-114.968,58.37],[-116.003,58.45],[-116.455,58.259],[-116.644,58.292],[-116.592,58.115],[-117.053,58.067],[-117.148,57.971],[-117.054,57.6],[-117.097,57.229],[-117.319,56.843],[-117.128,56.536],[-117.273,56.288],[-117.739,56.023],[-118.716,55.956],[-118.917,56.07],[-118.978,56.267],[-119.145,56.316],[-120.244,56.122],[-121.365,56.24],[-122.118,55.962],[-122.691,56.124],[-123.152,56.005],[-123.912,56.011],[-124.836,56.757]],[[-134.244,68.706],[-134.626,69.017],[-134.174,69.253]],[[-134.836,68.964],[-135.255,69.324]]]}},{"type":"Feature","id":"w70","properties":{"ko":"프레이저강","en":"Fraser","rank":5,"parts":1},"geometry":{"type":"MultiLineString","coordinates":[[[-118.319,52.522],[-118.601,52.825],[-118.941,52.983],[-119.669,53.056],[-121.903,54.141],[-122.509,54.215],[-122.744,53.816],[-122.67,53.461],[-122.827,53.348],[-122.475,52.932],[-122.475,52.642],[-122.27,52.097],[-122.408,51.758],[-122.232,51.345],[-121.858,50.901],[-121.92,50.698],[-121.51,50.047],[-121.445,49.532],[-121.49,49.387],[-121.874,49.19],[-122.85,49.207],[-123.08,49.131]]]}},{"type":"Feature","id":"w71","properties":{"ko":"서스캐처원강","en":"Saskatchewan","rank":4,"parts":2},"geometry":{"type":"MultiLineString","coordinates":[[[-97.914,53.519],[-99.33,53.159],[-99.852,53.212],[-100.366,53.654],[-100.953,53.69],[-101.043,53.859],[-101.265,53.862],[-101.516,54.021],[-102.04,53.884],[-102.813,54.071],[-102.978,54.009],[-103.129,53.752],[-103.697,53.586],[-104.238,53.276],[-104.819,53.157],[-105.065,53.24],[-106.15,53.171],[-107.057,52.366],[-107.281,52.334],[-108.103,52.611],[-109.135,53.308],[-109.543,53.428],[-109.613,53.549],[-110.302,53.668],[-110.712,53.849],[-111.578,53.774],[-112.193,54.022],[-112.732,54.032],[-113.691,53.389],[-114.729,53.321],[-115.159,53.05],[-115.218,52.895],[-114.975,52.363],[-116.053,52.437],[-116.39,52.276],[-116.534,52.022],[-116.838,51.993],[-117.011,52.077],[-117.132,52.014]],[[-116.422,51.667],[-115.86,51.273],[-115.312,51.09],[-114.48,51.196],[-113.832,50.825],[-112.632,50.77],[-112.4,50.626],[-112.101,50.238],[-111.684,50.121],[-111.609,50.065],[-111.643,49.937],[-111.523,49.909],[-111.188,50.055],[-110.66,50.059],[-110.58,50.155],[-110.594,50.404],[-110.391,50.463],[-109.897,50.938],[-108.925,51.002],[-108.576,50.925],[-108.203,50.672],[-107.665,50.636],[-107.159,50.723],[-106.691,51.072],[-107.062,51.533],[-106.776,51.748],[-106.713,52.055],[-106.148,52.616],[-106.054,52.873],[-105.065,53.24]]]}},{"type":"Feature","id":"w72","properties":{"ko":"넬슨강","en":"Nelson","rank":6,"parts":1},"geometry":{"type":"MultiLineString","coordinates":[[[-96.598,50.979],[-96.703,51.611],[-97.377,52.23],[-97.75,52.766],[-97.914,53.519],[-97.869,53.714],[-98.015,53.886],[-97.569,54.319],[-97.591,54.487],[-97.791,54.571],[-98.012,54.863],[-96.833,55.4],[-96.504,56.107],[-95.841,56.291],[-94.344,56.421],[-93.262,56.909],[-92.802,56.928]]]}},{"type":"Feature","id":"w73","properties":{"ko":"세인트로렌스강","en":"St. Lawrence","rank":2,"parts":1},"geometry":{"type":"MultiLineString","coordinates":[[[-74.709,45.004],[-75.179,44.899],[-75.792,44.497]]]}},{"type":"Feature","id":"w74","properties":{"ko":"아마존강","en":"Amazonas","rank":1,"parts":1},"geometry":{"type":"MultiLineString","coordinates":[[[-52.664,-1.552],[-53.843,-1.958],[-54.064,-2.267],[-54.468,-2.44],[-54.639,-2.419],[-54.794,-2.12],[-55.15,-2.18],[-55.669,-1.927],[-56.129,-2.08],[-56.676,-2.575],[-57.143,-2.551],[-57.506,-2.396],[-58.035,-2.848],[-58.268,-3.214],[-58.549,-3.205],[-58.805,-3.347],[-59.837,-3.092],[-60.105,-3.306],[-60.598,-3.319],[-60.858,-3.538],[-61.468,-3.676],[-61.893,-3.947],[-62.393,-3.716],[-63.097,-4.078],[-63.45,-3.871],[-63.854,-3.843],[-64.458,-3.524],[-65.48,-2.615],[-66.153,-2.442],[-66.334,-2.537],[-66.531,-2.429],[-66.706,-2.692],[-67.384,-2.623],[-67.736,-2.838],[-67.988,-3.326],[-68.596,-3.345],[-69.352,-3.553],[-69.434,-4.161],[-69.556,-4.299],[-69.948,-4.285],[-70.339,-3.814],[-71.058,-3.985],[-71.521,-3.826],[-71.789,-3.359],[-72.293,-3.503],[-72.891,-3.467],[-73.094,-3.562],[-73.211,-3.783],[-73.192,-4.099],[-73.366,-4.133],[-73.489,-4.445]]]}},{"type":"Feature","id":"w75","properties":{"ko":"마데이라강","en":"Madeira","rank":3,"parts":1},"geometry":{"type":"MultiLineString","coordinates":[[[-64.664,-15.86],[-65.021,-15.083],[-65.087,-14.717],[-64.976,-14.327],[-65.304,-13.694],[-65.183,-13.144],[-65.029,-12.937],[-65.173,-12.165],[-65.031,-11.913],[-65.39,-11.246],[-65.324,-11.025],[-65.447,-10.507],[-65.299,-10.147],[-65.422,-9.611],[-64.863,-9.554],[-64.802,-9.372],[-64.127,-8.976],[-63.849,-8.619],[-63.547,-8.555],[-63.343,-8.186],[-62.888,-8.034],[-62.98,-7.577],[-62.898,-7.123],[-62.615,-6.823],[-62.367,-6.723],[-62.234,-6.278],[-61.844,-6.21],[-61.62,-5.856],[-61.385,-5.827],[-60.865,-5.529],[-60.26,-4.977],[-59.966,-4.851],[-59.786,-4.432],[-59.489,-4.318],[-58.997,-3.596],[-58.689,-3.342]]]}},{"type":"Feature","id":"w76","properties":{"ko":"우카얄리강","en":"Ucayali","rank":1,"parts":1},"geometry":{"type":"MultiLineString","coordinates":[[[-71.669,-15.336],[-71.457,-14.693],[-71.549,-14.207],[-71.914,-13.81],[-72.786,-13.446],[-73.221,-13.422],[-73.562,-13.061],[-73.64,-12.76],[-74.031,-12.168],[-74.031,-11.718],[-74.257,-11.188],[-74.101,-11.155],[-73.763,-11.28],[-73.719,-11.195],[-73.753,-10.787],[-74.03,-10.403],[-74.071,-9.961],[-73.963,-9.859],[-74.151,-9.767],[-74.212,-9.501],[-74.379,-9.367],[-74.539,-8.849],[-74.269,-8.479],[-74.496,-8.446],[-74.634,-8.03],[-74.95,-7.879],[-74.983,-7.438],[-75.28,-7.159],[-75.091,-6.827],[-75.18,-6.157],[-74.697,-5.975],[-74.555,-5.758],[-74.307,-5.739],[-74.177,-5.579],[-74.049,-5.032],[-73.9,-5.058],[-73.714,-4.887],[-73.489,-4.445]]]}},{"type":"Feature","id":"w77","properties":{"ko":"네그루강","en":"Negro","rank":3,"parts":2},"geometry":{"type":"MultiLineString","coordinates":[[[-68.014,-38.975],[-67.18,-39.123],[-66.373,-39.117],[-65.765,-39.261],[-65.234,-39.83],[-64.172,-40.166],[-63.388,-40.709],[-63.028,-40.826],[-62.798,-41.047]],[[-70.336,2.058],[-69.401,2.262],[-68.81,2.215],[-68.603,2.36],[-68.385,2.321],[-67.859,2.794],[-67.619,2.794],[-67.211,2.39],[-66.884,1.358],[-66.877,0.938],[-67.137,0.889],[-67.32,0.403],[-67.277,0.156],[-67.077,-0.122],[-66.373,-0.377],[-65.84,-0.264],[-65.005,-0.457],[-64.152,-0.314],[-63.633,-0.382],[-62.432,-1.146],[-61.62,-1.449],[-61.355,-1.926],[-60.571,-2.922],[-60.36,-3.065],[-59.897,-3.128]]]}},{"type":"Feature","id":"w78","properties":{"ko":"싱구강","en":"Xingu","rank":5,"parts":1},"geometry":{"type":"MultiLineString","coordinates":[[[-53.444,-11.444],[-53.305,-11.298],[-53.302,-11.025],[-53.101,-10.706],[-52.945,-10.005],[-52.59,-9.628],[-52.205,-9.585],[-52.036,-9.237],[-52.132,-8.878],[-52.612,-8.473],[-52.765,-7.993],[-52.513,-7.131],[-52.064,-6.863],[-52.011,-6.677],[-52.387,-6.381],[-52.58,-5.754],[-52.908,-5.156],[-52.679,-4.441],[-52.613,-3.861],[-52.184,-3.299],[-52.109,-3.275],[-51.849,-3.574],[-51.719,-3.502],[-51.641,-3.218],[-52.003,-2.765],[-52.221,-2.041],[-52.197,-1.64]]]}},{"type":"Feature","id":"w79","properties":{"ko":"타파조스강","en":"Tapajós","rank":5,"parts":1},"geometry":{"type":"MultiLineString","coordinates":[[[-58.659,-10.975],[-58.591,-10.664],[-58.316,-10.277],[-58.228,-9.802],[-58.257,-9.609],[-58.644,-9.182],[-58.599,-8.963],[-58.358,-8.691],[-58.428,-8.668],[-58.354,-7.906],[-58.136,-7.34],[-58.386,-6.949],[-58.437,-6.676],[-58.269,-6.478],[-57.754,-6.235],[-57.652,-5.996],[-57.042,-5.435],[-56.686,-4.745],[-56.397,-4.695],[-56.268,-4.435],[-55.678,-4.03],[-55.233,-3.279],[-54.992,-2.423],[-54.639,-2.419]]]}},{"type":"Feature","id":"w80","properties":{"ko":"토칸칭스강","en":"Tocantins","rank":4,"parts":2},"geometry":{"type":"MultiLineString","coordinates":[[[-48.937,-5.303],[-49.115,-5.335],[-49.28,-5.218],[-49.639,-4.211],[-49.717,-2.736],[-49.635,-2.652]],[[-49.179,-15.926],[-49.55,-15.479],[-49.564,-15.242],[-49.009,-14.629],[-48.973,-14.243],[-48.796,-14.125],[-48.546,-14.129],[-48.116,-13.691],[-48.256,-12.37],[-48.524,-12.029],[-48.648,-11.536],[-48.489,-11.257],[-48.541,-11.11],[-48.345,-10.001],[-48.379,-9.402],[-48.127,-8.722],[-48.162,-8.142],[-48.011,-8.072],[-47.495,-7.356],[-47.716,-7.185],[-47.537,-7.027],[-47.406,-6.421],[-47.52,-5.506],[-47.953,-5.256],[-48.378,-5.17],[-48.723,-5.355]]]}},{"type":"Feature","id":"w81","properties":{"ko":"오리노코강","en":"Orinoco","rank":3,"parts":3},"geometry":{"type":"MultiLineString","coordinates":[[[-63.436,2.374],[-63.991,2.153],[-65.022,2.456],[-65.196,2.587],[-65.246,2.818],[-65.537,3.142],[-65.942,3.162],[-66.129,3.024],[-66.413,3.091],[-67.015,3.896],[-67.732,4.087],[-67.855,4.507],[-67.788,5.375],[-67.474,5.93],[-67.472,6.12],[-67.119,6.557],[-67.071,7.033],[-66.461,7.542],[-65.641,7.892],[-65.221,7.857],[-64.838,7.67],[-64.59,7.76],[-64.51,7.824],[-64.531,7.978],[-64.288,8.065],[-63.993,7.974],[-63.727,8.136],[-62.791,8.334],[-62.235,8.633],[-61.619,8.597],[-61.099,8.941]],[[-61.736,9.631],[-61.924,9.152],[-62.063,9.036],[-62.039,8.828],[-62.152,8.642]],[[-62.3,9.788],[-62.388,9.421],[-62.063,9.036]]]}},{"type":"Feature","id":"w82","properties":{"ko":"막달레나강","en":"Magdalena","rank":4,"parts":1},"geometry":{"type":"MultiLineString","coordinates":[[[-76.507,1.943],[-76.179,1.898],[-75.791,2.118],[-75.376,2.774],[-74.82,4.194],[-74.861,4.422],[-74.579,6.162],[-74.317,6.667],[-73.9,7.078],[-73.765,8.329],[-73.843,8.827],[-73.942,8.992],[-74.786,9.441],[-74.823,9.986],[-74.912,10.13],[-74.728,10.841],[-74.845,11.11]]]}},{"type":"Feature","id":"w83","properties":{"ko":"파라나강","en":"Paraná","rank":2,"parts":4},"geometry":{"type":"MultiLineString","coordinates":[[[-54.267,-24.066],[-54.436,-25.121],[-54.611,-25.433],[-54.755,-26.533],[-55.136,-26.931],[-55.427,-27.009],[-55.633,-27.357],[-55.79,-27.416],[-56.164,-27.321],[-56.437,-27.554],[-58.168,-27.273],[-58.605,-27.314],[-58.816,-27.438],[-58.862,-27.971],[-59.087,-28.288],[-59.205,-29.032],[-59.565,-29.335],[-59.654,-30.717],[-60.302,-31.554],[-60.666,-31.768],[-60.757,-32.517],[-60.541,-33.053],[-59.548,-33.684],[-58.591,-34.038],[-58.429,-33.991]],[[-50.49,-19.02],[-50.844,-19.311],[-50.997,-19.668],[-50.994,-20.102],[-51.534,-20.558],[-52.123,-21.718],[-52.403,-22.069],[-53.62,-23.001],[-53.996,-23.57],[-54.125,-23.978],[-54.267,-24.066],[-54.067,-24.004],[-53.786,-23.333]],[[-59.182,-33.806],[-59.664,-33.315],[-60.39,-33.173]],[[-55.075,-14.319],[-55.432,-14.357],[-56.173,-14.68],[-56.497,-15.037],[-56.117,-15.609],[-56.122,-15.845],[-55.89,-16.069],[-55.947,-16.309],[-56.382,-16.565],[-56.62,-16.872],[-56.59,-17.067],[-56.888,-17.518],[-57.37,-17.876],[-57.407,-18.497],[-57.688,-18.919],[-57.365,-19.07],[-57.309,-19.351],[-57.458,-19.652],[-58.149,-20.177],[-57.822,-21.009],[-57.981,-22.09],[-57.788,-22.589],[-57.903,-22.751],[-57.476,-23.348],[-57.073,-24.478],[-57.221,-24.984],[-57.635,-25.245],[-57.572,-25.534],[-58.111,-26.18],[-58.191,-26.63],[-58.619,-27.132],[-58.605,-27.314]]]}},{"type":"Feature","id":"w84","properties":{"ko":"우루과이강","en":"Uruguay","rank":6,"parts":1},"geometry":{"type":"MultiLineString","coordinates":[[[-49.737,-28.511],[-50.578,-28.386],[-51.117,-27.808],[-51.645,-27.5],[-51.873,-27.509],[-52.139,-27.283],[-53.227,-27.174],[-53.398,-27.082],[-53.616,-27.21],[-53.935,-27.161],[-54.327,-27.423],[-54.829,-27.551],[-55.102,-27.867],[-55.726,-28.204],[-55.687,-28.382],[-55.891,-28.37],[-57.831,-30.495],[-57.811,-30.859],[-58.054,-31.495],[-57.989,-31.621],[-58.189,-31.924],[-58.12,-32.249],[-58.201,-32.472]]]}},{"type":"Feature","id":"w85","properties":{"ko":"필코마요강","en":"Pilcomayo","rank":6,"parts":1},"geometry":{"type":"MultiLineString","coordinates":[[[-66.444,-19.37],[-66.297,-19.165],[-65.98,-19.366],[-65.582,-19.12],[-65.171,-19.362],[-64.973,-19.373],[-64.679,-19.894],[-64.572,-20.336],[-64.274,-20.586],[-64.132,-20.899],[-63.843,-21.176],[-63.041,-21.539],[-62.745,-22.16],[-62.372,-22.439],[-61.799,-23.182],[-60.84,-23.858],[-59.892,-24.094],[-59.187,-24.562],[-58.365,-24.959],[-57.96,-25.049],[-57.644,-25.328]]]}},{"type":"Feature","id":"w86","properties":{"ko":"머리강","en":"Murray","rank":3,"parts":1},"geometry":{"type":"MultiLineString","coordinates":[[[148.005,-36.967],[148.197,-36.625],[147.931,-36.019],[147.458,-35.954],[147.323,-36.07],[147.043,-36.108],[146.47,-35.994],[146.216,-36.056],[145.432,-35.835],[145.008,-35.884],[144.916,-36.107],[144.668,-36.088],[144.163,-35.634],[143.404,-35.168],[143.325,-34.788],[142.774,-34.588],[142.571,-34.775],[142.373,-34.333],[141.926,-34.117],[141.47,-34.183],[140.948,-33.999],[140.763,-34.096],[140.773,-34.189],[140.533,-34.433],[140.352,-34.223],[139.753,-34.051],[139.607,-34.383],[139.617,-34.852],[139.289,-34.981],[139.435,-35.297],[139.303,-35.399]]]}},{"type":"Feature","id":"w87","properties":{"ko":"달링강","en":"Darling","rank":3,"parts":1},"geometry":{"type":"MultiLineString","coordinates":[[[150.47,-28.65],[150.341,-28.564],[149.512,-28.579],[148.887,-29.05],[148.641,-29.528],[147.978,-30.013],[147.415,-30.125],[146.656,-29.928],[146.043,-29.983],[145.528,-30.378],[145.157,-30.479],[144.728,-30.838],[144.411,-30.965],[143.904,-31.403],[143.411,-31.575],[143.04,-31.903],[142.978,-32.09],[142.538,-32.333],[142.404,-32.505],[142.326,-33.143],[142.575,-33.435],[142.449,-33.632],[142.002,-33.867],[141.926,-34.117]]]}}]}