{"type": "FeatureCollection", "name": "roads-ot", "note": "구약 시대 주요 도로 · 성경이 말하는 양 끝과 경유지를 잇는, 지형상 가장 걷기 쉬운 길이다. 철기시대 도로 유구의 선형이 아니라 교육용 재구성이며, 확실성은 아무리 높아도 ‘개연’이다.", "attribution": "표고 Mapterhorn terrarium · 지명 이 프로젝트의 구약·신약 지명 자료 · 노선 대조에 Itiner-e (CC BY 4.0)", "method": {"router": "토블러 보행함수 최소비용 경로", "dem": "Mapterhorn terrarium z11", "stepM": 200.0, "corridorHalfM": 8000.0, "pull": 0.05, "certaintyRule": "후대 로마 도로(서기 30년 층 또는 그 이후 층)와 3 km 안에서 40% 이상 같은 회랑을 쓰면 '개연', 그 밖은 '추정'. '확정'은 쓰지 않는다. 로마가 같은 길을 다시 썼다는 것은 그 회랑이 오래된 통로였다는 방증이다."}, "features": [{"type": "Feature", "properties": {"id": "ot-coastal", "roadId": "ot-coastal", "nameKo": "해변길 (블레셋 사람의 땅의 길)", "nameEn": "Way of the Sea / Way of the Philistines", "routeType": "trunk", "testament": "ot", "activeC30": false, "region": "해안 평야·이스르엘", "periodKo": "청동기~철기 (출애굽~왕국 시대 내내)", "via": ["가사", "아스글론", "아스돗(아소도)", "욥바", "돌", "아루나 고개", "므깃도", "벧산(스구도볼리)", "하솔", "다메섹"], "relatedPlaces": ["가사", "아스글론", "아스돗(아소도)", "욥바", "돌", "아루나 고개", "므깃도", "벧산(스구도볼리)", "하솔", "다메섹"], "relatedVerses": ["출 13:17", "사 9:1", "왕하 23:29"], "certainty": "probable", "lengthKm": 349, "walkDays": [10, 14], "romanOverlapPct": 70, "laterRomanOverlapPct": 14, "sourceIds": ["bible-text", "ot-places", "mapterhorn-dem", "itinere-2024"], "noteKo": "뒷날 로마가 같은 회랑을 다시 포장했고, 그것을 후대에 ‘Via Maris’라 불렀다. 1세기 공식 도로명이 아니듯 구약 시대 이름도 아니다.", "basisKo": "출애굽 때 하나님이 이 길로 인도하지 않으셨다는 기록(출 13:17)에서 이미 이름이 나온다. 애굽과 메소포타미아를 잇는 국제 간선로였고, 갈멜 산줄기를 넘는 아루나 고개와 그 어귀의 므깃도가 이 길의 목이라 열왕기·역대기의 전투가 거기서 벌어진다.", "geometrySource": "termini + terrain least-cost path", "license": "경로는 이 프로젝트가 계산한 값. 표고 Mapterhorn, 대조에 Itiner-e (CC BY 4.0)."}, "geometry": {"type": "MultiLineString", "coordinates": [[[34.47, 31.5], [34.55, 31.66]], [[34.55, 31.66], [34.658, 31.756]], [[34.658, 31.756], [34.752, 32.054]], [[34.752, 32.054], [34.92, 32.62]], [[34.92, 32.62], [34.94593, 32.58889], [34.94544, 32.58637], [34.94667, 32.58489], [34.94618, 32.58237], [34.9647, 32.56015], [34.98322, 32.53793], [34.98618, 32.53748], [34.99852, 32.52267], [35.00148, 32.52222], [35.02, 32.5]], [[35.02, 32.5], [35.02294, 32.49942], [35.10902, 32.54431], [35.11046, 32.54929], [35.13061, 32.5598], [35.13649, 32.55863], [35.14016, 32.56054], [35.14065, 32.56217], [35.14078, 32.56239], [35.14094, 32.56256], [35.14113, 32.56269], [35.14135, 32.56277], [35.14161, 32.56282], [35.14189, 32.56281], [35.14676, 32.56187], [35.15226, 32.56473], [35.1552, 32.56415], [35.15887, 32.56606], [35.15959, 32.56855], [35.16691, 32.57238], [35.16763, 32.57487], [35.17862, 32.5806], [35.17934, 32.58309], [35.183, 32.585]], [[35.183, 32.585], [35.18839, 32.5874], [35.19044, 32.58685], [35.19313, 32.58805], [35.19518, 32.5875], [35.19787, 32.5887], [35.3349, 32.55196], [35.33759, 32.55315], [35.34168, 32.55206], [35.34438, 32.55326], [35.37301, 32.54558], [35.37915, 32.54393], [35.38054, 32.54164], [35.38259, 32.54109], [35.38398, 32.53879], [35.41261, 32.53112], [35.41401, 32.52882], [35.42014, 32.52718], [35.42154, 32.52488], [35.43177, 32.52214], [35.43316, 32.51984], [35.43521, 32.5193], [35.4366, 32.517], [35.5, 32.5]], [[35.5, 32.5], [35.50047, 32.50358], [35.52832, 32.52269], [35.52855, 32.52447], [35.53552, 32.52925], [35.53669, 32.5382], [35.53901, 32.53979], [35.54113, 32.55589], [35.54345, 32.55748], [35.54392, 32.56106], [35.54856, 32.56424], [35.55256, 32.59466], [35.55489, 32.59625], [35.55865, 32.62487], [35.5568, 32.62686], [35.56033, 32.65369], [35.55848, 32.65568], [35.55895, 32.65925], [35.5571, 32.66124], [35.56839, 32.74711], [35.56469, 32.75108], [35.56516, 32.75466], [35.55961, 32.76061], [35.57914, 32.90909], [35.57174, 32.91704], [35.57245, 32.9224], [35.5706, 32.92439], [35.57413, 32.95122], [35.56858, 32.95718], [35.56881, 32.95897], [35.56696, 32.96095], [35.57379, 33.01283], [35.57194, 33.01482], [35.568, 33.017]], [[35.568, 33.017], [35.65553, 33.07838], [35.65583, 33.0809], [35.72849, 33.13186], [35.7315, 33.13165], [35.7348, 33.13396], [35.73781, 33.13375], [35.7791, 33.1627], [35.78211, 33.16249], [35.78376, 33.16365], [36.03148, 33.33735], [36.03178, 33.33988], [36.11766, 33.4001], [36.11795, 33.40263], [36.2765, 33.5138]]]}}, {"type": "Feature", "properties": {"id": "ot-kings-highway", "roadId": "ot-kings-highway", "nameKo": "왕의 대로", "nameEn": "King's Highway", "routeType": "trunk", "testament": "ot", "activeC30": false, "region": "요단 동편 고원", "periodKo": "청동기~철기 (광야 시대부터)", "via": ["엘랏(엘롯)", "데만", "보스라", "아로엘", "디본", "메드바", "헤스본", "랍바(빌라델비아)", "길르앗", "아스다롯", "다메섹"], "relatedPlaces": ["엘랏(엘롯)", "데만", "보스라", "아로엘", "디본", "메드바", "헤스본", "랍바(빌라델비아)", "길르앗", "아스다롯", "다메섹"], "relatedVerses": ["민 20:17", "민 21:22", "신 2:27"], "certainty": "hypothetical", "lengthKm": 497, "walkDays": [14, 20], "romanOverlapPct": 12, "laterRomanOverlapPct": 18, "sourceIds": ["bible-text", "ot-places", "mapterhorn-dem", "itinere-2024"], "noteKo": "트라야누스가 서기 111~114년에 놓은 Via Nova Traiana 가 이 회랑을 상당 부분 다시 썼다. 그러나 로마 도로의 포장 선형과 구약 시대의 길을 같은 선으로 단정하지는 않는다.", "basisKo": "이스라엘이 에돔 왕과 아모리 왕 시혼에게 “왕의 대로로만 가고 좌우로 치우치지 않겠다”고 청한 그 길이다(민 20:17; 21:22). 요단 동편 고원의 등줄기를 남북으로 달리며, 아르논 골짜기를 건너는 목이 정해져 있다.", "geometrySource": "termini + terrain least-cost path", "license": "경로는 이 프로젝트가 계산한 값. 표고 Mapterhorn, 대조에 Itiner-e (CC BY 4.0)."}, "geometry": {"type": "MultiLineString", "coordinates": [[[34.95, 29.55], [34.97234, 29.5825], [34.97165, 29.58496], [35.04506, 29.69173], [35.04437, 29.69419], [35.04544, 29.69574], [35.04407, 29.70066], [35.04513, 29.70221], [35.04307, 29.7096], [35.04414, 29.71115], [35.04345, 29.71361], [35.04558, 29.7167], [35.04489, 29.71917], [35.07468, 29.76249], [35.07331, 29.76742], [35.0882, 29.78908], [35.08614, 29.79647], [35.10529, 29.82432], [35.10255, 29.83417], [35.11851, 29.85738], [35.11782, 29.85985], [35.12421, 29.86913], [35.12352, 29.87159], [35.12671, 29.87624], [35.12603, 29.8787], [35.14305, 29.90346], [35.14168, 29.90838], [35.15444, 29.92695], [35.15376, 29.92941], [35.15695, 29.93406], [35.15558, 29.93898], [35.15983, 29.94517], [35.15915, 29.94763], [35.16127, 29.95073], [35.15647, 29.96797], [35.16073, 29.97416], [35.15936, 29.97908], [35.16042, 29.98063], [35.15974, 29.98309], [35.16718, 29.99392], [35.1665, 29.99639], [35.18458, 30.02269], [35.19021, 30.02396], [35.2051, 30.04562], [35.20792, 30.04625], [35.20898, 30.0478], [35.21179, 30.04843], [35.21286, 30.04998], [35.21567, 30.05061], [35.2295, 30.07073], [35.22881, 30.07319], [35.22988, 30.07474], [35.2352, 30.08247], [35.23801, 30.08311], [35.23907, 30.08465], [35.23839, 30.08712], [35.25009, 30.10414], [35.2529, 30.10477], [35.2795, 30.14345], [35.28231, 30.14409], [35.28976, 30.15492], [35.30383, 30.15808], [35.31872, 30.17974], [35.32435, 30.18101], [35.33499, 30.19648], [35.3378, 30.19711], [35.33886, 30.19866], [35.35574, 30.20245], [35.37276, 30.22721], [35.37558, 30.22784], [35.39366, 30.25415], [35.39648, 30.25478], [35.4135, 30.27954], [35.41631, 30.28017], [35.4195, 30.28481], [35.43076, 30.28734], [35.43288, 30.29044], [35.4357, 30.29107], [35.43676, 30.29262], [35.43957, 30.29325], [35.44808, 30.30563], [35.4509, 30.30626], [35.45941, 30.31864], [35.46222, 30.31927], [35.46435, 30.32236], [35.46716, 30.323], [35.46929, 30.32609], [35.47492, 30.32736], [35.48768, 30.34592], [35.4905, 30.34656], [35.49156, 30.3481], [35.5, 30.35]], [[35.5, 30.35], [35.50252, 30.35128], [35.50305, 30.35302], [35.50557, 30.35431], [35.51146, 30.37346], [35.51398, 30.37474], [35.51612, 30.38171], [35.52367, 30.38555], [35.52474, 30.38904], [35.52726, 30.39032], [35.52833, 30.3938], [35.53336, 30.39637], [35.53443, 30.39985], [35.5445, 30.40498], [35.54503, 30.40672], [35.54755, 30.40801], [35.54808, 30.40975], [35.55312, 30.41231], [35.57615, 30.48718], [35.59376, 30.49616], [35.59537, 30.50138], [35.59789, 30.50267], [35.59842, 30.50441], [35.60346, 30.50697], [35.60453, 30.51045], [35.60704, 30.51174], [35.60811, 30.51522], [35.61063, 30.5165], [35.61331, 30.52521], [35.61583, 30.52649], [35.62011, 30.54042], [35.62263, 30.5417], [35.64245, 30.60612], [35.641, 30.60832], [35.64154, 30.61006], [35.64009, 30.61226], [35.64331, 30.62271], [35.64186, 30.62491], [35.64347, 30.63013], [35.64203, 30.63233], [35.6431, 30.63581], [35.63876, 30.64241], [35.6393, 30.64415], [35.6263, 30.66394], [35.62683, 30.66568], [35.62539, 30.66788], [35.6225, 30.67014], [35.62237, 30.67028], [35.62227, 30.67044], [35.6222, 30.6706], [35.62216, 30.67077], [35.62214, 30.67095], [35.62216, 30.67113], [35.6225, 30.67228], [35.62105, 30.67448], [35.62373, 30.68319], [35.62084, 30.68758], [35.62459, 30.69977], [35.62315, 30.70197], [35.62529, 30.70894], [35.62385, 30.71114], [35.62706, 30.72158], [35.61839, 30.73478], [35.62, 30.74]], [[35.62, 30.74], [35.62747, 30.74401], [35.63234, 30.76153], [35.63082, 30.7637], [35.63472, 30.77771], [35.6332, 30.77988], [35.63563, 30.78864], [35.63812, 30.78998], [35.64007, 30.79698], [35.64256, 30.79832], [35.64743, 30.81584], [35.64591, 30.818], [35.67024, 30.9056], [35.66417, 30.91426], [35.66465, 30.91601], [35.66162, 30.92034], [35.66405, 30.9291], [35.66253, 30.93127], [35.66448, 30.93827], [35.66296, 30.94044], [35.66637, 30.9527], [35.66886, 30.95404], [35.66983, 30.95754], [35.67481, 30.96022], [35.67837, 30.97291], [35.67856, 30.97328], [35.6788, 30.97361], [35.67909, 30.9739], [35.67943, 30.97415], [35.67981, 30.97436], [35.68025, 30.97453], [35.68166, 30.97487], [35.68209, 30.97503], [35.68248, 30.97524], [35.68282, 30.97549], [35.68311, 30.97578], [35.68335, 30.97611], [35.68354, 30.97648], [35.68855, 30.99443], [35.69852, 30.99978], [35.70241, 31.01379], [35.69938, 31.01813], [35.70376, 31.03389], [35.70224, 31.03606], [35.71392, 31.0781], [35.7124, 31.08027], [35.72408, 31.12231], [35.72906, 31.12499], [35.73003, 31.12849], [35.73502, 31.13117], [35.79292, 31.33963], [35.79542, 31.34097], [35.79639, 31.34448], [35.79888, 31.34581], [35.80423, 31.36508], [35.80922, 31.36776], [35.81019, 31.37126], [35.81268, 31.3726], [35.81365, 31.37611], [35.81214, 31.37827], [35.81749, 31.39754], [35.81998, 31.39888], [35.82631, 31.42165], [35.82479, 31.42382], [35.82527, 31.42557], [35.82376, 31.42774], [35.8257, 31.43474], [35.82267, 31.43907], [35.82413, 31.44433], [35.82261, 31.4465], [35.82407, 31.45175], [35.82103, 31.45608], [35.82152, 31.45783], [35.82, 31.46]], [[35.82, 31.46], [35.78, 31.51]], [[35.78, 31.51], [35.7825, 31.54433], [35.77855, 31.54817], [35.77868, 31.54998], [35.78092, 31.55167], [35.78131, 31.5571], [35.78355, 31.55879], [35.78421, 31.56782], [35.78223, 31.56974], [35.7825, 31.57336], [35.78474, 31.57505], [35.78855, 31.62746], [35.79079, 31.62915], [35.79184, 31.64361], [35.78987, 31.64553], [35.795, 31.716]], [[35.795, 31.716], [35.808, 31.8]], [[35.808, 31.8], [35.86315, 31.86618], [35.86265, 31.86869], [35.86633, 31.87311], [35.86583, 31.87562], [35.86829, 31.87857], [35.86779, 31.88108], [35.87392, 31.88844], [35.89475, 31.91344], [35.8977, 31.91386], [35.91853, 31.93886], [35.92737, 31.94013], [35.93349, 31.94748], [35.933, 31.95]], [[35.933, 31.95], [35.91009, 32.00242], [35.90739, 32.00349], [35.90296, 32.01363], [35.89757, 32.01577], [35.88796, 32.03775], [35.88258, 32.03989], [35.85153, 32.1109], [35.85639, 32.12015], [35.85492, 32.12353], [35.85613, 32.12585], [35.85465, 32.12923], [35.85951, 32.13847], [35.85655, 32.14524], [35.85386, 32.14631], [35.85312, 32.148], [35.85043, 32.14907], [35.84747, 32.15583], [35.84869, 32.15814], [35.84721, 32.16152], [35.84452, 32.16259], [35.83491, 32.18458], [35.83855, 32.19151], [35.83264, 32.20504], [35.83385, 32.20735], [35.81316, 32.25469], [35.81559, 32.25932], [35.81337, 32.26439], [35.81263, 32.26608], [35.80994, 32.26715], [35.80846, 32.27053], [35.80307, 32.27267], [35.80086, 32.27774], [35.79547, 32.27988], [35.78882, 32.2951], [35.78343, 32.29724], [35.78269, 32.29893], [35.78, 32.3]], [[35.78, 32.3], [35.78146, 32.30339], [35.78022, 32.3057], [35.78532, 32.31756], [35.78408, 32.31987], [35.78699, 32.32665], [35.78969, 32.32774], [35.79041, 32.32943], [35.79311, 32.33052], [35.8288, 32.4136], [35.8315, 32.41468], [35.83368, 32.41977], [35.83638, 32.42086], [35.83857, 32.42594], [35.84126, 32.42703], [35.84345, 32.43212], [35.84615, 32.4332], [35.84687, 32.4349], [35.84957, 32.43599], [35.8503, 32.43768], [35.86109, 32.44203], [35.86181, 32.44372], [35.86721, 32.4459], [35.86939, 32.45098], [35.87209, 32.45207], [35.87282, 32.45376], [35.87552, 32.45485], [35.87697, 32.45824], [35.87967, 32.45933], [35.88258, 32.46611], [35.88528, 32.4672], [35.94501, 32.60623], [35.9477, 32.60731], [35.94869, 32.60954], [35.94891, 32.60986], [35.94917, 32.61014], [35.94948, 32.61037], [35.94982, 32.61057], [35.9502, 32.61072], [35.95062, 32.61083], [35.95223, 32.61104], [35.95269, 32.61117], [35.95311, 32.61133], [35.95348, 32.61155], [35.95381, 32.61181], [35.9541, 32.61211], [35.95435, 32.61246], [35.96038, 32.62644], [35.96694, 32.6417], [35.9657, 32.64401], [36.00737, 32.74108], [36.00745, 32.74148], [36.00746, 32.74187], [36.0074, 32.74225], [36.00728, 32.74262], [36.00709, 32.74298], [36.00683, 32.74332], [36.00474, 32.74526], [35.99109, 32.7706], [35.99255, 32.774], [35.98883, 32.78091], [35.98956, 32.7826], [35.98832, 32.78491], [36.0058, 32.8256]], [[36.0058, 32.8256], [36.22667, 33.38712], [36.22401, 33.39166], [36.22469, 33.39337], [36.24623, 33.44815], [36.24891, 33.44931], [36.2516, 33.45615], [36.25428, 33.45731], [36.2765, 33.5138]]]}}, {"type": "Feature", "properties": {"id": "ot-ridge", "roadId": "ot-ridge", "nameKo": "중앙 산지 능선길 (족장의 길)", "nameEn": "Central Ridge Route", "routeType": "pilgrimage", "testament": "ot", "activeC30": false, "region": "유다·에브라임 산지", "periodKo": "청동기~철기 (족장 시대부터)", "via": ["브엘세바", "헤브론", "베들레헴", "예루살렘", "벧엘", "실로", "세겜", "도단", "이스르엘"], "relatedPlaces": ["브엘세바", "헤브론", "베들레헴", "예루살렘", "벧엘", "실로", "세겜", "도단", "이스르엘"], "relatedVerses": ["창 12:6-9", "창 35:1-7", "삿 21:19", "삼상 1:3"], "certainty": "probable", "lengthKm": 177, "walkDays": [5, 7], "romanOverlapPct": 56, "laterRomanOverlapPct": 7, "sourceIds": ["bible-text", "ot-places", "mapterhorn-dem", "itinere-2024"], "noteKo": "남북으로 이어지는 이 능선이 유다와 에브라임 산지의 등뼈다. 절기마다 이 길로 올라갔다.", "basisKo": "아브람이 세겜에서 벧엘로, 다시 남방으로 옮겨 간 길이 이 능선이다(창 12:6-9). 분수령을 따르므로 골짜기를 건너지 않아도 되고, 실로·벧엘·세겜 같은 성소가 이 길목에 늘어서 있다.", "geometrySource": "termini + terrain least-cost path", "license": "경로는 이 프로젝트가 계산한 값. 표고 Mapterhorn, 대조에 Itiner-e (CC BY 4.0)."}, "geometry": {"type": "MultiLineString", "coordinates": [[[34.841, 31.245], [34.94014, 31.35518], [34.93979, 31.3577], [34.94752, 31.36628], [34.94716, 31.3688], [34.9536, 31.37596], [34.95325, 31.37848], [34.95454, 31.37991], [34.95419, 31.38243], [34.96577, 31.3953], [34.96542, 31.39782], [34.98216, 31.41643], [34.98509, 31.41677], [34.98638, 31.4182], [34.99925, 31.43251], [34.9989, 31.43503], [35.01435, 31.4522], [35.0202, 31.45288], [35.0408, 31.47577], [35.04373, 31.47611], [35.04759, 31.48041], [35.05345, 31.48109], [35.05989, 31.48824], [35.06281, 31.48859], [35.07826, 31.50576], [35.07791, 31.50828], [35.0998, 31.5326]], [[35.0998, 31.5326], [35.10555, 31.54229], [35.10367, 31.54718], [35.10463, 31.54879], [35.10086, 31.55857], [35.11236, 31.57795], [35.11142, 31.5804], [35.11621, 31.58847], [35.11527, 31.59092], [35.11815, 31.59576], [35.12387, 31.59733], [35.12675, 31.60218], [35.1258, 31.60462], [35.13252, 31.61593], [35.13157, 31.61837], [35.13253, 31.61999], [35.13065, 31.62488], [35.1364, 31.63457], [35.13546, 31.63701], [35.13833, 31.64186], [35.1508, 31.66285], [35.15366, 31.66363], [35.15654, 31.66848], [35.1594, 31.66926], [35.16323, 31.67572], [35.16609, 31.67651], [35.17281, 31.68781], [35.18139, 31.69017], [35.18234, 31.69178], [35.18807, 31.69335], [35.18902, 31.69497], [35.19188, 31.69575], [35.19572, 31.70221], [35.19858, 31.703], [35.19954, 31.70461], [35.2024, 31.7054]], [[35.2024, 31.7054], [35.19861, 31.71251], [35.20629, 31.72949], [35.20908, 31.73051], [35.21369, 31.7407], [35.22597, 31.76786], [35.22516, 31.76942], [35.2251, 31.76966], [35.22511, 31.76988], [35.22516, 31.77008], [35.22528, 31.77026], [35.22545, 31.77043], [35.22568, 31.77057], [35.2303, 31.77228], [35.2326, 31.77738], [35.2354, 31.7784]], [[35.2354, 31.7784], [35.23503, 31.78201], [35.23691, 31.78397], [35.23416, 31.81104], [35.23192, 31.81269], [35.23173, 31.8145], [35.22949, 31.81615], [35.22711, 31.83961], [35.22486, 31.84126], [35.22083, 31.88097], [35.21858, 31.88262], [35.21822, 31.88623], [35.21597, 31.88788], [35.2156, 31.89149], [35.21414, 31.90593], [35.21602, 31.90788], [35.21492, 31.91871], [35.21679, 31.92067], [35.21661, 31.92247], [35.22037, 31.92639], [35.22, 31.93]], [[35.22, 31.93], [35.2228, 31.93087], [35.22749, 31.93097], [35.2331, 31.93271], [35.23706, 31.93281], [35.23727, 31.93285], [35.23747, 31.93291], [35.23765, 31.933], [35.23781, 31.9331], [35.23796, 31.93323], [35.23809, 31.93338], [35.2387, 31.93445], [35.2415, 31.93532], [35.24241, 31.93696], [35.24801, 31.9387], [35.26619, 31.97143], [35.26899, 31.9723], [35.28445, 32.00012], [35.28346, 32.00252], [35.28437, 32.00416], [35.28339, 32.00656], [35.28794, 32.01474], [35.284, 32.02435], [35.28582, 32.02762], [35.28484, 32.03003], [35.29211, 32.04312], [35.28818, 32.05273], [35.29, 32.056]], [[35.29, 32.056], [35.28992, 32.0578], [35.27659, 32.06822], [35.27643, 32.07183], [35.27421, 32.07356], [35.27372, 32.08439], [35.26706, 32.08959], [35.2669, 32.0932], [35.26896, 32.09508], [35.26856, 32.1041], [35.27062, 32.10597], [35.26989, 32.12221], [35.27401, 32.12596], [35.27353, 32.13679], [35.27131, 32.13853], [35.27075, 32.15116], [35.27693, 32.15678], [35.27677, 32.16039], [35.27883, 32.16226], [35.27835, 32.17309], [35.28247, 32.17684], [35.28215, 32.18406], [35.28421, 32.18593], [35.283, 32.213]], [[35.283, 32.213], [35.28562, 32.21758], [35.28892, 32.22045], [35.29023, 32.22274], [35.28748, 32.22958], [35.28879, 32.23187], [35.28605, 32.23871], [35.28337, 32.23984], [35.282, 32.24327], [35.27664, 32.24553], [35.27526, 32.24895], [35.27657, 32.25124], [35.2704, 32.26664], [35.27171, 32.26893], [35.2669, 32.2809], [35.26422, 32.28203], [35.26354, 32.28375], [35.26086, 32.28488], [35.25606, 32.29685], [35.25737, 32.29914], [35.25668, 32.30085], [35.25132, 32.30312], [35.25063, 32.30483], [35.24795, 32.30596], [35.24727, 32.30767], [35.24191, 32.30993], [35.24122, 32.31164], [35.23586, 32.31391], [35.23517, 32.31562], [35.23648, 32.31791], [35.23511, 32.32133], [35.23243, 32.32246], [35.23174, 32.32417], [35.22638, 32.32644], [35.2257, 32.32815], [35.22302, 32.32928], [35.22233, 32.33099], [35.20625, 32.33778], [35.19939, 32.35489], [35.19596, 32.36344], [35.2012, 32.3726], [35.19982, 32.37602], [35.20375, 32.38289], [35.20169, 32.38802], [35.203, 32.39031], [35.20231, 32.39202], [35.20493, 32.3966], [35.20424, 32.39831], [35.20686, 32.40289], [35.20412, 32.40974], [35.20542, 32.41203], [35.20337, 32.41716], [35.20069, 32.41829], [35.2, 32.42]], [[35.2, 32.42], [35.24155, 32.4641], [35.24454, 32.4644], [35.24723, 32.46724], [35.25527, 32.47578], [35.25495, 32.47833], [35.33, 32.558]]]}}, {"type": "Feature", "properties": {"id": "ot-jericho-ai", "roadId": "ot-jericho-ai", "nameKo": "여리고–아이–벧엘 오르막", "nameEn": "Jericho–Ai–Bethel ascent", "routeType": "regional", "testament": "ot", "activeC30": false, "region": "유대 광야", "periodKo": "철기 (정복 시대)", "via": ["여리고", "아이", "벧엘"], "relatedPlaces": ["여리고", "아이", "벧엘"], "relatedVerses": ["수 7:2", "수 8:1-29", "수 10:1-15"], "certainty": "probable", "lengthKm": 24, "walkDays": [1, 1], "romanOverlapPct": 47, "laterRomanOverlapPct": 0, "sourceIds": ["bible-text", "ot-places", "mapterhorn-dem", "itinere-2024"], "noteKo": "여리고에서 산지로 ‘올라간다’는 표현이 그대로 지형이다.", "basisKo": "여리고를 친 뒤 아이로 올라간 길이다(수 7-8장). 요단 계곡(-260 m)에서 산지(900 m)로 오르는 비탈이라 통로가 사실상 하나뿐이다.", "geometrySource": "termini + terrain least-cost path", "license": "경로는 이 프로젝트가 계산한 값. 표고 Mapterhorn, 대조에 Itiner-e (CC BY 4.0)."}, "geometry": {"type": "MultiLineString", "coordinates": [[[35.4443, 31.857], [35.43241, 31.86106], [35.42964, 31.86007], [35.4237, 31.8621], [35.42093, 31.8611], [35.41697, 31.86245], [35.4142, 31.86146], [35.38051, 31.87297], [35.37775, 31.87197], [35.33019, 31.88823], [35.32742, 31.88723], [35.32346, 31.88859], [35.32226, 31.89094], [35.3183, 31.8923], [35.31648, 31.89166], [35.3162, 31.89162], [35.31594, 31.89162], [35.31571, 31.89167], [35.3155, 31.89177], [35.31531, 31.89192], [35.31514, 31.89211], [35.31433, 31.89365], [35.30839, 31.89568], [35.30719, 31.89804], [35.30521, 31.89871], [35.30281, 31.90342], [35.26516, 31.91629], [35.26396, 31.91865], [35.26, 31.92]], [[35.26, 31.92], [35.22, 31.93]]]}}, {"type": "Feature", "properties": {"id": "ot-beth-horon", "roadId": "ot-beth-horon", "nameKo": "벧호론 비탈길", "nameEn": "Ascent/Descent of Beth-horon", "routeType": "regional", "testament": "ot", "activeC30": false, "region": "유다 산지 서쪽 비탈", "periodKo": "철기 (정복~왕국 시대)", "via": ["기브온", "벧호론", "아얄론 골짜기", "에그론"], "relatedPlaces": ["기브온", "벧호론", "아얄론 골짜기", "에그론"], "relatedVerses": ["수 10:10-11", "삼상 13:18", "대하 8:5"], "certainty": "probable", "lengthKm": 38, "walkDays": [1, 2], "romanOverlapPct": 100, "laterRomanOverlapPct": 0, "sourceIds": ["bible-text", "ot-places", "mapterhorn-dem", "itinere-2024"], "noteKo": "위 벧호론과 아래 벧호론이 이 비탈의 위아래 마을이다.", "basisKo": "여호수아가 아모리 다섯 왕을 쫓아 내려간 “벧호론에 올라가는 비탈길”이다(수 10:10-11). 산지에서 해안 평야로 내려서는 몇 안 되는 통로라 마카베오 시대까지 전투가 반복된다.", "geometrySource": "termini + terrain least-cost path", "license": "경로는 이 프로젝트가 계산한 값. 표고 Mapterhorn, 대조에 Itiner-e (CC BY 4.0)."}, "geometry": {"type": "MultiLineString", "coordinates": [[[35.184, 31.846], [35.18268, 31.85116], [35.1772, 31.85408], [35.17654, 31.85666], [35.17471, 31.85763], [35.17339, 31.86279], [35.1679, 31.8657], [35.16725, 31.86829], [35.15993, 31.87217], [35.14794, 31.86962], [35.14611, 31.87059], [35.14311, 31.86995], [35.14128, 31.87092], [35.13829, 31.87029], [35.12, 31.88]], [[35.12, 31.88], [35.11756, 31.88152], [35.11547, 31.88122], [35.11058, 31.88425], [35.10849, 31.88395], [35.1036, 31.88698], [35.08271, 31.88399], [35.08097, 31.88188], [35.07888, 31.88158], [35.07715, 31.87947], [35.06461, 31.87768], [35.0594, 31.87134], [34.98, 31.86]], [[34.98, 31.86], [34.85, 31.78]]]}}, {"type": "Feature", "properties": {"id": "ot-jezreel", "roadId": "ot-jezreel", "nameKo": "이스르엘 평야 횡단로", "nameEn": "Jezreel Valley route", "routeType": "regional", "testament": "ot", "activeC30": false, "region": "이스르엘 평야", "periodKo": "청동기~철기", "via": ["므깃도", "다아낙", "이스르엘", "벧산(스구도볼리)"], "relatedPlaces": ["므깃도", "다아낙", "이스르엘", "벧산(스구도볼리)"], "relatedVerses": ["삿 5:19", "삼상 31:1-13", "왕하 9:27"], "certainty": "hypothetical", "lengthKm": 35, "walkDays": [1, 1], "romanOverlapPct": 0, "laterRomanOverlapPct": 20, "sourceIds": ["bible-text", "ot-places", "mapterhorn-dem", "itinere-2024"], "noteKo": "해변길이 아루나 고개를 넘어 이 평야로 내려서서 요단 계곡으로 이어진다.", "basisKo": "드보라의 노래가 “다아낙 성 곁 므깃도 물 가에서” 싸웠다고 하고(삿 5:19), 사울이 길보아에서 죽은 뒤 시신이 벧산 성벽에 달렸다(삼상 31). 평야를 동서로 가르는 이 길이 그 무대다.", "geometrySource": "termini + terrain least-cost path", "license": "경로는 이 프로젝트가 계산한 값. 표고 Mapterhorn, 대조에 Itiner-e (CC BY 4.0)."}, "geometry": {"type": "MultiLineString", "coordinates": [[[35.183, 32.585], [35.22, 32.53]], [[35.22, 32.53], [35.33, 32.558]], [[35.33, 32.558], [35.342, 32.55391], [35.34479, 32.5549], [35.37279, 32.54535], [35.40479, 32.53443], [35.406, 32.53207], [35.5, 32.5]]]}}, {"type": "Feature", "properties": {"id": "ot-jabbok", "roadId": "ot-jabbok", "nameKo": "세겜–숙곳–얍복 길 (야곱의 길)", "nameEn": "Shechem–Succoth–Jabbok route", "routeType": "regional", "testament": "ot", "activeC30": false, "region": "요단 계곡·길르앗", "periodKo": "청동기 (족장 시대)", "via": ["세겜", "숙곳(요단)", "얍복강", "마하나임"], "relatedPlaces": ["세겜", "숙곳(요단)", "얍복강", "마하나임"], "relatedVerses": ["창 32:22-31", "창 33:17-18"], "certainty": "probable", "lengthKm": 48, "walkDays": [1, 2], "romanOverlapPct": 61, "laterRomanOverlapPct": 0, "sourceIds": ["bible-text", "ot-places", "mapterhorn-dem", "itinere-2024"], "noteKo": "요단 동편에서 세겜으로 들어오는 길목이다.", "basisKo": "야곱이 얍복 나루를 건너 씨름하고, 숙곳에 집을 짓고, 세겜에 이른 그 경로다(창 32-33). 얍복강이 요단으로 드는 여울목이 건널 자리를 정한다.", "geometrySource": "termini + terrain least-cost path", "license": "경로는 이 프로젝트가 계산한 값. 표고 Mapterhorn, 대조에 Itiner-e (CC BY 4.0)."}, "geometry": {"type": "MultiLineString", "coordinates": [[[35.283, 32.213], [35.35765, 32.21012], [35.35969, 32.20822], [35.36182, 32.20814], [35.36589, 32.20434], [35.36803, 32.20426], [35.37249, 32.20773], [35.38315, 32.20732], [35.38538, 32.20905], [35.39391, 32.20872], [35.39595, 32.20682], [35.40875, 32.20633], [35.41078, 32.20443], [35.41291, 32.20435], [35.41514, 32.20608], [35.41728, 32.206], [35.42339, 32.2003], [35.44471, 32.19948], [35.44675, 32.19758], [35.49794, 32.19561], [35.49998, 32.19371], [35.51754, 32.19305], [35.51803, 32.19311], [35.51848, 32.19322], [35.5189, 32.19339], [35.51928, 32.1936], [35.51963, 32.19387], [35.51994, 32.19419], [35.52116, 32.19597], [35.5213, 32.19611], [35.52145, 32.19623], [35.52162, 32.19633], [35.52181, 32.1964], [35.52201, 32.19645], [35.52223, 32.19648], [35.52363, 32.19643], [35.52586, 32.19817], [35.53653, 32.19776], [35.53876, 32.19949], [35.54302, 32.19933], [35.54525, 32.20106], [35.54952, 32.2009], [35.55175, 32.20263], [35.62, 32.2]], [[35.62, 32.2], [35.65584, 32.1949], [35.65831, 32.19644], [35.66042, 32.19614], [35.66289, 32.19767], [35.67132, 32.19647], [35.67307, 32.19434], [35.6794, 32.19344], [35.68115, 32.1913], [35.68326, 32.191], [35.685, 32.18886], [35.69344, 32.18766], [35.69519, 32.18553], [35.6973, 32.18523], [35.69976, 32.18676], [35.71452, 32.18466], [35.71699, 32.1862], [35.7191, 32.1859]], [[35.7191, 32.1859], [35.71612, 32.18479], [35.70789, 32.18776], [35.70491, 32.18665], [35.7008, 32.18814], [35.69782, 32.18703], [35.69576, 32.18777], [35.69462, 32.19036], [35.69051, 32.19185], [35.68709, 32.19962], [35.68504, 32.20037], [35.68206, 32.19926], [35.68, 32.2]]]}}, {"type": "Feature", "properties": {"id": "ot-salt", "roadId": "ot-salt", "nameKo": "소금길 (헤브론–엔게디)", "nameEn": "Salt route (Hebron–En Gedi)", "routeType": "trade", "testament": "ot", "activeC30": false, "region": "유대 광야", "periodKo": "철기 (왕국 시대)", "via": ["헤브론", "시스 고개", "엔게디"], "relatedPlaces": ["헤브론", "시스 고개", "엔게디"], "relatedVerses": ["대하 20:16", "수 15:62", "삼상 24:1"], "certainty": "hypothetical", "lengthKm": 31, "walkDays": [1, 1], "romanOverlapPct": 34, "laterRomanOverlapPct": 0, "sourceIds": ["bible-text", "ot-places", "mapterhorn-dem", "itinere-2024"], "noteKo": "유대 광야를 가로질러 사해까지 1,000 m 넘게 떨어진다.", "basisKo": "여호사밧 때 적군이 “시스 고개로 올라오리라” 한 그 비탈이다(대하 20:16). 사해의 소금과 역청을 산지로 실어 올리던 길이며, 다윗이 사울을 피한 엔게디가 그 끝이다.", "geometrySource": "termini + terrain least-cost path", "license": "경로는 이 프로젝트가 계산한 값. 표고 Mapterhorn, 대조에 Itiner-e (CC BY 4.0)."}, "geometry": {"type": "MultiLineString", "coordinates": [[[35.0998, 31.5326], [35.1077, 31.53635], [35.11787, 31.53381], [35.12576, 31.53756], [35.12983, 31.53655], [35.15831, 31.52942], [35.16118, 31.52488], [35.18152, 31.51979], [35.18296, 31.51752], [35.20127, 31.51294], [35.2027, 31.51067], [35.23728, 31.50202], [35.23992, 31.50327], [35.25619, 31.4992], [35.26145, 31.5017], [35.26755, 31.50018], [35.26899, 31.49791], [35.30967, 31.48773], [35.31255, 31.48319], [35.32882, 31.47912], [35.33026, 31.47685], [35.3445, 31.47329], [35.34593, 31.47102], [35.35, 31.47]], [[35.35, 31.47], [35.35275, 31.47138], [35.35486, 31.47086], [35.35632, 31.46842], [35.37316, 31.46421], [35.37462, 31.46178], [35.37601, 31.46144], [35.37623, 31.46142], [35.37644, 31.46143], [35.37665, 31.46147], [35.37684, 31.46153], [35.37703, 31.46162], [35.37721, 31.46174], [35.38012, 31.46454], [35.38287, 31.46592], [35.38426, 31.46556], [35.38445, 31.46548], [35.38463, 31.46537], [35.38478, 31.46525], [35.38491, 31.4651], [35.38501, 31.46494], [35.38508, 31.46476], [35.38558, 31.46232], [35.38573, 31.46196], [35.38593, 31.46164], [35.38619, 31.46135], [35.38649, 31.4611], [35.38684, 31.46089], [35.38724, 31.46072], [35.39, 31.46]]]}}, {"type": "Feature", "properties": {"id": "ot-negev", "roadId": "ot-negev", "nameKo": "네게브 종단로 (아다림 길)", "nameEn": "Negev route / Way of Atharim", "routeType": "trunk", "testament": "ot", "activeC30": false, "region": "네게브", "periodKo": "철기 (광야~왕국 시대)", "via": ["가데스바네아", "아라드", "브엘세바"], "relatedPlaces": ["가데스바네아", "아라드", "브엘세바"], "relatedVerses": ["민 21:1", "민 13:26", "민 33:36-37"], "certainty": "hypothetical", "lengthKm": 126, "walkDays": [4, 5], "romanOverlapPct": 4, "laterRomanOverlapPct": 0, "sourceIds": ["bible-text", "ot-places", "mapterhorn-dem", "itinere-2024"], "noteKo": "아다림 길의 정확한 선형은 논쟁이 있다. 여기서는 양 끝과 아랏을 잇는 지형상 통로로 그린다.", "basisKo": "아랏 왕이 “이스라엘이 아다림 길로 온다”는 말을 듣고 싸우러 나온 그 길이다(민 21:1). 가데스바네아에서 네게브를 건너 브엘세바로 드는 통로다.", "geometrySource": "termini + terrain least-cost path", "license": "경로는 이 프로젝트가 계산한 값. 표고 Mapterhorn, 대조에 Itiner-e (CC BY 4.0)."}, "geometry": {"type": "MultiLineString", "coordinates": [[[34.4183, 30.6533], [34.4548, 30.68562], [34.45476, 30.69069], [34.48396, 30.71655], [34.48391, 30.72416], [34.48537, 30.72545], [34.48535, 30.72799], [34.50579, 30.74609], [34.50577, 30.74863], [34.51453, 30.75638], [34.56563, 30.80163], [34.56857, 30.80168], [34.57149, 30.80426], [34.57342, 30.80431], [34.57368, 30.80437], [34.57391, 30.80446], [34.5741, 30.80459], [34.57424, 30.80475], [34.57434, 30.80495], [34.5744, 30.80518], [34.57441, 30.80685], [34.70727, 30.92449], [34.71609, 30.92464], [34.74237, 30.94791], [34.74235, 30.95045], [34.84747, 31.04353], [34.85041, 31.04357], [34.85187, 31.04487], [34.8548, 31.04492], [34.88108, 31.06819], [34.88402, 31.06823], [34.976, 31.14968], [34.97894, 31.14973], [35.1264, 31.2803]], [[35.1264, 31.2803], [35.12015, 31.27953], [35.11777, 31.28105], [35.10527, 31.2795], [35.01986, 31.26894], [35.01807, 31.2669], [34.841, 31.245]]]}}, {"type": "Feature", "properties": {"id": "ot-arabah", "roadId": "ot-arabah", "nameKo": "아라바 길", "nameEn": "Way of the Arabah", "routeType": "trade", "testament": "ot", "activeC30": false, "region": "아라바", "periodKo": "철기 (왕국 시대)", "via": ["사해 남단", "에시온게벨"], "relatedPlaces": ["사해 남단", "에시온게벨"], "relatedVerses": ["신 2:8", "왕상 9:26", "왕상 22:48"], "certainty": "hypothetical", "lengthKm": 163, "walkDays": [5, 7], "romanOverlapPct": 0, "laterRomanOverlapPct": 0, "sourceIds": ["bible-text", "ot-places", "mapterhorn-dem", "itinere-2024"], "noteKo": "사해 남단에서 홍해까지 이어지는 지구대 바닥길이다.", "basisKo": "“엘랏과 에시온게벨 곁으로 지나 아라바 길을 떠나”(신 2:8). 솔로몬이 에시온게벨에 배를 지은 그 항구로 내려가는 길이며, 아라바 지구대 바닥을 따라간다.", "geometrySource": "termini + terrain least-cost path", "license": "경로는 이 프로젝트가 계산한 값. 표고 Mapterhorn, 대조에 Itiner-e (CC BY 4.0)."}, "geometry": {"type": "MultiLineString", "coordinates": [[[35.47, 30.95], [35.46942, 30.94827], [35.46179, 30.94458], [35.46121, 30.94285], [35.45613, 30.94039], [35.4422, 30.89891], [35.43458, 30.89522], [35.43342, 30.89176], [35.40731, 30.81399], [35.40869, 30.81176], [35.39998, 30.78583], [35.40275, 30.78138], [35.40159, 30.77792], [35.40297, 30.7757], [35.3902, 30.73767], [35.39158, 30.73545], [35.34749, 30.60409], [35.34887, 30.60186], [35.34829, 30.60013], [35.34967, 30.59791], [35.31601, 30.49766], [35.3174, 30.49543], [35.0, 29.55]]]}}, {"type": "Feature", "properties": {"id": "ot-bashan", "roadId": "ot-bashan", "nameKo": "바산 길", "nameEn": "Way of Bashan", "routeType": "regional", "testament": "ot", "activeC30": false, "region": "바산", "periodKo": "철기 (정복 시대)", "via": ["아스다롯", "에드레이"], "relatedPlaces": ["아스다롯", "에드레이"], "relatedVerses": ["민 21:33", "신 3:1-3"], "certainty": "hypothetical", "lengthKm": 25, "walkDays": [1, 1], "romanOverlapPct": 0, "laterRomanOverlapPct": 0, "sourceIds": ["bible-text", "ot-places", "mapterhorn-dem", "itinere-2024"], "noteKo": "짧지만 성경이 이름을 붙여 부르는 길이라 넣었다.", "basisKo": "“그들이 돌이켜 바산 길로 올라가매 바산 왕 옥이 에드레이에서 맞아 싸우려고”(민 21:33). 아스다롯과 에드레이는 옥의 두 도읍이다(수 12:4).", "geometrySource": "termini + terrain least-cost path", "license": "경로는 이 프로젝트가 계산한 값. 표고 Mapterhorn, 대조에 Itiner-e (CC BY 4.0)."}, "geometry": {"type": "MultiLineString", "coordinates": [[[36.0058, 32.8256], [36.00657, 32.82391], [36.00934, 32.82288], [36.02083, 32.79753], [36.10125, 32.62014], [36.1, 32.6178]]]}}]}