{
 "type": "FeatureCollection",
 "attribution": "Kinneret College Bornblum database · Magness 2024 · excavation publications and literary witnesses",
 "note": "장소 단위 17곳. A/B/C는 1세기 회당 건물에 대한 증거 유형과 확실성을 나타낸다.",
 "evidence_model": {
  "A": "서기 70년 이전 회당을 직접 지지하는 건물·층위·명문",
  "B": "회당 후보이나 기능·연대 또는 동일시에 중요한 이견이 있음",
  "C": "1세기 문헌은 회당을 증언하지만 건물 위치가 확인되지 않음"
 },
 "features": [
  {
   "type": "Feature",
   "properties": {
    "ko": "감라 회당",
    "en": "Gamla synagogue",
    "region": "골란",
    "grade": "A",
    "confidence": "확인",
    "criterion": "서기 70년 이전 회당을 직접 지지하는 건물·층위·명문",
    "coordinate_basis": "building",
    "period": "기원전 1세기 말–서기 67년",
    "desc": "성벽 가까이의 장방형 건물로 네 면의 계단식 벤치와 내부 열주가 확인되었다. 서기 67년 로마군 함락층이 사용 종료 시점을 고정한다.",
    "sources": "Bornblum Eretz Israel Synagogues research database, Kinneret College · Gutman 1981, The Synagogue at Gamla · Magness 2024, Ancient Synagogues in Palestine, British Academy",
    "caution": "요세푸스는 감라를 서술하지만 이 건물을 회당이라고 직접 지목하지는 않는다.",
    "refs": "요세푸스 『유대 전쟁사』 4권"
   },
   "geometry": {
    "type": "Point",
    "coordinates": [
     35.74,
     32.902
    ]
   }
  },
  {
   "type": "Feature",
   "properties": {
    "ko": "막달라 회당군",
    "en": "Magdala synagogues",
    "region": "갈릴리",
    "grade": "A",
    "confidence": "확인",
    "criterion": "서기 70년 이전 회당을 직접 지지하는 건물·층위·명문",
    "coordinate_basis": "building",
    "period": "기원전 1세기 중엽–서기 1세기 후반",
    "desc": "2009년 발굴 회당은 벤치·프레스코·모자이크와 성전 기물이 새겨진 막달라 돌을 갖추었다. 2021년에는 같은 도시의 다른 구역에서 두 번째 제2성전기 회당이 확인되었다.",
    "sources": "Avshalom-Gorni & Najar 2013; Runesson 2020, Magdala synagogue phases · University of Haifa / IAA 2021, second Magdala synagogue excavation · Magness 2024, Ancient Synagogues in Palestine, British Academy",
    "caution": "복음서는 예수께서 이 특정 건물에서 가르치셨다고 말하지 않는다. 점은 2009년 발굴지를 대표한다.",
    "refs": "막 15:40"
   },
   "geometry": {
    "type": "Point",
    "coordinates": [
     35.5169,
     32.8247
    ]
   }
  },
  {
   "type": "Feature",
   "properties": {
    "ko": "마사다 회당",
    "en": "Masada synagogue",
    "region": "유대 광야",
    "grade": "A",
    "confidence": "확인",
    "criterion": "서기 70년 이전 회당을 직접 지지하는 건물·층위·명문",
    "coordinate_basis": "building",
    "period": "서기 66–73/74년 회당 단계",
    "desc": "헤롯 궁전·요새의 기존 공간을 제1차 유대전쟁 중 회당으로 개조했다. 벽면 벤치와 게니자에서 나온 성서 두루마리 조각이 기능 판정의 핵심이다.",
    "sources": "Yadin 1966; Netzer 1991, Masada synagogue excavations · Magness 2024, Ancient Synagogues in Palestine, British Academy",
    "caution": "예수 공생애기의 회당 건물이 아니라 서기 66년 이후 개조 단계다.",
    "refs": "요세푸스 『유대 전쟁사』 7권"
   },
   "geometry": {
    "type": "Point",
    "coordinates": [
     35.354,
     31.315
    ]
   }
  },
  {
   "type": "Feature",
   "properties": {
    "ko": "헤로디온 회당",
    "en": "Herodium synagogue",
    "region": "유대",
    "grade": "A",
    "confidence": "확인",
    "criterion": "서기 70년 이전 회당을 직접 지지하는 건물·층위·명문",
    "coordinate_basis": "building",
    "period": "서기 66–71년 회당 단계",
    "desc": "헤롯 시대 접견 공간으로 보이는 방을 제1차 유대전쟁 때 벤치가 둘린 집회 공간으로 개조했다.",
    "sources": "Corbo 1967; Netzer 1981, Herodium synagogue conversion · Bornblum Eretz Israel Synagogues research database, Kinneret College · Magness 2024, Ancient Synagogues in Palestine, British Academy",
    "caution": "예수 공생애기부터 사용된 회당이 아니라 전쟁기 전용 단계다.",
    "refs": "요세푸스 『유대 전쟁사』 1권"
   },
   "geometry": {
    "type": "Point",
    "coordinates": [
     35.241,
     31.666
    ]
   }
  },
  {
   "type": "Feature",
   "properties": {
    "ko": "움 엘우므단 회당",
    "en": "Khirbet Umm el-'Umdan synagogue",
    "region": "모디인 인근",
    "grade": "A",
    "confidence": "확인",
    "criterion": "서기 70년 이전 회당을 직접 지지하는 건물·층위·명문",
    "coordinate_basis": "building",
    "period": "하스몬기–서기 2세기 초; 제2성전기 단계 포함",
    "desc": "여러 건축 단계와 삼면 벤치, 인접 미크베가 조사된 마을 회당이다. 후기 제2성전기까지 이어진 단계가 확인된다.",
    "sources": "Onn & Weksler-Bdolah 2004, Khirbet Umm el-Umdan · Magness 2024, Ancient Synagogues in Palestine, British Academy",
    "caution": "고대 모디인과의 정확한 동일시는 논쟁 중이며 회당 판정과 도시 동일시를 분리해야 한다.",
    "refs": "마카베오상 2:1"
   },
   "geometry": {
    "type": "Point",
    "coordinates": [
     34.99785,
     31.88338
    ]
   }
  },
  {
   "type": "Feature",
   "properties": {
    "ko": "키르벳 바드 이사 회당",
    "en": "Khirbet Badd 'Isa / Qiryat Sefer synagogue",
    "region": "베냐민",
    "grade": "A",
    "confidence": "확인",
    "criterion": "서기 70년 이전 회당을 직접 지지하는 건물·층위·명문",
    "coordinate_basis": "building",
    "period": "후기 제2성전기–바르코크바 전후",
    "desc": "중앙 열주와 삼면 벤치를 갖춘 농촌 정착지의 공공 집회 건물로 발굴되었다. 회당 판정은 널리 수용되지만 사용 단계는 서기 70년 전후를 걸친다.",
    "sources": "Magen, Zionit & Sirkis 2004, Khirbet Badd 'Isa–Qiryat Sefer · Bornblum Eretz Israel Synagogues research database, Kinneret College · Magness 2024, Ancient Synagogues in Palestine, British Academy",
    "caution": "서기 1세기 한 시점의 단일 건축 단계로 단순화하지 않는다."
   },
   "geometry": {
    "type": "Point",
    "coordinates": [
     35.04232,
     31.92651
    ]
   }
  },
  {
   "type": "Feature",
   "properties": {
    "ko": "텔 레케쉬 회당",
    "en": "Tel Rekhesh synagogue",
    "region": "하부 갈릴리",
    "grade": "A",
    "confidence": "확인",
    "criterion": "서기 70년 이전 회당을 직접 지지하는 건물·층위·명문",
    "coordinate_basis": "building",
    "period": "서기 1세기; 서기 70년 이전",
    "desc": "농촌 정착지의 현무암·석회암 건물로 벽면 벤치와 내부 열주가 확인되었다. 토기와 동전이 서기 1세기 사용을 지지한다.",
    "sources": "Paz et al. 2018, Tel Rekhesh early Roman synagogue · Magness 2024, Ancient Synagogues in Palestine, British Academy",
    "caution": "마태복음의 여러 회당을 보여 주는 비교 자료이지 본문 속 특정 회당으로 동일시된 것은 아니다.",
    "refs": "마 4:23"
   },
   "geometry": {
    "type": "Point",
    "coordinates": [
     35.46614,
     32.65345
    ]
   }
  },
  {
   "type": "Feature",
   "properties": {
    "ko": "가버나움 회당 후보",
    "en": "Capernaum synagogue candidate",
    "region": "갈릴리",
    "grade": "B",
    "confidence": "논쟁",
    "criterion": "회당 후보이나 기능·연대 또는 동일시에 중요한 이견이 있음",
    "coordinate_basis": "site",
    "period": "현존 건물은 후기 로마기; 하부 단계 연대 논쟁",
    "desc": "현재 보이는 흰 석회암 회당은 대체로 후기 로마기에 속한다. 아래 현무암 벽과 바닥을 1세기 회당으로 연결하는 견해가 있으나 층위와 기능 해석에 이견이 크다.",
    "sources": "Loffreda 1970–2003, Capernaum synagogue excavations and dating debate · Bornblum Eretz Israel Synagogues research database, Kinneret College · Magness 2024, Ancient Synagogues in Palestine, British Academy",
    "caution": "흰 회당 자체를 예수께서 가르치신 1세기 건물로 표시해서는 안 된다.",
    "refs": "막 1:21; 눅 7:5"
   },
   "geometry": {
    "type": "Point",
    "coordinates": [
     35.575,
     32.8808
    ]
   }
  },
  {
   "type": "Feature",
   "properties": {
    "ko": "호르밧 에트리 회당 후보",
    "en": "Horvat 'Etri synagogue candidate",
    "region": "유대 구릉",
    "grade": "B",
    "confidence": "논쟁",
    "criterion": "회당 후보이나 기능·연대 또는 동일시에 중요한 이견이 있음",
    "coordinate_basis": "building",
    "period": "후기 제2성전기–바르코크바기",
    "desc": "마을의 공공 건물에 벤치와 회당으로 해석되는 요소가 있으나 건물 기능과 정확한 사용 단계가 확정적이지 않다.",
    "sources": "Zissu & Ganor 2009, Horvat 'Etri public-building proposal · Magness 2024, Ancient Synagogues in Palestine, British Academy",
    "caution": "확인된 서기 70년 이전 회당 목록과 동일한 등급으로 세지 않는다."
   },
   "geometry": {
    "type": "Point",
    "coordinates": [
     34.97201,
     31.64947
    ]
   }
  },
  {
   "type": "Feature",
   "properties": {
    "ko": "여리고 하스몬 궁전 회당 후보",
    "en": "Jericho Hasmonean synagogue candidate",
    "region": "여리고",
    "grade": "B",
    "confidence": "논쟁",
    "criterion": "회당 후보이나 기능·연대 또는 동일시에 중요한 이견이 있음",
    "coordinate_basis": "building",
    "period": "기원전 75–50년경 제안",
    "desc": "하스몬 궁전 단지의 장방형 건물을 발굴자는 초기 회당으로 해석했다. 그러나 연회·접견 공간 등 다른 기능 해석이 있다.",
    "sources": "Netzer 1999/2004, Hasmonean Jericho building; identification disputed · Magness 2024, Ancient Synagogues in Palestine, British Academy",
    "caution": "세계에서 가장 오래된 회당처럼 확정적으로 서술하지 않는다."
   },
   "geometry": {
    "type": "Point",
    "coordinates": [
     35.43508,
     31.8535
    ]
   }
  },
  {
   "type": "Feature",
   "properties": {
    "ko": "예루살렘 회당·테오도투스 비문",
    "en": "Jerusalem synagogue / Theodotus inscription",
    "region": "예루살렘",
    "grade": "C",
    "confidence": "문헌",
    "criterion": "1세기 문헌은 회당을 증언하지만 건물 위치가 확인되지 않음",
    "coordinate_basis": "findspot",
    "period": "후기 제2성전기",
    "desc": "테오도투스 비문은 율법 낭독·계명 교육과 순례자 숙박을 위한 회당 및 부속시설을 명시한다. 비문은 오벨에서 발견되었지만 원래 건물의 정확한 자리는 확인되지 않았다.",
    "sources": "CIJ II 1404 / IAA S 842, Theodotus synagogue inscription · Magness 2024, Ancient Synagogues in Palestine, British Academy",
    "caution": "점은 비문 발견권의 대표 위치이며 회당 건물 좌표가 아니다.",
    "refs": "행 6:9"
   },
   "geometry": {
    "type": "Point",
    "coordinates": [
     35.2354,
     31.7784
    ]
   }
  },
  {
   "type": "Feature",
   "properties": {
    "ko": "나사렛 회당 문헌 위치",
    "en": "Nazareth synagogue literary location",
    "region": "갈릴리",
    "grade": "C",
    "confidence": "문헌",
    "criterion": "1세기 문헌은 회당을 증언하지만 건물 위치가 확인되지 않음",
    "coordinate_basis": "site",
    "period": "서기 1세기 문헌 증언",
    "desc": "누가복음은 예수께서 안식일에 나사렛 회당에서 이사야서를 읽으셨다고 전한다. 현재까지 그 1세기 회당 건물은 확인되지 않았다.",
    "sources": "New Testament literary witness",
    "caution": "점은 고대 나사렛 취락 대표점이지 회당 발굴점이 아니다.",
    "refs": "눅 4:16-30"
   },
   "geometry": {
    "type": "Point",
    "coordinates": [
     35.2978,
     32.7019
    ]
   }
  },
  {
   "type": "Feature",
   "properties": {
    "ko": "디베랴 프로슈케 문헌 위치",
    "en": "Tiberias proseuche literary location",
    "region": "갈릴리",
    "grade": "C",
    "confidence": "문헌",
    "criterion": "1세기 문헌은 회당을 증언하지만 건물 위치가 확인되지 않음",
    "coordinate_basis": "site",
    "period": "서기 1세기 문헌 증언",
    "desc": "요세푸스는 서기 66년 디베랴에서 많은 사람이 모인 큰 프로슈케를 언급한다. 회당 또는 기도처로 해석되지만 건물은 확인되지 않았다.",
    "sources": "Josephus, Life 277–280 · Magness 2024, Ancient Synagogues in Palestine, British Academy",
    "caution": "프로슈케와 회당 건물의 관계를 단정하지 않으며 점은 도시 대표점이다.",
    "refs": "요세푸스 『자서전』 277–280"
   },
   "geometry": {
    "type": "Point",
    "coordinates": [
     35.5312,
     32.7959
    ]
   }
  },
  {
   "type": "Feature",
   "properties": {
    "ko": "키르벳 와디 하맘 회당 후보",
    "en": "Khirbet Wadi Hamam synagogue candidate",
    "region": "하부 갈릴리",
    "grade": "B",
    "confidence": "논쟁",
    "criterion": "회당 후보이나 기능·연대 또는 동일시에 중요한 이견이 있음",
    "coordinate_basis": "site",
    "period": "초기 로마기 단계 제안; 현존 회당은 3~4세기",
    "desc": "니타이 산 기슭 마을의 중심에 도리아식 홈기둥과 벤치, 회벽을 갖춘 현무암 공공 건물이 있다. 발굴자는 갈릴리에서 두 번째로 알려진 제2성전기 회당으로 본다. 다만 널리 알려진 모자이크 회당은 더 늦은 단계이고, 마을은 서기 125~135년경 파괴되었다가 2세기 말에 다시 산다.",
    "sources": "Ryan 2023, Jesus in the Synagogue, Biblical Archaeology Review 49:1 (135년 이전 회당 16곳 목록) · Leibner 2010, JRA 23; Leibner (ed.) 2018, Khirbet Wadi Hamam, Qedem Reports 13 · Bornblum Eretz Israel Synagogues research database, Kinneret College",
    "caution": "초기 로마기 단계와 후기 회당을 한 건물로 뭉뚱그려 읽지 않는다. 점은 유적 대표점이다."
   },
   "geometry": {
    "type": "Point",
    "coordinates": [
     35.48936,
     32.82728
    ]
   }
  },
  {
   "type": "Feature",
   "properties": {
    "ko": "키르벳 카나 회당 후보",
    "en": "Khirbet Qana synagogue candidate",
    "region": "하부 갈릴리",
    "grade": "B",
    "confidence": "논쟁",
    "criterion": "회당 후보이나 기능·연대 또는 동일시에 중요한 이견이 있음",
    "coordinate_basis": "site",
    "period": "초기 로마기",
    "desc": "인구 백 명 남짓한 농촌 마을의 한복판에 선 공공 건물이다. 라이언은 이곳을 1세기 회당으로 세지만, 건물 자체의 회당 판정 근거는 감라·막달라처럼 두텁지 않다. 이 유적은 복음서의 가나 후보지이기도 하다.",
    "sources": "Ryan 2023, Jesus in the Synagogue, Biblical Archaeology Review 49:1 (135년 이전 회당 16곳 목록) · Edwards, Khirbet Qana 발굴 (하부 갈릴리 마을 중심 공공 건물)",
    "caution": "가나 동일시와 회당 판정은 별개 문제다. 둘을 묶어 확정된 것처럼 읽지 않는다."
   },
   "geometry": {
    "type": "Point",
    "coordinates": [
     35.30328,
     32.82137
    ]
   }
  },
  {
   "type": "Feature",
   "properties": {
    "ko": "시킨 회당 후보",
    "en": "Shikhin synagogue candidate",
    "region": "갈릴리",
    "grade": "B",
    "confidence": "논쟁",
    "criterion": "회당 후보이나 기능·연대 또는 동일시에 중요한 이견이 있음",
    "coordinate_basis": "site",
    "period": "초기 로마기",
    "desc": "세포리스 바로 곁의 유대인 마을이다. 초기 로마기 공공 건물의 조각난 유구가 나왔고 발굴자는 회당으로 본다. 라이언도 135년 이전 목록에 넣는다.",
    "sources": "Ryan 2023, Jesus in the Synagogue, Biblical Archaeology Review 49:1 (135년 이전 회당 16곳 목록) · Strange, Shikhin Excavation Project (세포리스 인근 시킨)",
    "caution": "유구가 조각난 상태라 건물 평면이 복원되지 않았다. 확인된 회당과 같은 등급으로 세지 않는다."
   },
   "geometry": {
    "type": "Point",
    "coordinates": [
     35.27331,
     32.76889
    ]
   }
  },
  {
   "type": "Feature",
   "properties": {
    "ko": "키르벳 마즈둘리야 회당 후보",
    "en": "Khirbet Majduliyya synagogue candidate",
    "region": "골란",
    "grade": "B",
    "confidence": "논쟁",
    "criterion": "회당 후보이나 기능·연대 또는 동일시에 중요한 이견이 있음",
    "coordinate_basis": "building",
    "period": "연대가 갈린다 — 라이언 135년 이전 · Bornblum DB 후기 로마~비잔틴",
    "desc": "가울라니티스와 히포스의 경계에 있던 농촌 유적이다. 2014년부터 동쪽 끝에서 바깥 치수 약 23×13 m 의 현무암 공공 건물이 드러났다 — 도리아식 기둥과 주두, 잘 다듬은 현무암 벤치 여러 단, 지붕 기와와 모자이크 바닥 조각이 나왔다. 서쪽 긴 변에만 문이 있고 기둥이 두 줄뿐인 점이 다른 회당과 다르다.",
    "sources": "Ryan 2023, Jesus in the Synagogue, Biblical Archaeology Review 49:1 (135년 이전 회당 16곳 목록) · Osband 2014- , Khirbet Majduliyya 발굴 (제17차 세계유대학대회 발표) · Bornblum Eretz Israel Synagogues research database, Kinneret College",
    "caution": "두 자료가 갈린다 — 라이언은 135년 이전 목록에 넣지만 Bornblum DB 는 후기 로마~비잔틴으로 적는다. 어느 한쪽을 확정해 옮기지 않는다."
   },
   "geometry": {
    "type": "Point",
    "coordinates": [
     35.7674,
     32.86342
    ]
   }
  }
 ]
}