{"type":"FeatureCollection","features":[{"type":"Feature","id":"rp0","properties":{"ko":"레바논산맥","en":"Mount Lebanon Range","rank":3,"kind":"range"},"geometry":{"type":"Point","coordinates":[35.904,33.842]}},{"type":"Feature","id":"rp1","properties":{"ko":"토로스산맥","en":"Taurus mountains","rank":3,"kind":"range"},"geometry":{"type":"Point","coordinates":[33.258,36.87]}},{"type":"Feature","id":"rp2","properties":{"ko":"안티아틀라스산맥","en":"Anti-Atlas","rank":4,"kind":"range"},"geometry":{"type":"Point","coordinates":[-7.606,30.328]}},{"type":"Feature","id":"rp3","properties":{"ko":"세하두마르산맥","en":"Serra do Mar","rank":4,"kind":"range"},"geometry":{"type":"Point","coordinates":[-49.117,-27.337]}},{"type":"Feature","id":"rp4","properties":{"ko":"세하제라우산맥","en":"Serra Geral","rank":4,"kind":"range"},"geometry":{"type":"Point","coordinates":[-50.646,-26.933]}},{"type":"Feature","id":"rp5","properties":{"ko":"기아나고지","en":"Guiana Highlands","rank":4,"kind":"range"},"geometry":{"type":"Point","coordinates":[-63.165,5.177]}},{"type":"Feature","id":"rp6","properties":{"ko":"체르스키산맥","en":"Chersky Range","rank":4,"kind":"range"},"geometry":{"type":"Point","coordinates":[141.445,65.981]}},{"type":"Feature","id":"rp7","properties":{"ko":"폰투스산맥","en":"Pontic Mountains","rank":4,"kind":"range"},"geometry":{"type":"Point","coordinates":[38.047,40.922]}},{"type":"Feature","id":"rp8","properties":{"ko":"발칸산맥","en":"Balkan Mountains","rank":4,"kind":"range"},"geometry":{"type":"Point","coordinates":[24.764,42.966]}},{"type":"Feature","id":"rp9","properties":{"ko":"디나르알프스산맥","en":"Dinaric Alps","rank":4,"kind":"range"},"geometry":{"type":"Point","coordinates":[17.147,43.223]}},{"type":"Feature","id":"rp10","properties":{"ko":"사하라아틀라스산맥","en":"Saharan Atlas","rank":3,"kind":"range"},"geometry":{"type":"Point","coordinates":[1.161,33.685]}},{"type":"Feature","id":"rp11","properties":{"ko":"오트아틀라스산맥","en":"High Atlas","rank":3,"kind":"range"},"geometry":{"type":"Point","coordinates":[-6.163,32.161]}},{"type":"Feature","id":"rp12","properties":{"ko":"드라켄즈버그산맥","en":"Drakensberg","rank":3,"kind":"range"},"geometry":{"type":"Point","coordinates":[30.214,-28.729]}},{"type":"Feature","id":"rp13","properties":{"ko":"크리스털산맥","en":"Crystal Mountain","rank":3,"kind":"range"},"geometry":{"type":"Point","coordinates":[12.667,-3.754]}},{"type":"Feature","id":"rp14","properties":{"ko":"티베스티산맥","en":"Tibesti Mountains","rank":3,"kind":"range"},"geometry":{"type":"Point","coordinates":[18.126,21.85]}},{"type":"Feature","id":"rp15","properties":{"ko":"아하가르산맥","en":"Ahag","rank":3,"kind":"range"},"geometry":{"type":"Point","coordinates":[4.741,24.373]}},{"type":"Feature","id":"rp16","properties":{"ko":"아이르산맥","en":"Aïr Mountains","rank":3,"kind":"range"},"geometry":{"type":"Point","coordinates":[8.813,18.919]}},{"type":"Feature","id":"rp17","properties":{"ko":"미툼바산맥","en":"Mitumba Mountains","rank":3,"kind":"range"},"geometry":{"type":"Point","coordinates":[29.034,-0.993]}},{"type":"Feature","id":"rp18","properties":{"ko":"샤오싱안링산맥","en":"Lesser Khingan","rank":3,"kind":"range"},"geometry":{"type":"Point","coordinates":[128.065,49.134]}},{"type":"Feature","id":"rp19","properties":{"ko":"시호테알린산맥","en":"Sikhote-Alin","rank":3,"kind":"range"},"geometry":{"type":"Point","coordinates":[137.51,46.584]}},{"type":"Feature","id":"rp20","properties":{"ko":"베르호얀스크산맥","en":"Verkhoyansk Range","rank":3,"kind":"range"},"geometry":{"type":"Point","coordinates":[131.176,64.65]}},{"type":"Feature","id":"rp21","properties":{"ko":"치롄산맥","en":"Qilian Mountains","rank":3,"kind":"range"},"geometry":{"type":"Point","coordinates":[98.442,37.978]}},{"type":"Feature","id":"rp22","properties":{"ko":"사얀산맥","en":"Eastern Sayan Mountains","rank":3,"kind":"range"},"geometry":{"type":"Point","coordinates":[97.163,53.117]}},{"type":"Feature","id":"rp23","properties":{"ko":"다볘산맥","en":"Dabie Mountains","rank":3,"kind":"range"},"geometry":{"type":"Point","coordinates":[114.925,30.993]}},{"type":"Feature","id":"rp24","properties":{"ko":"난링산맥","en":"Nanling Mountains","rank":3,"kind":"range"},"geometry":{"type":"Point","coordinates":[111.885,24.49]}},{"type":"Feature","id":"rp25","properties":{"ko":"서고츠산맥","en":"Western Ghats","rank":3,"kind":"range"},"geometry":{"type":"Point","coordinates":[73.941,15.448]}},{"type":"Feature","id":"rp26","properties":{"ko":"동고츠산맥","en":"Eastern Ghats","rank":3,"kind":"range"},"geometry":{"type":"Point","coordinates":[80.151,16.746]}},{"type":"Feature","id":"rp27","properties":{"ko":"알툰산맥","en":"Altyn-Tagh","rank":3,"kind":"range"},"geometry":{"type":"Point","coordinates":[90.351,38.027]}},{"type":"Feature","id":"rp28","properties":{"ko":"헤자즈산맥","en":"Hejaz Mountains","rank":3,"kind":"range"},"geometry":{"type":"Point","coordinates":[37.93,25.78]}},{"type":"Feature","id":"rp29","properties":{"ko":"아시르산맥","en":"Asir Mountains","rank":3,"kind":"range"},"geometry":{"type":"Point","coordinates":[42.611,19.248]}},{"type":"Feature","id":"rp30","properties":{"ko":"엘부르즈산맥","en":"Elburz Mountains","rank":3,"kind":"range"},"geometry":{"type":"Point","coordinates":[51.599,36.062]}},{"type":"Feature","id":"rp31","properties":{"ko":"스칸디나비아산맥","en":"Scandinavian Mountains","rank":3,"kind":"range"},"geometry":{"type":"Point","coordinates":[13.408,66.033]}},{"type":"Feature","id":"rp32","properties":{"ko":"카르파티아산맥","en":"Carpathian Mountains","rank":3,"kind":"range"},"geometry":{"type":"Point","coordinates":[23.045,48.188]}},{"type":"Feature","id":"rp33","properties":{"ko":"아펜니노산맥","en":"Appennino Ligure","rank":3,"kind":"range"},"geometry":{"type":"Point","coordinates":[12.737,42.82]}},{"type":"Feature","id":"rp34","properties":{"ko":"피레네산맥","en":"Pyrenees","rank":3,"kind":"range"},"geometry":{"type":"Point","coordinates":[0.609,42.466]}},{"type":"Feature","id":"rp35","properties":{"ko":"코스트레인지","en":"Pacific Coast Ranges","rank":3,"kind":"range"},"geometry":{"type":"Point","coordinates":[-123.776,41.183]}},{"type":"Feature","id":"rp36","properties":{"ko":"동시에라마드레산맥","en":"Sierra Madre Oriental","rank":3,"kind":"range"},"geometry":{"type":"Point","coordinates":[-100.682,24.939]}},{"type":"Feature","id":"rp37","properties":{"ko":"시에라네바다산맥","en":"Sierra Nevada","rank":3,"kind":"range"},"geometry":{"type":"Point","coordinates":[-120.102,37.604]}},{"type":"Feature","id":"rp38","properties":{"ko":"서시에라마드레산맥","en":"Sierra Madre Occidental","rank":3,"kind":"range"},"geometry":{"type":"Point","coordinates":[-106.809,26.158]}},{"type":"Feature","id":"rp39","properties":{"ko":"추가치산맥","en":"Chugach Mountains","rank":3,"kind":"range"},"geometry":{"type":"Point","coordinates":[-145.375,60.698]}},{"type":"Feature","id":"rp40","properties":{"ko":"매켄지산맥","en":"Mackenzie Mountains","rank":3,"kind":"range"},"geometry":{"type":"Point","coordinates":[-129.152,63.258]}},{"type":"Feature","id":"rp41","properties":{"ko":"에티오피아고원","en":"Ethiopian Highlands","rank":2,"kind":"range"},"geometry":{"type":"Point","coordinates":[37.933,10.341]}},{"type":"Feature","id":"rp42","properties":{"ko":"자그로스산맥","en":"Zagros Mountains","rank":2,"kind":"range"},"geometry":{"type":"Point","coordinates":[50.214,30.585]}},{"type":"Feature","id":"rp43","properties":{"ko":"알타이산맥","en":"Altai Mountains","rank":2,"kind":"range"},"geometry":{"type":"Point","coordinates":[90.96,46.786]}},{"type":"Feature","id":"rp44","properties":{"ko":"대싱안링산맥","en":"Greater Khingan","rank":2,"kind":"range"},"geometry":{"type":"Point","coordinates":[122.95,47.76]}},{"type":"Feature","id":"rp45","properties":{"ko":"스타노보이산맥","en":"Stanovoy Range","rank":2,"kind":"range"},"geometry":{"type":"Point","coordinates":[130.697,55.644]}},{"type":"Feature","id":"rp46","properties":{"ko":"안남산맥","en":"Annamite Range","rank":2,"kind":"range"},"geometry":{"type":"Point","coordinates":[106.442,16.586]}},{"type":"Feature","id":"rp47","properties":{"ko":"시왈리크구릉","en":"Siwalik Hills","rank":2,"kind":"range"},"geometry":{"type":"Point","coordinates":[83.173,27.586]}},{"type":"Feature","id":"rp48","properties":{"ko":"파미르고원","en":"Pamir mountains","rank":2,"kind":"range"},"geometry":{"type":"Point","coordinates":[74.07,38.277]}},{"type":"Feature","id":"rp49","properties":{"ko":"힌두쿠시산맥","en":"Hindu Kush","rank":2,"kind":"range"},"geometry":{"type":"Point","coordinates":[71.627,36.179]}},{"type":"Feature","id":"rp50","properties":{"ko":"카라코람산맥","en":"Karakoram","rank":2,"kind":"range"},"geometry":{"type":"Point","coordinates":[77.676,35.746]}},{"type":"Feature","id":"rp51","properties":{"ko":"쿤룬산맥","en":"Kunlun Mountains","rank":2,"kind":"range"},"geometry":{"type":"Point","coordinates":[88.723,37.17]}},{"type":"Feature","id":"rp52","properties":{"ko":"아틀라스산맥","en":"Atlas Mountains","rank":2,"kind":"range"},"geometry":{"type":"Point","coordinates":[-1.35,34.955]}},{"type":"Feature","id":"rp53","properties":{"ko":"애팔래치아산맥","en":"Appalachian Mountains","rank":2,"kind":"range"},"geometry":{"type":"Point","coordinates":[-77.613,41.785]}},{"type":"Feature","id":"rp54","properties":{"ko":"브룩스산맥","en":"Brooks Range","rank":2,"kind":"range"},"geometry":{"type":"Point","coordinates":[-152.528,69.953]}},{"type":"Feature","id":"rp55","properties":{"ko":"코스트산맥","en":"Coast Mountains","rank":2,"kind":"range"},"geometry":{"type":"Point","coordinates":[-129.553,54.64]}},{"type":"Feature","id":"rp56","properties":{"ko":"캐스케이드산맥","en":"Cascade Range","rank":2,"kind":"range"},"geometry":{"type":"Point","coordinates":[-122.088,46.013]}},{"type":"Feature","id":"rp57","properties":{"ko":"알래스카산맥","en":"Alaska Range","rank":2,"kind":"range"},"geometry":{"type":"Point","coordinates":[-149.057,63.174]}},{"type":"Feature","id":"rp58","properties":{"ko":"그레이트디바이딩산맥","en":"Great Dividing Range","rank":1,"kind":"range"},"geometry":{"type":"Point","coordinates":[149.678,-25.508]}},{"type":"Feature","id":"rp59","properties":{"ko":"알프스산맥","en":"Alps","rank":1,"kind":"range"},"geometry":{"type":"Point","coordinates":[10.752,46.421]}},{"type":"Feature","id":"rp60","properties":{"ko":"톈산산맥","en":"Tian Shan","rank":1,"kind":"range"},"geometry":{"type":"Point","coordinates":[83.914,42.995]}},{"type":"Feature","id":"rp61","properties":{"ko":"우랄산맥","en":"Ural Mountains","rank":1,"kind":"range"},"geometry":{"type":"Point","coordinates":[58.781,61.388]}},{"type":"Feature","id":"rp62","properties":{"ko":"캅카스산맥","en":"Caucasus Mountains","rank":1,"kind":"range"},"geometry":{"type":"Point","coordinates":[43.512,43.151]}},{"type":"Feature","id":"rp63","properties":{"ko":"히말라야산맥","en":"Himalayas","rank":1,"kind":"range"},"geometry":{"type":"Point","coordinates":[84.963,27.965]}},{"type":"Feature","id":"rp64","properties":{"ko":"안데스산맥","en":"Andes","rank":1,"kind":"range"},"geometry":{"type":"Point","coordinates":[-70.101,-19.898]}},{"type":"Feature","id":"rp65","properties":{"ko":"로키산맥","en":"Rocky Mountains","rank":1,"kind":"range"},"geometry":{"type":"Point","coordinates":[-115.879,47.68]}},{"type":"Feature","id":"rp66","properties":{"ko":"남극횡단산맥","en":"Transantarctic Mountains","rank":1,"kind":"range"},"geometry":{"type":"Point","coordinates":[163.217,-81.994]}},{"type":"Feature","id":"rp67","properties":{"ko":"서던알프스산맥","en":"Southern Alps/Kā Tiritiri o te Moana","rank":3,"kind":"range"},"geometry":{"type":"Point","coordinates":[169.907,-43.543]}},{"type":"Feature","id":"rp68","properties":{"ko":"나일강","en":"Nile","rank":1,"kind":"river"},"geometry":{"type":"Point","coordinates":[33.085,16.578]}},{"type":"Feature","id":"rp69","properties":{"ko":"청나일강","en":"El Bahr el Azraq","rank":3,"kind":"river"},"geometry":{"type":"Point","coordinates":[35.509,10.088]}},{"type":"Feature","id":"rp70","properties":{"ko":"콩고강","en":"Congo","rank":2,"kind":"river"},"geometry":{"type":"Point","coordinates":[24.018,0.996]}},{"type":"Feature","id":"rp71","properties":{"ko":"우방기강","en":"Ubangi","rank":3,"kind":"river"},"geometry":{"type":"Point","coordinates":[21.285,4.328]}},{"type":"Feature","id":"rp72","properties":{"ko":"카사이강","en":"Kasai","rank":3,"kind":"river"},"geometry":{"type":"Point","coordinates":[20.809,-5.666]}},{"type":"Feature","id":"rp73","properties":{"ko":"니제르강","en":"Niger","rank":3,"kind":"river"},"geometry":{"type":"Point","coordinates":[2.715,12.52]}},{"type":"Feature","id":"rp74","properties":{"ko":"베누에강","en":"Benue","rank":4,"kind":"river"},"geometry":{"type":"Point","coordinates":[9.518,8.088]}},{"type":"Feature","id":"rp75","properties":{"ko":"잠베지강","en":"Zambezi","rank":3,"kind":"river"},"geometry":{"type":"Point","coordinates":[27.217,-17.747]}},{"type":"Feature","id":"rp76","properties":{"ko":"오렌지강","en":"Orange","rank":4,"kind":"river"},"geometry":{"type":"Point","coordinates":[22.811,-29.668]}},{"type":"Feature","id":"rp77","properties":{"ko":"바알강","en":"Vaal","rank":4,"kind":"river"},"geometry":{"type":"Point","coordinates":[26.588,-27.069]}},{"type":"Feature","id":"rp78","properties":{"ko":"림포포강","en":"Limpopo","rank":6,"kind":"river"},"geometry":{"type":"Point","coordinates":[30.806,-22.317]}},{"type":"Feature","id":"rp79","properties":{"ko":"세네갈강","en":"Sénégal","rank":4,"kind":"river"},"geometry":{"type":"Point","coordinates":[-13.529,16.082]}},{"type":"Feature","id":"rp80","properties":{"ko":"볼타강","en":"Volta","rank":5,"kind":"river"},"geometry":{"type":"Point","coordinates":[0.202,7.282]}},{"type":"Feature","id":"rp81","properties":{"ko":"차리강","en":"Chari","rank":6,"kind":"river"},"geometry":{"type":"Point","coordinates":[16.38,10.582]}},{"type":"Feature","id":"rp82","properties":{"ko":"오카방고강","en":"Okavango","rank":6,"kind":"river"},"geometry":{"type":"Point","coordinates":[18.134,-16.964]}},{"type":"Feature","id":"rp83","properties":{"ko":"주바강","en":"Jubba","rank":6,"kind":"river"},"geometry":{"type":"Point","coordinates":[42.16,2.217]}},{"type":"Feature","id":"rp84","properties":{"ko":"유프라테스강","en":"Euphrates","rank":3,"kind":"river"},"geometry":{"type":"Point","coordinates":[39.551,35.775]}},{"type":"Feature","id":"rp85","properties":{"ko":"티그리스강","en":"Tigris","rank":3,"kind":"river"},"geometry":{"type":"Point","coordinates":[44.332,33.575]}},{"type":"Feature","id":"rp86","properties":{"ko":"샤트알아랍","en":"Shatt al Arab","rank":4,"kind":"river"},"geometry":{"type":"Point","coordinates":[47.996,30.441]}},{"type":"Feature","id":"rp87","properties":{"ko":"요단강","en":"Jordan","rank":3,"kind":"river"},"geometry":{"type":"Point","coordinates":[35.586,32.44]}},{"type":"Feature","id":"rp88","properties":{"ko":"인더스강","en":"Indus","rank":3,"kind":"river"},"geometry":{"type":"Point","coordinates":[71.585,32.948]}},{"type":"Feature","id":"rp89","properties":{"ko":"갠지스강","en":"Ganges","rank":3,"kind":"river"},"geometry":{"type":"Point","coordinates":[81.263,25.846]}},{"type":"Feature","id":"rp90","properties":{"ko":"브라마푸트라강","en":"Brahmaputra","rank":2,"kind":"river"},"geometry":{"type":"Point","coordinates":[93.853,29.205]}},{"type":"Feature","id":"rp91","properties":{"ko":"야무나강","en":"Yamuna","rank":6,"kind":"river"},"geometry":{"type":"Point","coordinates":[77.989,27.259]}},{"type":"Feature","id":"rp92","properties":{"ko":"나르마다강","en":"Narmada","rank":6,"kind":"river"},"geometry":{"type":"Point","coordinates":[77.568,22.735]}},{"type":"Feature","id":"rp93","properties":{"ko":"크리슈나강","en":"Krishna","rank":6,"kind":"river"},"geometry":{"type":"Point","coordinates":[77.323,16.443]}},{"type":"Feature","id":"rp94","properties":{"ko":"메콩강","en":"Mekong","rank":2,"kind":"river"},"geometry":{"type":"Point","coordinates":[100.88,19.824]}},{"type":"Feature","id":"rp95","properties":{"ko":"살윈강","en":"Salween","rank":4,"kind":"river"},"geometry":{"type":"Point","coordinates":[98.871,26.033]}},{"type":"Feature","id":"rp96","properties":{"ko":"이라와디강","en":"Ayeyarwady","rank":2,"kind":"river"},"geometry":{"type":"Point","coordinates":[95.921,22.685]}},{"type":"Feature","id":"rp97","properties":{"ko":"창장(양쯔강)","en":"Chang Jiang","rank":1,"kind":"river"},"geometry":{"type":"Point","coordinates":[103.274,27.579]}},{"type":"Feature","id":"rp98","properties":{"ko":"황허","en":"Huang","rank":2,"kind":"river"},"geometry":{"type":"Point","coordinates":[106.745,39.848]}},{"type":"Feature","id":"rp99","properties":{"ko":"시장강","en":"Xi","rank":4,"kind":"river"},"geometry":{"type":"Point","coordinates":[112.001,23.126]}},{"type":"Feature","id":"rp100","properties":{"ko":"쑹화강","en":"Songhua","rank":6,"kind":"river"},"geometry":{"type":"Point","coordinates":[128.838,45.908]}},{"type":"Feature","id":"rp101","properties":{"ko":"아무르강","en":"Amur","rank":3,"kind":"river"},"geometry":{"type":"Point","coordinates":[127.326,50.479]}},{"type":"Feature","id":"rp102","properties":{"ko":"셀렝가강","en":"Selenge (Selenga)","rank":2,"kind":"river"},"geometry":{"type":"Point","coordinates":[103.183,49.37]}},{"type":"Feature","id":"rp103","properties":{"ko":"레나강","en":"Lena","rank":1,"kind":"river"},"geometry":{"type":"Point","coordinates":[122.512,60.612]}},{"type":"Feature","id":"rp104","properties":{"ko":"예니세이강","en":"Yenisey","rank":4,"kind":"river"},"geometry":{"type":"Point","coordinates":[90.579,60.003]}},{"type":"Feature","id":"rp105","properties":{"ko":"앙가라강","en":"Angara","rank":2,"kind":"river"},"geometry":{"type":"Point","coordinates":[103.178,55.685]}},{"type":"Feature","id":"rp106","properties":{"ko":"오브강","en":"Ob","rank":2,"kind":"river"},"geometry":{"type":"Point","coordinates":[75.89,61.029]}},{"type":"Feature","id":"rp107","properties":{"ko":"이르티시강","en":"Irtysh","rank":2,"kind":"river"},"geometry":{"type":"Point","coordinates":[76.173,52.981]}},{"type":"Feature","id":"rp108","properties":{"ko":"콜리마강","en":"Kolyma","rank":4,"kind":"river"},"geometry":{"type":"Point","coordinates":[152.672,64.808]}},{"type":"Feature","id":"rp109","properties":{"ko":"인디기르카강","en":"Indigirka","rank":5,"kind":"river"},"geometry":{"type":"Point","coordinates":[143.225,67.576]}},{"type":"Feature","id":"rp110","properties":{"ko":"페초라강","en":"Pechora","rank":4,"kind":"river"},"geometry":{"type":"Point","coordinates":[56.771,66.025]}},{"type":"Feature","id":"rp111","properties":{"ko":"북드비나강","en":"Severnaya Dvina","rank":4,"kind":"river"},"geometry":{"type":"Point","coordinates":[43.194,62.714]}},{"type":"Feature","id":"rp112","properties":{"ko":"시르다리야강","en":"Syr Darya","rank":5,"kind":"river"},"geometry":{"type":"Point","coordinates":[66.529,44.056]}},{"type":"Feature","id":"rp113","properties":{"ko":"아무다리야강","en":"Amu  Darya","rank":5,"kind":"river"},"geometry":{"type":"Point","coordinates":[62.636,39.826]}},{"type":"Feature","id":"rp114","properties":{"ko":"볼가강","en":"Volga","rank":3,"kind":"river"},"geometry":{"type":"Point","coordinates":[48.294,55.869]}},{"type":"Feature","id":"rp115","properties":{"ko":"우랄강","en":"Ural","rank":4,"kind":"river"},"geometry":{"type":"Point","coordinates":[54.562,51.685]}},{"type":"Feature","id":"rp116","properties":{"ko":"돈강","en":"Don","rank":6,"kind":"river"},"geometry":{"type":"Point","coordinates":[42.097,49.584]}},{"type":"Feature","id":"rp117","properties":{"ko":"드네프르강","en":"Dnipro","rank":4,"kind":"river"},"geometry":{"type":"Point","coordinates":[30.941,50.094]}},{"type":"Feature","id":"rp118","properties":{"ko":"도나우강(다뉴브)","en":"Danube","rank":2,"kind":"river"},"geometry":{"type":"Point","coordinates":[18.733,46.022]}},{"type":"Feature","id":"rp119","properties":{"ko":"라인강","en":"Rhine","rank":4,"kind":"river"},"geometry":{"type":"Point","coordinates":[7.105,50.751]}},{"type":"Feature","id":"rp120","properties":{"ko":"엘베강","en":"Elbe","rank":5,"kind":"river"},"geometry":{"type":"Point","coordinates":[12.874,51.746]}},{"type":"Feature","id":"rp121","properties":{"ko":"오데르강","en":"Oder","rank":4,"kind":"river"},"geometry":{"type":"Point","coordinates":[16.291,51.626]}},{"type":"Feature","id":"rp122","properties":{"ko":"비스와강","en":"Vistula","rank":5,"kind":"river"},"geometry":{"type":"Point","coordinates":[21.278,51.88]}},{"type":"Feature","id":"rp123","properties":{"ko":"센강","en":"Seine","rank":4,"kind":"river"},"geometry":{"type":"Point","coordinates":[2.645,48.503]}},{"type":"Feature","id":"rp124","properties":{"ko":"루아르강","en":"Loire","rank":5,"kind":"river"},"geometry":{"type":"Point","coordinates":[2.368,47.799]}},{"type":"Feature","id":"rp125","properties":{"ko":"론강","en":"Rhône","rank":6,"kind":"river"},"geometry":{"type":"Point","coordinates":[5.521,45.757]}},{"type":"Feature","id":"rp126","properties":{"ko":"에브로강","en":"Ebro","rank":5,"kind":"river"},"geometry":{"type":"Point","coordinates":[-1.408,42.016]}},{"type":"Feature","id":"rp127","properties":{"ko":"포강","en":"Po","rank":6,"kind":"river"},"geometry":{"type":"Point","coordinates":[9.722,45.116]}},{"type":"Feature","id":"rp128","properties":{"ko":"미시시피강","en":"Mississippi","rank":1,"kind":"river"},"geometry":{"type":"Point","coordinates":[-90.696,39.037]}},{"type":"Feature","id":"rp129","properties":{"ko":"미주리강","en":"Missouri","rank":1,"kind":"river"},"geometry":{"type":"Point","coordinates":[-100.335,45.198]}},{"type":"Feature","id":"rp130","properties":{"ko":"오하이오강","en":"Ohio","rank":3,"kind":"river"},"geometry":{"type":"Point","coordinates":[-84.591,39.107]}},{"type":"Feature","id":"rp131","properties":{"ko":"아칸소강","en":"Arkansas","rank":4,"kind":"river"},"geometry":{"type":"Point","coordinates":[-97.937,37.992]}},{"type":"Feature","id":"rp132","properties":{"ko":"콜로라도강","en":"Colorado","rank":5,"kind":"river"},"geometry":{"type":"Point","coordinates":[-112.115,36.139]}},{"type":"Feature","id":"rp133","properties":{"ko":"리오그란데강","en":"Rio Grande","rank":4,"kind":"river"},"geometry":{"type":"Point","coordinates":[-104.769,30.215]}},{"type":"Feature","id":"rp134","properties":{"ko":"컬럼비아강","en":"Columbia","rank":3,"kind":"river"},"geometry":{"type":"Point","coordinates":[-118.685,47.901]}},{"type":"Feature","id":"rp135","properties":{"ko":"스네이크강","en":"Snake","rank":4,"kind":"river"},"geometry":{"type":"Point","coordinates":[-116.036,43.021]}},{"type":"Feature","id":"rp136","properties":{"ko":"유콘강","en":"Yukon","rank":3,"kind":"river"},"geometry":{"type":"Point","coordinates":[-149.955,65.644]}},{"type":"Feature","id":"rp137","properties":{"ko":"매켄지강","en":"Mackenzie","rank":2,"kind":"river"},"geometry":{"type":"Point","coordinates":[-116.869,61.111]}},{"type":"Feature","id":"rp138","properties":{"ko":"프레이저강","en":"Fraser","rank":5,"kind":"river"},"geometry":{"type":"Point","coordinates":[-122.671,53.164]}},{"type":"Feature","id":"rp139","properties":{"ko":"서스캐처원강","en":"Saskatchewan","rank":4,"kind":"river"},"geometry":{"type":"Point","coordinates":[-107.927,52.552]}},{"type":"Feature","id":"rp140","properties":{"ko":"넬슨강","en":"Nelson","rank":6,"kind":"river"},"geometry":{"type":"Point","coordinates":[-97.496,55.098]}},{"type":"Feature","id":"rp141","properties":{"ko":"세인트로렌스강","en":"St. Lawrence","rank":2,"kind":"river"},"geometry":{"type":"Point","coordinates":[-75.284,44.83]}},{"type":"Feature","id":"rp142","properties":{"ko":"아마존강","en":"Amazonas","rank":1,"kind":"river"},"geometry":{"type":"Point","coordinates":[-63.702,-3.854]}},{"type":"Feature","id":"rp143","properties":{"ko":"마데이라강","en":"Madeira","rank":3,"kind":"river"},"geometry":{"type":"Point","coordinates":[-64.024,-8.844]}},{"type":"Feature","id":"rp144","properties":{"ko":"우카얄리강","en":"Ucayali","rank":1,"kind":"river"},"geometry":{"type":"Point","coordinates":[-74.066,-10.018]}},{"type":"Feature","id":"rp145","properties":{"ko":"네그루강","en":"Negro","rank":3,"kind":"river"},"geometry":{"type":"Point","coordinates":[-66.157,-0.331]}},{"type":"Feature","id":"rp146","properties":{"ko":"싱구강","en":"Xingu","rank":5,"kind":"river"},"geometry":{"type":"Point","coordinates":[-52.221,-6.512]}},{"type":"Feature","id":"rp147","properties":{"ko":"타파조스강","en":"Tapajós","rank":5,"kind":"river"},"geometry":{"type":"Point","coordinates":[-57.922,-6.314]}},{"type":"Feature","id":"rp148","properties":{"ko":"토칸칭스강","en":"Tocantins","rank":4,"kind":"river"},"geometry":{"type":"Point","coordinates":[-48.401,-10.317]}},{"type":"Feature","id":"rp149","properties":{"ko":"오리노코강","en":"Orinoco","rank":3,"kind":"river"},"geometry":{"type":"Point","coordinates":[-67.338,6.286]}},{"type":"Feature","id":"rp150","properties":{"ko":"막달레나강","en":"Magdalena","rank":4,"kind":"river"},"geometry":{"type":"Point","coordinates":[-74.41,6.489]}},{"type":"Feature","id":"rp151","properties":{"ko":"파라나강","en":"Paraná","rank":2,"kind":"river"},"geometry":{"type":"Point","coordinates":[-58.053,-20.104]}},{"type":"Feature","id":"rp152","properties":{"ko":"우루과이강","en":"Uruguay","rank":6,"kind":"river"},"geometry":{"type":"Point","coordinates":[-55.1,-27.865]}},{"type":"Feature","id":"rp153","properties":{"ko":"필코마요강","en":"Pilcomayo","rank":6,"kind":"river"},"geometry":{"type":"Point","coordinates":[-62.495,-22.347]}},{"type":"Feature","id":"rp154","properties":{"ko":"머리강","en":"Murray","rank":3,"kind":"river"},"geometry":{"type":"Point","coordinates":[143.368,-34.996]}},{"type":"Feature","id":"rp155","properties":{"ko":"달링강","en":"Darling","rank":3,"kind":"river"},"geometry":{"type":"Point","coordinates":[145.447,-30.4]}}]}